{"version": 0.6, "generator": "Overpass API 0.7.62.7 375dc00a", "osm3s": {"timestamp_osm_base": "2025-07-13T13:42:14Z", "copyright": "The data included in this document is from www.openstreetmap.org. The data is made available under ODbL."}, "elements": [{"type": "node", "id": 462263947, "lat": 1.3051479, "lon": 103.9306772, "tags": {"addr:city": "Singapore", "addr:country": "SG", "addr:housename": "East Coast Seafood Centre", "addr:housenumber": "1206", "addr:postcode": "449883", "addr:street": "East Coast Parkway", "addr:unit": "#01-07/08", "air_conditioning": "yes", "amenity": "restaurant", "branch": "East Coast", "brand": "Jumbo Seafood", "brewery": "Tiger", "check_date": "2025-05-19", "cuisine": "seafood;chinese", "diet:halal": "no", "name": "Jumbo Seafood", "name:ru": "\u0427\u0438\u043b\u0438-\u043a\u0440\u0430\u0431", "name:zh": "\u73cd\u5b9d\u6d77\u9c9c\u697c", "opening_hours": "Mo-Fr 17:00-23:45;Sa,Su,Ph 11:30-24:00", "outdoor_seating": "terrace", "payment:cash": "yes", "payment:credit_cards": "yes", "payment:debit_cards": "yes", "phone": "+6564423435", "reservation": "yes", "toilets": "yes", "website": "http://www.jumboseafood.com.sg/", "wheelchair": "yes", "wikidata": "Q6310913", "wikimedia_commons": "Jumbo Seafood", "wikipedia": "en:Jumbo Seafood"}}, {"type": "node", "id": 604357301, "lat": 1.311986, "lon": 103.922546, "tags": {"amenity": "restaurant", "name": "Old Beach Road Prawn Mee"}}, {"type": "node", "id": 1767392066, "lat": 1.311539, "lon": 103.9524847, "tags": {"addr:housenumber": "1390", "addr:postcode": "468961", "addr:street": "East Coast Parkway", "air_conditioning": "no", "amenity": "restaurant", "bar": "yes", "check_date": "2023-06-18", "contact:facebook": "https://www.facebook.com/hightidebistrobar", "cuisine": "pizza;burger;indian", "internet_access": "no", "name": "High Tide Bistro & Bar", "outdoor_seating": "yes", "wheelchair": "no"}}, {"type": "node", "id": 1853832260, "lat": 1.3105383, "lon": 103.9462428, "tags": {"addr:city": "Singapore", "addr:country": "SG", "addr:housenumber": "1300", "addr:postcode": "468964", "addr:street": "East Coast Parkway", "amenity": "restaurant", "cuisine": "thai;seafood", "email": "feedback@centralthai.com.sg", "name": "Fico", "phone": "64435510", "website": "https://www.centralthai.com.sg/"}}, {"type": "node", "id": 1985789878, "lat": 1.3137798, "lon": 103.9014881}, {"type": "node", "id": 1985789879, "lat": 1.3138143, "lon": 103.9015352}, {"type": "node", "id": 1985789880, "lat": 1.3136797, "lon": 103.9015624}, {"type": "node", "id": 1985789881, "lat": 1.3137142, "lon": 103.9016095}, {"type": "node", "id": 2232573564, "lat": 1.3168663, "lon": 103.9789965}, {"type": "node", "id": 2232573566, "lat": 1.316868, "lon": 103.978628}, {"type": "node", "id": 2232574040, "lat": 1.317016, "lon": 103.9789972}, {"type": "node", "id": 2232574046, "lat": 1.3170178, "lon": 103.9786287}, {"type": "node", "id": 2888370265, "lat": 1.3144709, "lon": 103.9058763}, {"type": "node", "id": 2888370266, "lat": 1.3142527, "lon": 103.9059115}, {"type": "node", "id": 2888370267, "lat": 1.3142706, "lon": 103.9060227}, {"type": "node", "id": 2888370268, "lat": 1.3144888, "lon": 103.9059876}, {"type": "node", "id": 3412045416, "lat": 1.3078875, "lon": 103.9032814}, {"type": "node", "id": 3412045438, "lat": 1.3079172, "lon": 103.9031847}, {"type": "node", "id": 3412051553, "lat": 1.3077331, "lon": 103.903183}, {"type": "node", "id": 3412051562, "lat": 1.3078127, "lon": 103.9032905}, {"type": "node", "id": 3412051566, "lat": 1.307817, "lon": 103.903123}, {"type": "node", "id": 3412051571, "lat": 1.3078244, "lon": 103.9032821}, {"type": "node", "id": 3412051583, "lat": 1.3078644, "lon": 103.9032491}, {"type": "node", "id": 3412051588, "lat": 1.3078696, "lon": 103.9032187}, {"type": "node", "id": 3412051589, "lat": 1.3078704, "lon": 103.9031193}, {"type": "node", "id": 3412051833, "lat": 1.307737, "lon": 103.9032419}, {"type": "node", "id": 3412051854, "lat": 1.3077622, "lon": 103.9032239}, {"type": "node", "id": 3412051883, "lat": 1.3078324, "lon": 103.9033755}, {"type": "node", "id": 3412051884, "lat": 1.3078333, "lon": 103.9031458}, {"type": "node", "id": 3412051895, "lat": 1.3078454, "lon": 103.9033115}, {"type": "node", "id": 3412051906, "lat": 1.3078596, "lon": 103.9033561}, {"type": "node", "id": 3412051997, "lat": 1.3078822, "lon": 103.9032363}, {"type": "node", "id": 3506506587, "lat": 1.304937, "lon": 103.9031706, "tags": {"addr:city": "Singapore", "addr:housenumber": "49", "addr:postcode": "428768", "addr:street": "East Coast Road", "air_conditioning": "yes", "amenity": "restaurant", "bar": "yes", "cuisine": "international;coffee_shop;fish_and_chips;regional;sandwich;chicken", "delivery": "yes", "internet_access": "wlan", "name": "Rabbit Carrot Gun", "outdoor_seating": "yes", "phone": "+65 6348 8568"}}, {"type": "node", "id": 4301111091, "lat": 1.3016879, "lon": 103.9066922, "tags": {"amenity": "restaurant", "name": "Roland Restaurant", "wheelchair": "yes"}}, {"type": "node", "id": 4407657731, "lat": 1.3045746, "lon": 103.9025783, "tags": {"amenity": "restaurant", "name": "Two Pigs Fly"}}, {"type": "node", "id": 4407657732, "lat": 1.3045532, "lon": 103.9025398, "tags": {"amenity": "restaurant", "name": "Blue Elephant"}}, {"type": "node", "id": 4407657733, "lat": 1.3045227, "lon": 103.9024359, "tags": {"amenity": "restaurant", "name": "Burger Bar"}}, {"type": "node", "id": 4407658020, "lat": 1.3044936, "lon": 103.9023794, "tags": {"addr:housenumber": "19", "addr:street": "East Coast Road", "amenity": "restaurant", "name": "Lower East Side", "source": "http://www.lowereastsidesg.com/"}}, {"type": "node", "id": 4500262143, "lat": 1.3143723, "lon": 103.9417762}, {"type": "node", "id": 4500262147, "lat": 1.3145462, "lon": 103.941727}, {"type": "node", "id": 4500262149, "lat": 1.3146867, "lon": 103.9416432}, {"type": "node", "id": 4500262150, "lat": 1.3146983, "lon": 103.941684}, {"type": "node", "id": 4569989822, "lat": 1.3143206, "lon": 103.9415935}, {"type": "node", "id": 4569989823, "lat": 1.3146466, "lon": 103.9415013}, {"type": "node", "id": 4575788945, "lat": 1.3122113, "lon": 103.9227885, "tags": {"addr:housenumber": "719", "addr:street": "East Coast Road", "amenity": "restaurant", "check_date": "2024-08-04", "name": "Chutney Mary", "source": "Kaart Ground Survey 2017"}}, {"type": "node", "id": 4638920232, "lat": 1.3087727, "lon": 103.9120176, "tags": {"addr:city": "Singapore", "addr:housenumber": "400", "addr:postcode": "428996", "addr:street": "East Coast Road", "amenity": "restaurant", "cuisine": "pizza", "name": "Al Forno East Coast", "source": "Kaart Ground Survey 2017", "wheelchair": "yes"}}, {"type": "node", "id": 4682734907, "lat": 1.3088131, "lon": 103.9122032, "tags": {"addr:city": "Singapore", "addr:housenumber": "400", "addr:postcode": "428996", "addr:street": "East Coast Road", "amenity": "restaurant", "cuisine": "mexican", "name": "Comida Mexicana", "source": "Kaart Ground Survey 2017"}}, {"type": "node", "id": 4682762224, "lat": 1.313326, "lon": 103.9274491, "tags": {"addr:street": "Upper East Coast Road", "amenity": "restaurant", "name": "Megumi Japanese", "source": "Kaart Ground Survey 2017"}}, {"type": "node", "id": 4682762225, "lat": 1.3133071, "lon": 103.9273613, "tags": {"addr:street": "Upper East Coast Road", "amenity": "restaurant", "cuisine": "italian", "name": "Salvatore", "source": "Kaart Ground Survey 2017"}}, {"type": "node", "id": 4682762226, "lat": 1.3130443, "lon": 103.9260744, "tags": {"addr:street": "Upper East Coast Road", "amenity": "restaurant", "name": "Lai Huat Sambal Fish", "source": "Kaart Ground Survey 2017"}}, {"type": "node", "id": 4682762227, "lat": 1.3128949, "lon": 103.9258001, "tags": {"addr:street": "Upper East Coast Road", "amenity": "restaurant", "name": "Soy Eu Tua", "source": "Kaart Ground Survey 2017"}}, {"type": "node", "id": 4682762233, "lat": 1.3122719, "lon": 103.9229406, "tags": {"addr:street": "East Coast Road", "amenity": "restaurant", "name": "Mayura", "source": "Kaart Ground Survey 2017"}}, {"type": "node", "id": 4682762234, "lat": 1.3122443, "lon": 103.92286, "tags": {"addr:housenumber": "723", "addr:street": "East Coast Road", "amenity": "restaurant", "check_date": "2024-08-04", "name": "Masala Bar", "source": "Kaart Ground Survey 2017"}}, {"type": "node", "id": 4682762240, "lat": 1.3120175, "lon": 103.9222714, "tags": {"addr:city": "Singapore", "addr:country": "SG", "addr:housenumber": "699E", "addr:postcode": "459061", "addr:street": "East Coast Road", "air_conditioning": "yes", "amenity": "restaurant", "brewery": "Estrella Galicia", "check_date": "2024-08-04", "contact:email": "contactus@nextdoorspanishcafe.com", "contact:facebook": "https://www.facebook.com/nextdoorspanishcafe/", "contact:instagram": "https://www.instagram.com/nextdoorspanishcafe", "contact:whatsapp": "+65 8168 4009", "cuisine": "spanish;wine", "name": "Next Door Spanish Cafe", "opening_hours": "Mo-Th 17:00-23:00; Fr-Sa 12:00-23:30; Su,PH 12:00-23:00", "opening_hours:kitchen": "Mo-Th 17:30-23:00; Fr-Sa 12:00-14:00, 17:30-23:30; Su,PH 12:00-14:00, 17:30-23:00", "outdoor_seating": "yes", "payment:cash": "yes", "payment:credit_cards": "yes", "payment:debit_cards": "yes", "reservation": "yes", "source": "Kaart Ground Survey 2017", "toilets": "yes", "toilets:wheelchair": "no", "website": "https://www.nextdoorspanishcafe.com/", "wheelchair": "limited"}}, {"type": "node", "id": 4682762241, "lat": 1.3120106, "lon": 103.9222123, "tags": {"addr:street": "East Coast Road", "amenity": "restaurant", "name": "POD Bistro", "source": "Kaart Ground Survey 2017"}}, {"type": "node", "id": 4682762245, "lat": 1.3119039, "lon": 103.921908, "tags": {"addr:street": "East Coast Road", "amenity": "restaurant", "name": "Indian Wok", "source": "Kaart Ground Survey 2017"}}, {"type": "node", "id": 4682762246, "lat": 1.311804, "lon": 103.9217127, "tags": {"addr:street": "East Coast Road", "amenity": "restaurant", "name": "Malthouse", "source": "Kaart Ground Survey 2017"}}, {"type": "node", "id": 4682779758, "lat": 1.3074822, "lon": 103.906965, "tags": {"addr:street": "East Coast Road", "amenity": "restaurant", "source": "Kaart Ground Survey 2017", "wheelchair": "no"}}, {"type": "node", "id": 4682779761, "lat": 1.3061606, "lon": 103.9050805, "tags": {"addr:housenumber": "137", "addr:postcode": "428820", "addr:street": "East Coast Road", "air_conditioning": "yes", "amenity": "restaurant", "brewery": "yes", "check_date": "2022-12-04", "cuisine": "indian", "delivery": "yes", "diet:vegan": "yes", "diet:vegetarian": "yes", "level": "0", "name": "Zaffron Kitchen", "opening_hours": "Mo-Th 11:30-22:00; Fr-Sa 11:30-23:00; Su 11:30-22:30", "payment:credit_cards": "yes", "payment:debit_cards": "yes", "payment:mastercard": "yes", "payment:nets": "yes", "payment:visa": "yes", "phone": "+6564406786", "reservation": "yes", "source": "Kaart Ground Survey 2017", "website": "https://www.zaffronkitchen.com/", "wheelchair": "limited"}}, {"type": "node", "id": 4682779764, "lat": 1.3060066, "lon": 103.904809, "tags": {"addr:street": "East Coast Road", "amenity": "restaurant", "indoor_seating": "yes", "name": "Alibaba Eating House", "outdoor_seating": "yes", "source": "Kaart Ground Survey 2017", "wheelchair": "limited"}}, {"type": "node", "id": 4682785386, "lat": 1.3059308, "lon": 103.9047412, "tags": {"addr:street": "East Coast Road", "amenity": "restaurant", "name": "Astons", "source": "Kaart Ground Survey 2017"}}, {"type": "node", "id": 4682785387, "lat": 1.3058569, "lon": 103.904614, "tags": {"addr:street": "East Coast Road", "amenity": "restaurant", "cuisine": "pizza", "name": "Alt", "source": "Kaart Ground Survey 2017", "wheelchair": "yes"}}, {"type": "node", "id": 4682785388, "lat": 1.3058906, "lon": 103.9046608, "tags": {"addr:street": "East Coast Road", "amenity": "restaurant", "cuisine": "indian", "name": "Bazaar", "source": "Kaart Ground Survey 2017"}}, {"type": "node", "id": 4682785592, "lat": 1.3056478, "lon": 103.9042986, "tags": {"addr:street": "East Coast Road", "amenity": "restaurant", "name": "Korea BBQ", "source": "Kaart Ground Survey 2017", "wheelchair": "limited"}}, {"type": "node", "id": 4682785593, "lat": 1.3055419, "lon": 103.9041549, "tags": {"addr:housenumber": "93", "addr:street": "East Coast Road", "air_conditioning": "yes", "amenity": "restaurant", "brewery": "no", "check_date": "2022-12-06", "contact:facebook": "https://www.facebook.com/SandwichSaigon", "cuisine": "vietnamese", "delivery": "yes", "diet:vegan": "yes", "diet:vegetarian": "yes", "email": "sandwichsg@gmail.com", "highchair": "no", "internet_access": "no", "name": "Sandwich Saigon", "opening_hours": "Mo-Fr 11:30-14:30,17:30-22:00; Sa-Su 11:30-22:00", "payment:cash": "no", "payment:credit_cards": "yes", "payment:debit_cards": "yes", "payment:mastercard": "yes", "payment:nets": "yes", "payment:visa": "yes", "phone": "+65 6345 3849", "source": "Kaart Ground Survey 2017", "takeaway": "yes", "website": "http://sandwichsaigon.com", "wheelchair": "yes"}}, {"type": "node", "id": 4682785594, "lat": 1.304883, "lon": 103.9031021, "tags": {"addr:street": "East Coast Road", "amenity": "restaurant", "name": "Bergs", "source": "Kaart Ground Survey 2017"}}, {"type": "node", "id": 4682785595, "lat": 1.3046777, "lon": 103.9027901, "tags": {"addr:street": "East Coast Road", "amenity": "restaurant", "name": "Pizza & Pastry", "shop": "pastry", "source": "Kaart Ground Survey 2017"}}, {"type": "node", "id": 4683803826, "lat": 1.3087211, "lon": 103.9118384, "tags": {"addr:street": "East Coast Road", "amenity": "restaurant", "source": "Kaart Ground Survey 2017", "wheelchair": "yes"}}, {"type": "node", "id": 4683803827, "lat": 1.308697, "lon": 103.9117351, "tags": {"addr:street": "East Coast Road", "amenity": "restaurant", "name": "Tok Panjang", "source": "Kaart Ground Survey 2017", "wheelchair": "yes"}}, {"type": "node", "id": 4684128101, "lat": 1.3075058, "lon": 103.9074853, "tags": {"addr:housenumber": "224", "addr:postcode": "428921", "addr:street": "East Coast Road", "air_conditioning": "yes", "amenity": "restaurant", "check_date": "2023-06-18", "cuisine": "bubble_tea;taiwanese", "level": "0", "name": "Issin Machi", "outdoor_seating": "no", "payment:credit_cards": "yes", "payment:debit_cards": "yes", "payment:grabpay": "yes", "payment:mastercard": "yes", "payment:nets": "yes", "payment:paynow": "yes", "payment:visa": "yes", "wheelchair": "limited"}}, {"type": "node", "id": 4684128102, "lat": 1.3074794, "lon": 103.9074411, "tags": {"addr:housenumber": "222", "addr:street": "East Coast Road", "amenity": "restaurant", "check_date": "2022-12-03", "cuisine": "korean", "name": "Doong Ji", "source": "Kaart Ground Survey 2017", "wheelchair": "limited"}}, {"type": "node", "id": 4684128103, "lat": 1.3073571, "lon": 103.907346, "tags": {"addr:housenumber": "216", "addr:street": "East Coast Road", "amenity": "restaurant", "check_date": "2023-06-18", "cuisine": "laksa", "name": "328 Katong Laksa", "outdoor_seating": "yes"}}, {"type": "node", "id": 4684154872, "lat": 1.3059553, "lon": 103.905225, "tags": {"addr:street": "East Coast Road", "air_conditioning": "yes", "amenity": "restaurant", "brewery": "yes", "check_date": "2022-12-03", "cuisine": "german", "name": "Brotzeit", "outdoor_seating": "yes", "source": "Kaart Ground Survey 2017", "wheelchair": "limited"}}, {"type": "node", "id": 4687289727, "lat": 1.3128114, "lon": 103.9246076, "tags": {"addr:city": "Singapore", "addr:country": "SG", "addr:housenumber": "907", "addr:postcode": "459107", "addr:street": "East Coast Road", "amenity": "restaurant", "name": "BLooiE's", "shop": "yes", "source": "Kaart Ground Survey 2017"}}, {"type": "node", "id": 4687289728, "lat": 1.3128107, "lon": 103.9239733, "tags": {"addr:city": "Singapore", "addr:country": "SG", "addr:housenumber": "889", "addr:street": "East Coast Road", "amenity": "restaurant", "name": "Thai Connection", "source": "Kaart Ground Survey 2017"}}, {"type": "node", "id": 4687316799, "lat": 1.3141419, "lon": 103.9195764, "tags": {"addr:street": "Frankel Avenue", "amenity": "restaurant", "cuisine": "chinese", "name": "Shao", "name:zh": "\u70e7"}}, {"type": "node", "id": 4687441711, "lat": 1.3157278, "lon": 103.9258637, "tags": {"addr:street": "Figaro Street", "amenity": "restaurant", "name": "Zac Butchery", "source": "Kaart Ground Survey 2017"}}, {"type": "node", "id": 4687467674, "lat": 1.313277, "lon": 103.9294345, "tags": {"addr:street": "Upper East Coast Road", "amenity": "restaurant", "cuisine": "italian", "name": "Etna", "source": "Kaart Ground Survey 2017"}}, {"type": "node", "id": 4689152689, "lat": 1.3194114, "lon": 103.9131181, "tags": {"addr:street": "Changi Road", "amenity": "restaurant", "name": "Seng Kee Black Chicken Herbal Soup", "source": "Kaart Ground Survey 2017", "wheelchair": "yes"}}, {"type": "node", "id": 4689152693, "lat": 1.3192672, "lon": 103.9125914, "tags": {"addr:street": "Changi Road", "amenity": "restaurant", "name": "Al Jasra Restaurant", "source": "Kaart Ground Survey 2017", "wheelchair": "limited"}}, {"type": "node", "id": 4689152694, "lat": 1.3191781, "lon": 103.9124325, "tags": {"addr:street": "Changi Road", "amenity": "restaurant", "name": "Alsalam Restaurant", "source": "Kaart Ground Survey 2017", "wheelchair": "yes"}}, {"type": "node", "id": 4689152704, "lat": 1.3189555, "lon": 103.9110484, "tags": {"addr:street": "Changi Road", "amenity": "restaurant", "name": "Mak's Place", "source": "Kaart Ground Survey 2017", "wheelchair": "no"}}, {"type": "node", "id": 4689152705, "lat": 1.318732, "lon": 103.9098446, "tags": {"addr:street": "Changi Road", "amenity": "restaurant", "name": "Chai Chee Seafood Restaurant", "name:ms": "Restoran Makanan Laut Chai Chee", "source": "Kaart Ground Survey 2017", "wheelchair": "yes"}}, {"type": "node", "id": 4689219273, "lat": 1.3191342, "lon": 103.9136192, "tags": {"addr:street": "Changi Road", "amenity": "restaurant", "name": "JOM Makan BBQ Seafood", "source": "Kaart Ground Survey 2017", "wheelchair": "limited"}}, {"type": "node", "id": 4689375090, "lat": 1.3183329, "lon": 103.9080386, "tags": {"addr:city": "Singapore", "addr:country": "SG", "addr:housenumber": "2", "addr:street": "Lorong Sarina", "amenity": "restaurant", "name": "Bugis Street Chuen Chuen Chicken Rice", "name:zh": "\u767d\u6c99\u6d6e\u6d25\u6d25\u82bd\u83dc\u9e21", "source": "Kaart Ground Survey 2017", "wheelchair": "no"}}, {"type": "node", "id": 4689375091, "lat": 1.3182274, "lon": 103.9074647, "tags": {"addr:housenumber": "303", "addr:street": "Changi Road", "amenity": "restaurant", "name": "Kampong Chai Chee Restaurant", "source": "Kaart Ground Survey 2017"}}, {"type": "node", "id": 4689399243, "lat": 1.31797, "lon": 103.9060136, "tags": {"addr:street": "Changi Road", "amenity": "restaurant", "name": "Sia's Chinese Clinic", "source": "Kaart Ground Survey 2017", "wheelchair": "limited"}}, {"type": "node", "id": 4689561355, "lat": 1.317928, "lon": 103.9081174, "tags": {"amenity": "restaurant", "name": "Ipoh Anson Chee Cheong Fun", "name:zh": "\u6021\u4fdd\u5b89\u987a\u732a\u80a0\u7c89", "wheelchair": "yes"}}, {"type": "node", "id": 4689561359, "lat": 1.3178572, "lon": 103.9077442, "tags": {"addr:street": "Changi Road", "amenity": "restaurant", "name": "Mirza Foods Pte. Ltd.", "shop": "food", "source": "Kaart Ground Survey 2017", "wheelchair": "limited"}}, {"type": "node", "id": 4689561372, "lat": 1.3175959, "lon": 103.9062806, "tags": {"addr:street": "Changi Road", "amenity": "restaurant", "name": "Bagus", "source": "Kaart Ground Survey 2017", "wheelchair": "limited"}}, {"type": "node", "id": 4689590454, "lat": 1.3167575, "lon": 103.9016742, "tags": {"addr:housenumber": "132", "addr:postcode": "419719", "addr:street": "Changi Road", "amenity": "restaurant", "fixme": "name", "name": "Hong Kong", "name:en": "Hong Kong Street Chun Tat Kee", "source": "Kaart Ground Survey 2017"}}, {"type": "node", "id": 4696039691, "lat": 1.3212774, "lon": 103.9024068, "tags": {"addr:street": "Eunos Crescent", "amenity": "restaurant", "name": "Sin Yuan Hong LP Gus PTE LTD", "source": "Kaart Ground Survey 2017"}}, {"type": "node", "id": 4701761357, "lat": 1.3122772, "lon": 103.9110807, "tags": {"addr:street": "Telok Kurau Court", "amenity": "restaurant", "name": "Bruno's", "source": "Kaart Ground Survey 2017", "wheelchair": "no"}}, {"type": "node", "id": 4701887190, "lat": 1.320982, "lon": 103.9053922, "tags": {"addr:city": "Singapore", "addr:street": "Jalan Eunos", "amenity": "restaurant", "contact:facebook": "https://www.facebook.com/VeganBurgSG/", "cuisine": "burger;ice_cream", "delivery": "yes", "diet:vegan": "only", "indoor_seating": "yes", "name": "VeganBurg", "outdoor_seating": "yes", "source": "Kaart Ground Survey 2017", "website": "https://www.veganburg.com/aboutus-sg", "wikidata": "Q7918271", "wikipedia": "en:VeganBurg"}}, {"type": "node", "id": 4701988703, "lat": 1.318266, "lon": 103.9076782, "tags": {"addr:postcode": "419785", "addr:street": "Changi Road", "alt_name": "Katong Laksa", "amenity": "restaurant", "name": "Eunos (MRT) Bak Koot Teh", "source": "Kaart Ground Survey 2017", "wheelchair": "no"}}, {"type": "node", "id": 4702450060, "lat": 1.309756, "lon": 103.9020418, "tags": {"addr:street": "Joo Chiat Road", "amenity": "restaurant", "check_date": "2024-04-21", "name": "Tin Yeang Restaurant", "source": "Kaart Ground Survey 2017"}}, {"type": "node", "id": 4702450074, "lat": 1.3087991, "lon": 103.9027322, "tags": {"addr:street": "Joo Chiat Road", "amenity": "restaurant", "name": "Garden Seafood Restaurant", "source": "Kaart Ground Survey 2017"}}, {"type": "node", "id": 4702450079, "lat": 1.308365, "lon": 103.9030384, "tags": {"addr:street": "Joo Chiat Road", "amenity": "restaurant", "name": "Joo Heng Restaurant", "source": "Kaart Ground Survey 2017"}}, {"type": "node", "id": 4702487300, "lat": 1.3055958, "lon": 103.9042207, "tags": {"addr:street": "East Coast Road", "amenity": "restaurant", "name": "Tokaikan", "source": "Kaart Ground Survey 2017"}}, {"type": "node", "id": 4702487301, "lat": 1.3054907, "lon": 103.904068, "tags": {"addr:street": "East Coast Road", "amenity": "restaurant", "source": "Kaart Ground Survey 2017", "wheelchair": "limited"}}, {"type": "node", "id": 4702487302, "lat": 1.305435, "lon": 103.9039777, "tags": {"addr:street": "East Coast Road", "amenity": "restaurant", "check_date": "2022-12-04", "cuisine": "japanese;steak_house", "name": "Katsuya", "source": "Kaart Ground Survey 2017", "wheelchair": "limited"}}, {"type": "node", "id": 4702487310, "lat": 1.3048012, "lon": 103.9029883, "tags": {"addr:street": "East Coast Road", "amenity": "restaurant", "name": "Q-Wa Bar and Yakitori", "source": "Kaart Ground Survey 2017", "wheelchair": "limited"}}, {"type": "node", "id": 4702487311, "lat": 1.3047768, "lon": 103.9029468, "tags": {"addr:housenumber": "37", "addr:postcode": "428755", "addr:street": "East Coast Road", "air_conditioning": "yes", "amenity": "restaurant", "brewery": "no", "check_date": "2023-05-06", "cuisine": "noodle", "internet_access": "no", "level": "0", "name": "Cheeky Beehon \u9e92\u8bb0 \u523a\u6fc0\u7c73\u7c89", "name:zh": "\u9e92\u8bb0 \u523a\u6fc0\u7c73\u7c89", "outdoor_seating": "no", "payment:cards": "no", "payment:cash": "yes", "payment:credit_cards": "no", "payment:debit_cards": "no", "payment:paynow": "yes", "phone": "+65 8644 2108", "wheelchair": "yes"}}, {"type": "node", "id": 4702487313, "lat": 1.3047092, "lon": 103.9028277, "tags": {"addr:street": "East Coast Road", "amenity": "restaurant", "check_date": "2022-12-04", "cuisine": "indonesian", "diet:halal": "yes", "name": "Nasi Padang", "shop": "yes", "source": "Kaart Ground Survey 2017"}}, {"type": "node", "id": 4702487315, "lat": 1.3046087, "lon": 103.9026115, "tags": {"addr:street": "East Coast Road", "amenity": "restaurant", "check_date": "2022-12-04", "name": "Tachinomiya", "source": "Kaart Ground Survey 2017"}}, {"type": "node", "id": 4703848368, "lat": 1.3090464, "lon": 103.9027899, "tags": {"addr:street": "Joo Chiat Road", "amenity": "restaurant", "name": "Braseiro", "source": "Kaart Ground Survey 2017"}}, {"type": "node", "id": 4703848370, "lat": 1.3084956, "lon": 103.9031497, "tags": {"addr:street": "Joo Chiat Road", "amenity": "restaurant", "name": "Astons specialities", "source": "Kaart Ground Survey 2017"}}, {"type": "node", "id": 4703885612, "lat": 1.30832, "lon": 103.9033004, "tags": {"addr:street": "Joo Chiat Road", "amenity": "restaurant", "name": "Al Falah Barakah Restaurant Pte Ltd", "source": "Kaart Ground Survey 2017"}}, {"type": "node", "id": 4703885621, "lat": 1.3071441, "lon": 103.9043218, "tags": {"addr:street": "Joo Chiat Road", "amenity": "restaurant", "name": "Sin Heng Claypot Bak Koot Teh", "name:zh": "\u65b0\u8208\u74e6\u7172\u8089\u9aa8\u8336", "source": "Kaart Ground Survey 2017"}}, {"type": "node", "id": 4703885626, "lat": 1.3067198, "lon": 103.9045963, "tags": {"addr:street": "Joo Chiat Road", "amenity": "restaurant", "name": "Fat Boys", "source": "Kaart Ground Survey 2017"}}, {"type": "node", "id": 4703885627, "lat": 1.3066398, "lon": 103.9046582, "tags": {"addr:street": "Joo Chiat Road", "amenity": "restaurant", "name": "Fourplay", "source": "Kaart Ground Survey 2017"}}, {"type": "node", "id": 4703885630, "lat": 1.3063858, "lon": 103.9047493, "tags": {"addr:street": "Joo Chiat Road", "amenity": "restaurant", "name": "Penyet King", "source": "Kaart Ground Survey 2017"}}, {"type": "node", "id": 4703885631, "lat": 1.3063558, "lon": 103.9047757, "tags": {"addr:street": "Joo Chiat Road", "amenity": "restaurant", "name": "Cheers!", "source": "Kaart Ground Survey 2017"}}, {"type": "node", "id": 4733018626, "lat": 1.3050274, "lon": 103.9054666, "tags": {"addr:street": "Joo Chiat Road", "amenity": "restaurant", "brand": "Nando's", "brand:wikidata": "Q3472954", "brand:wikipedia": "en:Nando's", "cuisine": "chicken;portuguese", "name": "Nando's", "source": "Kaart Ground Survey 2017"}}, {"type": "node", "id": 4733018627, "lat": 1.3051372, "lon": 103.9054054, "tags": {"addr:street": "Joo Chiat Road", "amenity": "restaurant", "name": "Canton Paradise", "source": "Kaart Ground Survey 2017"}}, {"type": "node", "id": 4733018628, "lat": 1.3052427, "lon": 103.9053357, "tags": {"addr:street": "Joo Chiat Road", "amenity": "restaurant", "name": "The Chop House", "source": "Kaart Ground Survey 2017"}}, {"type": "node", "id": 4784230721, "lat": 1.3109659, "lon": 103.9023853, "tags": {"addr:street": "Tembeling Road", "amenity": "restaurant", "name": "Song Lee Fish ball noodle", "name:en": "Song Lee Fish ball noodle"}}, {"type": "node", "id": 4892096328, "lat": 1.3093546, "lon": 103.9018406, "tags": {"addr:housenumber": "#01-05", "addr:postcode": "424768", "addr:street": "Onan Road", "amenity": "restaurant", "cuisine": "chinese", "description": "Famous Katong Tau Kwa Pau", "name": "Say Seng Tau Kwa Pau", "name:zh": "\u751f\u6210\u8c46\u4e7e\u5305", "opening_hours": "Tu-Su 08:00-17:00", "phone": "90685188"}}, {"type": "node", "id": 4992401621, "lat": 1.3053779, "lon": 103.9030017, "tags": {"addr:housenumber": "10", "addr:postcode": "429606", "addr:street": "Ceylon Road", "amenity": "restaurant", "cuisine": "indian", "diet:vegan": "yes", "diet:vegetarian": "only", "name": "Arputha Vilas", "website": "https://www.udipiganeshvilas.com/"}}, {"type": "node", "id": 5414528611, "lat": 1.3073273, "lon": 103.9073047, "tags": {"addr:housenumber": "214", "addr:street": "East Coast Road", "amenity": "restaurant", "check_date": "2023-06-18", "cuisine": "italian", "name": "Bacino", "outdoor_seating": "yes"}}, {"type": "node", "id": 5414528612, "lat": 1.3072965, "lon": 103.9071719, "tags": {"amenity": "restaurant", "check_date": "2023-06-18", "cuisine": "peranakan", "name": "Peranakan Inn", "wheelchair": "no"}}, {"type": "node", "id": 5414652715, "lat": 1.3048282, "lon": 103.9030202, "tags": {"amenity": "restaurant", "name": "Jane Theil"}}, {"type": "node", "id": 5414652718, "lat": 1.3050004, "lon": 103.9032941, "tags": {"addr:housenumber": "51", "addr:postcode": "428970", "addr:street": "East Coast Road", "air_conditioning": "yes", "amenity": "restaurant", "check_date": "2023-05-06", "cuisine": "local", "diet:halal": "no", "level": "0", "name": "328 Katong Laksa", "opening_hours": "09:30-21:30", "outdoor_seating": "yes", "payment:cards": "no", "payment:cash": "yes", "payment:credit_cards": "no", "payment:debit_cards": "no", "takeaway": "yes", "website": "https://www.328katonglaksa.sg/", "wheelchair": "limited"}}, {"type": "node", "id": 5414652925, "lat": 1.3055213, "lon": 103.9041169, "tags": {"addr:housenumber": "91", "addr:postcode": "428791", "addr:street": "East Coast Road", "amenity": "restaurant", "check_date": "2022-12-04", "cuisine": "indian", "email": "services@themangotree.com.sg", "facebook": "themangotree.indiancoastal.restaurant", "name": "The Mango Tree Coastal Restaurant", "opening_hours": "Mo,We-Th 11:30-15:00,18:00-22:30; Tu off; Fr 11:30-15:00,18:00-23:00; Sa 11:30-15:00,17:30-23:00; Su 11:30-15:00,17:30-22:30", "phone": "+65 6440 1285", "website": "https://www.themangotree.com.sg/"}}, {"type": "node", "id": 5414652960, "lat": 1.3070317, "lon": 103.9063042, "tags": {"air_conditioning": "no", "amenity": "restaurant", "check_date": "2022-12-03", "name": "Sin Hoi Sai Eating House", "outdoor_seating": "yes", "wheelchair": "yes"}}, {"type": "node", "id": 5414652961, "lat": 1.3071208, "lon": 103.9064243, "tags": {"addr:postcode": "428897", "amenity": "restaurant", "cuisine": "chinese;chicken;local", "name": "Five Star Hainanese Chicken Rice", "opening_hours": "Mo-Su 10:00-02:00", "phone": "+6563445911", "wheelchair": "yes"}}, {"type": "node", "id": 5414652964, "lat": 1.3072053, "lon": 103.9066375, "tags": {"amenity": "restaurant", "name": "Boon Tong Kee"}}, {"type": "node", "id": 5414652965, "lat": 1.3072432, "lon": 103.9066777, "tags": {"amenity": "restaurant", "name": "Sal Thai Restaurant", "source": "Kaart Ground Survey 2017", "wheelchair": "limited"}}, {"type": "node", "id": 5414652972, "lat": 1.3076357, "lon": 103.9072169, "tags": {"amenity": "restaurant", "name": "Ampang Niang Tou Fu"}}, {"type": "node", "id": 5543056521, "lat": 1.3085282, "lon": 103.9111152, "tags": {"addr:housenumber": "370", "addr:postcode": "428981", "addr:street": "East Coast Road", "amenity": "restaurant", "cuisine": "noodle", "name": "Beach Road Prawn Noodles", "name:en": "Beach Road Prawn Noodles House", "opening_hours": "We-Mo 07:00-16:00", "phone": "+6563457196", "wheelchair": "limited"}}, {"type": "node", "id": 6259912929, "lat": 1.3128194, "lon": 103.9240251, "tags": {"addr:city": "Singapore", "addr:country": "SG", "addr:housenumber": "891", "addr:street": "East Coast Road", "amenity": "restaurant", "name": "Eat First", "name:zh": "\u98df\u4e4b\u4e3a\u9c9c"}}, {"type": "node", "id": 6259912954, "lat": 1.3124148, "lon": 103.925053, "tags": {"addr:city": "Singapore", "addr:country": "SG", "addr:housenumber": "928", "addr:street": "East Coast Road", "amenity": "restaurant", "check_date": "2024-08-04", "name": "Jin Wee Restaurant"}}, {"type": "node", "id": 6259912957, "lat": 1.3128384, "lon": 103.9247833, "tags": {"addr:city": "Singapore", "addr:country": "SG", "addr:housenumber": "907", "addr:postcode": "459107", "addr:street": "East Coast Road", "amenity": "restaurant", "name": "Xin Wang Hong Kong Cafe"}}, {"type": "node", "id": 6283933802, "lat": 1.3161103, "lon": 103.9770783, "tags": {"amenity": "restaurant", "name": "Gurame"}}, {"type": "node", "id": 6510443731, "lat": 1.3085737, "lon": 103.9112318, "tags": {"addr:city": "Singapore", "addr:housenumber": "376", "addr:postcode": "428984", "addr:street": "East Coast Road", "air_conditioning": "yes", "amenity": "restaurant", "brewery": "yes;various", "cuisine": "japanese", "name": "Box 'n' Sticks", "outdoor_seating": "yes"}}, {"type": "node", "id": 6714836585, "lat": 1.3194365, "lon": 103.9143498, "tags": {"amenity": "restaurant", "name": "9G ems", "wheelchair": "no"}}, {"type": "node", "id": 6773435668, "lat": 1.3056322, "lon": 103.9049313, "tags": {"addr:unit": "28", "air_conditioning": "yes", "amenity": "restaurant", "check_date": "2022-12-03", "level": "0", "name": "Priv\u00e9", "outdoor_seating": "yes"}}, {"type": "node", "id": 6975655486, "lat": 1.3021555, "lon": 103.9052041}, {"type": "node", "id": 6975908597, "lat": 1.3016997, "lon": 103.905449, "tags": {"amenity": "restaurant", "brand": "Din Tai Fung", "brand:wikidata": "Q699142", "brand:wikipedia": "en:Din Tai Fung", "cuisine": "taiwanese", "level": "2", "name": "Din Tai Fung", "name:zh": "\u9f0e\u6cf0\u8c50", "name:zh-Hans": "\u9f0e\u6cf0\u4e30", "name:zh-Hant": "\u9f0e\u6cf0\u8c50", "wheelchair": "yes"}}, {"type": "node", "id": 6976043411, "lat": 1.3017384, "lon": 103.9052525}, {"type": "node", "id": 6976045793, "lat": 1.3010606, "lon": 103.9047708}, {"type": "node", "id": 6976046886, "lat": 1.301967, "lon": 103.9049425}, {"type": "node", "id": 6976046990, "lat": 1.3010874, "lon": 103.9048106}, {"type": "node", "id": 6976047788, "lat": 1.301121, "lon": 103.9047895}, {"type": "node", "id": 6976336788, "lat": 1.3018235, "lon": 103.9051807}, {"type": "node", "id": 6976336802, "lat": 1.30179, "lon": 103.9049939}, {"type": "node", "id": 6976343102, "lat": 1.3018158, "lon": 103.904835}, {"type": "node", "id": 6976343103, "lat": 1.3018696, "lon": 103.9049145}, {"type": "node", "id": 6976343104, "lat": 1.3017782, "lon": 103.9049764}, {"type": "node", "id": 6976343105, "lat": 1.3019525, "lon": 103.9050232}, {"type": "node", "id": 6976343189, "lat": 1.3018037, "lon": 103.9051636}, {"type": "node", "id": 6976343198, "lat": 1.3018861, "lon": 103.9047875}, {"type": "node", "id": 6976343386, "lat": 1.301965, "lon": 103.9050624}, {"type": "node", "id": 6976343487, "lat": 1.3018121, "lon": 103.905116}, {"type": "node", "id": 6976847191, "lat": 1.3012868, "lon": 103.9054936}, {"type": "node", "id": 6978609908, "lat": 1.3011358, "lon": 103.9047792}, {"type": "node", "id": 6978610195, "lat": 1.3011076, "lon": 103.9047392}, {"type": "node", "id": 6978635794, "lat": 1.3011603, "lon": 103.9055805}, {"type": "node", "id": 6978635795, "lat": 1.3011333, "lon": 103.9055987}, {"type": "node", "id": 6978635796, "lat": 1.301074, "lon": 103.9055821}, {"type": "node", "id": 6978635801, "lat": 1.3011623, "lon": 103.9054624}, {"type": "node", "id": 6978635809, "lat": 1.3016372, "lon": 103.9053739}, {"type": "node", "id": 6978635810, "lat": 1.3016065, "lon": 103.9053948}, {"type": "node", "id": 6978635811, "lat": 1.3015513, "lon": 103.9053801}, {"type": "node", "id": 6978635812, "lat": 1.301674, "lon": 103.9052066}, {"type": "node", "id": 6978635813, "lat": 1.3016261, "lon": 103.905184}, {"type": "node", "id": 6978635818, "lat": 1.3015746, "lon": 103.9052196}, {"type": "node", "id": 6978637791, "lat": 1.3010637, "lon": 103.9055669}, {"type": "node", "id": 6978637792, "lat": 1.3011225, "lon": 103.9055272}, {"type": "node", "id": 6978637796, "lat": 1.3012877, "lon": 103.9053772}, {"type": "node", "id": 6978637797, "lat": 1.3011292, "lon": 103.9054133}, {"type": "node", "id": 6978637798, "lat": 1.3010939, "lon": 103.9054367}, {"type": "node", "id": 6978637799, "lat": 1.301127, "lon": 103.9054858}, {"type": "node", "id": 6978637809, "lat": 1.301548, "lon": 103.9052381}, {"type": "node", "id": 6978637813, "lat": 1.3016134, "lon": 103.9051926}, {"type": "node", "id": 6978637893, "lat": 1.301698, "lon": 103.9052446}, {"type": "node", "id": 6978637988, "lat": 1.3011048, "lon": 103.9055008}, {"type": "node", "id": 6978637990, "lat": 1.3012461, "lon": 103.9054058}, {"type": "node", "id": 6978637994, "lat": 1.301613, "lon": 103.9053382}, {"type": "node", "id": 6978637997, "lat": 1.3016499, "lon": 103.9052218}, {"type": "node", "id": 6978637998, "lat": 1.3015994, "lon": 103.9053121}, {"type": "node", "id": 6978638185, "lat": 1.3015755, "lon": 103.9054158}, {"type": "node", "id": 6982001807, "lat": 1.3020166, "lon": 103.9051536}, {"type": "node", "id": 6982001808, "lat": 1.3021487, "lon": 103.9052421}, {"type": "node", "id": 6982001929, "lat": 1.3018207, "lon": 103.9050674}, {"type": "node", "id": 6982001930, "lat": 1.3018251, "lon": 103.9050411}, {"type": "node", "id": 6982001932, "lat": 1.3021025, "lon": 103.9051683}, {"type": "node", "id": 6982001997, "lat": 1.3020305, "lon": 103.9050751}, {"type": "node", "id": 6982001998, "lat": 1.3021336, "lon": 103.9052663}, {"type": "node", "id": 6982002087, "lat": 1.3021373, "lon": 103.9052407}, {"type": "node", "id": 6982002503, "lat": 1.3018178, "lon": 103.9050838}, {"type": "node", "id": 6982021589, "lat": 1.3009111, "lon": 103.9054406}, {"type": "node", "id": 6982021634, "lat": 1.3013235, "lon": 103.9055444}, {"type": "node", "id": 6982021635, "lat": 1.301432, "lon": 103.9057038}, {"type": "node", "id": 6982021637, "lat": 1.3014578, "lon": 103.9057413}, {"type": "node", "id": 6982021638, "lat": 1.301361, "lon": 103.9058071}, {"type": "node", "id": 6982021639, "lat": 1.3012728, "lon": 103.9056779}, {"type": "node", "id": 6982021640, "lat": 1.3013009, "lon": 103.9056572}, {"type": "node", "id": 6982021641, "lat": 1.3011941, "lon": 103.9056335}, {"type": "node", "id": 6982021642, "lat": 1.3012694, "lon": 103.905855}, {"type": "node", "id": 6982021643, "lat": 1.3012627, "lon": 103.9058459}, {"type": "node", "id": 6982021644, "lat": 1.30125, "lon": 103.9058526}, {"type": "node", "id": 6982021645, "lat": 1.3012111, "lon": 103.9058949}, {"type": "node", "id": 6982021646, "lat": 1.3011793, "lon": 103.9058493}, {"type": "node", "id": 6982021647, "lat": 1.3011699, "lon": 103.905855}, {"type": "node", "id": 6982021648, "lat": 1.3010632, "lon": 103.9057237}, {"type": "node", "id": 6982024585, "lat": 1.300895, "lon": 103.9053789}, {"type": "node", "id": 6982024601, "lat": 1.3012563, "lon": 103.9055907}, {"type": "node", "id": 6982024602, "lat": 1.3011565, "lon": 103.9058372}, {"type": "node", "id": 6982024603, "lat": 1.3011451, "lon": 103.9058446}, {"type": "node", "id": 6982024689, "lat": 1.3012396, "lon": 103.9057004}, {"type": "node", "id": 6982024690, "lat": 1.3013539, "lon": 103.9057967}, {"type": "node", "id": 6982024985, "lat": 1.3011312, "lon": 103.9056769}, {"type": "node", "id": 6982024986, "lat": 1.3012574, "lon": 103.9058634}, {"type": "node", "id": 6982432925, "lat": 1.3015779, "lon": 103.9051697}, {"type": "node", "id": 6982432929, "lat": 1.3015678, "lon": 103.9051095}, {"type": "node", "id": 6982432930, "lat": 1.3015702, "lon": 103.9051749}, {"type": "node", "id": 6982432931, "lat": 1.3015392, "lon": 103.9051292}, {"type": "node", "id": 6982432932, "lat": 1.3015393, "lon": 103.9051291}, {"type": "node", "id": 6982433008, "lat": 1.30092, "lon": 103.9053619}, {"type": "node", "id": 6982433009, "lat": 1.3009537, "lon": 103.9054117}, {"type": "node", "id": 6982433093, "lat": 1.301599, "lon": 103.9051554}, {"type": "node", "id": 6982502055, "lat": 1.3012621, "lon": 103.9054572}, {"type": "node", "id": 6982511410, "lat": 1.3016583, "lon": 103.9054699}, {"type": "node", "id": 6982511413, "lat": 1.301707, "lon": 103.9054367}, {"type": "node", "id": 6982511417, "lat": 1.3017804, "lon": 103.9053124}, {"type": "node", "id": 6982511421, "lat": 1.3017707, "lon": 103.9052985}, {"type": "node", "id": 6982511435, "lat": 1.3018348, "lon": 103.9052091}, {"type": "node", "id": 6982511445, "lat": 1.3019336, "lon": 103.905228}, {"type": "node", "id": 6982511452, "lat": 1.3019342, "lon": 103.9052282}, {"type": "node", "id": 6982511467, "lat": 1.3021606, "lon": 103.9051782}, {"type": "node", "id": 6982533265, "lat": 1.3019456, "lon": 103.9048754}, {"type": "node", "id": 6982571847, "lat": 1.3019777, "lon": 103.904881}, {"type": "node", "id": 6991554568, "lat": 1.301317, "lon": 103.9054206}, {"type": "node", "id": 6991554569, "lat": 1.3013158, "lon": 103.9054189}, {"type": "node", "id": 6991554572, "lat": 1.3013093, "lon": 103.9054258}, {"type": "node", "id": 7082571214, "lat": 1.3050611, "lon": 103.929989, "tags": {"addr:city": "Singapore", "addr:country": "SG", "addr:housenumber": "1202", "addr:postcode": "449881", "addr:street": "East Coast Parkway", "addr:unit": "#01-04", "amenity": "restaurant", "cuisine": "seafood", "email": "one@longbeachseafood.com.sg", "name": "Long Beach", "name:zh": "\u957f\u63d0", "opening_hours": "Mo-Th 14:30-24:15;Fr 13:30-24:15;Sa 11:30-25:15;Su,Ph 11:30-24:15", "outdoor_seating": "terrace", "phone": "64483636", "website": "https://longbeachseafood.com.sg/"}}, {"type": "node", "id": 7082573003, "lat": 1.3050349, "lon": 103.9298229, "tags": {"addr:city": "Singapore", "addr:country": "SG", "addr:housenumber": "1202", "addr:postcode": "449881", "addr:street": "East Coast Parkway", "addr:unit": "#01-03", "amenity": "restaurant", "cuisine": "seafood;hotpot", "name": "Lux Cove Seafood", "name:zh": "\u5bcc\u666f\u6d77\u9c9c\u9152\u697c", "opening_hours": "1100-2230", "phone": "66046777"}}, {"type": "node", "id": 7082573607, "lat": 1.304452, "lon": 103.9241502, "tags": {"addr:city": "Singapore", "addr:country": "SG", "addr:housenumber": "1110", "addr:postcode": "449880", "addr:street": "East Coast Parkway", "addr:unit": "#01-03/04", "amenity": "restaurant", "cuisine": "indian", "email": "resto@knsgrup.com.sg", "name": "KNS Restaurant", "opening_hours": "06:00-23:00", "website": "https://knsrestaurant.com/"}}, {"type": "node", "id": 7140334377, "lat": 1.2988749, "lon": 103.9065962, "tags": {"addr:city": "Singapore", "addr:country": "SG", "addr:housenumber": "920", "addr:postcode": "449875", "addr:street": "East Coast Parkway", "addr:unit": "#01-18/19", "amenity": "restaurant", "cuisine": "indian;mexican", "email": "patrosbar@singnet.com.sg", "name": "Patro's Sports Bar & Restaurant", "website": "https://www.facebook.com/patrossportsbarandrestaurant", "wheelchair": "limited"}}, {"type": "node", "id": 7179126794, "lat": 1.2988055, "lon": 103.9063344, "tags": {"addr:city": "Singapore", "addr:country": "SG", "addr:housenumber": "920", "addr:postcode": "449875", "addr:street": "East Coast Parkway", "addr:unit": "#01-22/23/24", "amenity": "restaurant", "email": "basilandthymeecp@gmail.com", "name": "Basil & Thyme", "phone": "62867266", "website": "https://www.facebook.com/BasilandThymeECP", "wheelchair": "yes"}}, {"type": "node", "id": 7263769062, "lat": 1.2984391, "lon": 103.9058583, "tags": {"addr:city": "Singapore", "addr:country": "SG", "addr:housenumber": "920", "addr:postcode": "449875", "addr:street": "East Coast Parkway", "addr:unit": "#01-28/29/30/31/32", "amenity": "restaurant", "email": "events@sandbank.com.sg", "name": "Sandbank", "opening_hours": "Tu-Fr 16:00-24:00;Sa,Su,Ph 09:00-24:00", "phone": "62477988", "website": "http://www.sandbank.com.sg/", "wheelchair": "yes"}}, {"type": "node", "id": 7302260784, "lat": 1.3089558, "lon": 103.9026244, "tags": {"amenity": "restaurant", "name": "Burger Frites"}}, {"type": "node", "id": 7302288666, "lat": 1.3097159, "lon": 103.9020824, "tags": {"amenity": "restaurant", "cuisine": "vietnamese", "name": "Viet Sea Restaurant"}}, {"type": "node", "id": 7501516186, "lat": 1.3199882, "lon": 103.9439516, "tags": {"amenity": "restaurant", "cuisine": "malaysian", "name": "24hrs Nasi Padang & Seafood"}}, {"type": "node", "id": 7617250712, "lat": 1.3137374, "lon": 103.9317895, "tags": {"amenity": "restaurant", "cuisine": "indian", "name": "Kinara"}}, {"type": "node", "id": 7617250713, "lat": 1.3137337, "lon": 103.9317307, "tags": {"amenity": "restaurant", "name": "Haron Satay Specialist"}}, {"type": "node", "id": 7617250726, "lat": 1.3137261, "lon": 103.9316135, "tags": {"amenity": "restaurant", "name": "Chat MAsala"}}, {"type": "node", "id": 7617798497, "lat": 1.3143119, "lon": 103.9195015, "tags": {"amenity": "restaurant", "name": "Different Taste"}}, {"type": "node", "id": 7617798499, "lat": 1.3144741, "lon": 103.91943, "tags": {"amenity": "restaurant", "name": "Chop Chye Bee", "name:zh": "\u6cf0\u7f8e\u9152\u838a"}}, {"type": "node", "id": 7617798500, "lat": 1.3145282, "lon": 103.9194061, "tags": {"amenity": "restaurant", "name": "House of Peranakan Cuisine"}}, {"type": "node", "id": 7617798502, "lat": 1.3148198, "lon": 103.919285, "tags": {"addr:city": "Singapore", "addr:country": "SG", "addr:housenumber": "95", "addr:postcode": "458221", "addr:street": "Frankel Avenue", "amenity": "restaurant", "branch": "Frankel", "cuisine": "pizza", "email": "peperonifeedback@lesamis.com.sg", "name": "Peperoni Pizzeria", "opening_hours": "Mo-Su 11:00-23:00", "phone": "+65 64455661", "website": "https://www.peperoni.com.sg/"}}, {"type": "node", "id": 7617798505, "lat": 1.314992, "lon": 103.9192162, "tags": {"amenity": "restaurant", "name": "Bee Chun Heng", "name:zh": "\u7f8e\u73cd\u9999"}}, {"type": "node", "id": 7617798506, "lat": 1.3150516, "lon": 103.9191924, "tags": {"addr:city": "Singapore", "addr:country": "SG", "addr:housenumber": "87", "addr:postcode": "458215", "addr:street": "Frankel Avenue", "amenity": "restaurant", "email": "gastrobar@roos.com.sg", "name": "Roo's Gastrobar", "phone": "+65 66791763", "website": "https://roos.com.sg/"}}, {"type": "node", "id": 7617798507, "lat": 1.3147589, "lon": 103.9193094, "tags": {"amenity": "restaurant", "cuisine": "chicken", "name": "Bird Bird Chicken"}}, {"type": "node", "id": 7617798508, "lat": 1.3152201, "lon": 103.919125, "tags": {"addr:city": "Singapore", "addr:country": "SG", "addr:housenumber": "81", "addr:postcode": "458209", "addr:street": "Frankel Avenue", "amenity": "restaurant", "email": "sales@bbqwholesale.com", "name": "BBQ Wholesale", "website": "https://www.bbqwholesale.com/"}}, {"type": "node", "id": 7637545460, "lat": 1.3177369, "lon": 103.907056, "tags": {"addr:city": "Singapore", "addr:country": "SG", "addr:housenumber": "306", "addr:postcode": "419784", "addr:street": "Changi Road", "amenity": "restaurant", "email": "Order@papura.sg", "name": "Papura Chicken Essence", "website": "https://www.papura.sg/", "wheelchair": "yes"}}, {"type": "node", "id": 7637549575, "lat": 1.3195972, "lon": 103.9125129, "tags": {"amenity": "restaurant", "name": "Rumah Makan Santai"}}, {"type": "node", "id": 7637566694, "lat": 1.3193088, "lon": 103.9128191, "tags": {"addr:street": "Changi Road", "amenity": "restaurant", "name": "Seng Kee Black Chicken Herbal Soup", "source": "Kaart Ground Survey 2017"}}, {"type": "node", "id": 7637566695, "lat": 1.3193928, "lon": 103.9130099, "tags": {"amenity": "restaurant", "name": "Steam Fish"}}, {"type": "node", "id": 7637579604, "lat": 1.3189014, "lon": 103.9104309, "tags": {"amenity": "restaurant", "name": "Gu Zao Ren Seafood Taiwan Porridge", "name:zh": "\u53e4\u65e9\u4eba\u716e\u7092\u53f0\u6e7e\u7ca5", "wheelchair": "no"}}, {"type": "node", "id": 7637579605, "lat": 1.3188899, "lon": 103.9103674, "tags": {"amenity": "restaurant", "name": "Lion City Delicacies", "wheelchair": "no"}}, {"type": "node", "id": 7637579925, "lat": 1.3180031, "lon": 103.9065396, "tags": {"addr:street": "Changi Road", "amenity": "restaurant", "name": "MCC Makanplace", "opening_hours": "07:00-02:00"}}, {"type": "node", "id": 7637579958, "lat": 1.3182007, "lon": 103.9073174, "tags": {"amenity": "restaurant", "name": "Goldhill Hakka Restaurant", "name:zh": "\u91d1\u5c71\u5ba2\u5bb6\u917f\u8c46\u8150\u9910\u9986", "wheelchair": "limited"}}, {"type": "node", "id": 7637579959, "lat": 1.3182138, "lon": 103.9073895, "tags": {"amenity": "restaurant", "name": "\u5c1d\u9999\u601d", "wheelchair": "limited"}}, {"type": "node", "id": 7637579963, "lat": 1.3180964, "lon": 103.9067414, "tags": {"addr:postcode": "419762", "amenity": "restaurant", "cuisine": "indian", "name": "ABC Wang Restaurant", "wheelchair": "yes"}}, {"type": "node", "id": 7637579997, "lat": 1.3178957, "lon": 103.9079627, "tags": {"amenity": "restaurant", "name": "The House of Lemamang", "wheelchair": "no"}}, {"type": "node", "id": 7637579998, "lat": 1.3178856, "lon": 103.9079054, "tags": {"amenity": "restaurant", "name": "Charco's The Flaming Chicken", "website": "http://charcos.com.sg/", "wheelchair": "limited"}}, {"type": "node", "id": 7637601486, "lat": 1.3192225, "lon": 103.9138828, "tags": {"amenity": "restaurant", "name": "Changi Steamboat"}}, {"type": "node", "id": 7821674999, "lat": 1.2988378, "lon": 103.9064563, "tags": {"addr:city": "Singapore", "addr:country": "SG", "addr:housenumber": "920", "addr:postcode": "449875", "addr:street": "East Coast Parkway", "addr:unit": "#01-20/21", "amenity": "restaurant", "email": "enquiry@fullpintbrewery.com.sg", "name": "Full Pint Brewery", "opening_hours": "Mo-Fr 17:00-24:00;Sa 12:00-25:00;Su 12:00-24:00", "phone": "63420244", "website": "https://www.facebook.com/fullpintbrewery/"}}, {"type": "node", "id": 8527680117, "lat": 1.3066812, "lon": 103.905846, "tags": {"addr:housenumber": "171", "addr:street": "East Coast Road", "amenity": "restaurant", "name": "Platypus Cantina"}}, {"type": "node", "id": 8664639841, "lat": 1.2985153, "lon": 103.906169, "tags": {"addr:city": "Singapore", "addr:country": "SG", "addr:housenumber": "920", "addr:postcode": "449875", "addr:street": "East Coast Parkway", "addr:unit": "#01-25/26/27", "amenity": "restaurant", "email": "enquiry@atmosphere-bistro.com.sg", "name": "Atmosphere Bistro", "opening_hours": "Mo-Th 18:00-24:00;Fr 18:00-25:00;Sa,Su,Ph 10:30-25:00", "phone": "64409705", "website": "https://atmosphere-bistro.com.sg/"}}, {"type": "node", "id": 8664679094, "lat": 1.301236, "lon": 103.912927, "tags": {"addr:city": "Singapore", "addr:country": "SG", "addr:housenumber": "1000", "addr:postcode": "449876", "addr:street": "East Coast Parkway", "addr:unit": "#01-02", "amenity": "restaurant", "name": "Tash Tish Tosh", "website": "https://www.tashtishtosh.com/"}}, {"type": "node", "id": 8664679095, "lat": 1.3013588, "lon": 103.9128947, "tags": {"addr:city": "Singapore", "addr:country": "SG", "addr:housenumber": "1000", "addr:postcode": "449876", "addr:street": "East Coast Parkway", "addr:unit": "#01-03", "amenity": "restaurant", "name": "East Coast Commune", "opening_hours": "We-Mo 09:00-18:00", "website": "https://www.eccommune.com/"}}, {"type": "node", "id": 8664679096, "lat": 1.3014881, "lon": 103.9128607, "tags": {"addr:city": "Singapore", "addr:country": "SG", "addr:housenumber": "1000", "addr:postcode": "449876", "addr:street": "East Coast Parkway", "addr:unit": "#01-04", "amenity": "restaurant", "email": "infor@mrtehtarik.com.sg", "name": "My Briyani House", "opening_hours": "24/7", "phone": "67425522"}}, {"type": "node", "id": 9063672926, "lat": 1.3096787, "lon": 103.931026, "tags": {"addr:city": "Singapore", "addr:housenumber": "5000F", "addr:postcode": "449289", "addr:street": "Marine Parade Rd", "air_conditioning": "yes", "amenity": "restaurant", "cuisine": "asian", "name": "Diamond Kitchen", "opening_hours": "Mo-Su 11:00-23:00", "phone": "6448 0629"}}, {"type": "node", "id": 9449464817, "lat": 1.3048204, "lon": 103.9037967, "tags": {"addr:postcode": "428769", "amenity": "restaurant", "cuisine": "japanese", "name": "Wahiro"}}, {"type": "node", "id": 9562490417, "lat": 1.3162109, "lon": 103.9774982, "tags": {"addr:housenumber": "11", "addr:street": "Changi Coast Walk", "amenity": "restaurant", "check_date": "2023-11-05", "contact:facebook": "https://www.facebook.com/stellaseasidelounge", "contact:instagram": "https://www.instagram.com/stellaseasidelounge", "contact:whatsapp": "https://wa.me/message/VMWT6NX77W4EH1", "diet:vegetarian": "yes", "name": "Stella Seaside Lounge", "opening_hours": "Mo-Fr 16:00-22:00; Sa-Su,PH 12:00-22:00", "outdoor_seating": "yes", "payment:credit_cards": "yes", "payment:mastercard": "yes", "payment:nets": "yes", "payment:visa": "yes", "reservation": "yes", "website": "https://www.stella.com.sg/"}}, {"type": "node", "id": 9671017338, "lat": 1.3047747, "lon": 103.90416, "tags": {"addr:unit": "03", "amenity": "restaurant", "level": "0", "name": "Jin Yu Man Tang"}}, {"type": "node", "id": 9710656493, "lat": 1.3041638, "lon": 103.9017766, "tags": {"addr:unit": "41-43", "amenity": "restaurant", "level": "0", "name": "Golden Ocean"}}, {"type": "node", "id": 9710728206, "lat": 1.3045053, "lon": 103.9043453, "tags": {"addr:unit": "06", "amenity": "restaurant", "cuisine": "indian", "level": "0", "name": "Butter & Spice"}}, {"type": "node", "id": 9710736624, "lat": 1.3040494, "lon": 103.9028553, "tags": {"addr:unit": "14-16", "amenity": "restaurant", "cuisine": "sushi;japanese", "level": "1", "name": "Tomi Sushi"}}, {"type": "node", "id": 9710736631, "lat": 1.3031939, "lon": 103.9031479, "tags": {"addr:housenumber": "30", "addr:street": "Marine Parade Road", "addr:unit": "01-12/13", "air_conditioning": "yes", "amenity": "restaurant", "brewery": "no", "check_date": "2023-05-04", "cuisine": "italian;pasta;salad;dessert", "diet:vegetarian": "yes", "level": "0", "name": "Burrata Joy Gustavo Lapasta", "outdoor_seating": "no", "payment:cash": "yes", "payment:credit_cards": "yes", "payment:debit_cards": "yes", "payment:mastercard": "yes", "payment:nets": "yes", "payment:visa": "yes", "phone": "+65 8333 2742", "reservation": "yes", "smoking": "no", "wheelchair": "yes"}}, {"type": "node", "id": 9710736634, "lat": 1.3039423, "lon": 103.9029177, "tags": {"addr:unit": "12", "amenity": "restaurant", "cuisine": "korean", "level": "2", "name": "Yun Ga", "name:zh": "\u5c39\u5bb6", "opening_hours": "11:00-22:00"}}, {"type": "node", "id": 9710736643, "lat": 1.3032373, "lon": 103.9032445, "tags": {"amenity": "restaurant", "name": "Wine Mansion"}}, {"type": "node", "id": 9710784631, "lat": 1.3048575, "lon": 103.9045067, "tags": {"amenity": "restaurant", "level": "0", "name": "Golden Leaf"}}, {"type": "node", "id": 9710784633, "lat": 1.3050702, "lon": 103.9046786, "tags": {"amenity": "restaurant", "level": "0", "name": "Viva Loca"}}, {"type": "node", "id": 9710784634, "lat": 1.3049588, "lon": 103.9045838, "tags": {"addr:unit": "08", "amenity": "restaurant", "level": "1", "name": "Shin Minori"}}, {"type": "node", "id": 9710784639, "lat": 1.3048616, "lon": 103.9047392, "tags": {"addr:unit": "13", "amenity": "restaurant", "level": "0", "name": "Kotobuki Yakitori"}}, {"type": "node", "id": 9710801519, "lat": 1.3046601, "lon": 103.9042362, "tags": {"addr:unit": "04", "amenity": "restaurant", "cuisine": "japanese", "level": "0", "name": "Dai-Ichi Fishmart", "opening_hours": "11:30-22:30"}}, {"type": "node", "id": 9710870174, "lat": 1.3055866, "lon": 103.9048817, "tags": {"amenity": "restaurant", "brand": "Guzman y Gomez", "cuisine": "mexican", "level": "0", "name": "Guzman y Gomez"}}, {"type": "node", "id": 9710870181, "lat": 1.3053996, "lon": 103.9051567, "tags": {"addr:unit": "04", "amenity": "restaurant", "level": "0", "name": "Raken Ippudo"}}, {"type": "node", "id": 9710911619, "lat": 1.3056277, "lon": 103.9050336, "tags": {"amenity": "restaurant", "check_date": "2022-12-03", "level": "1", "name": "Tim Ho Wan", "name:zh": "\u6dfb\u597d\u904b", "outdoor_seating": "yes"}}, {"type": "node", "id": 9825096417, "lat": 1.3187247, "lon": 103.9740138, "tags": {"amenity": "restaurant", "name": "Fu Lin Men (NSRCC)"}}, {"type": "node", "id": 9979031409, "lat": 1.3086631, "lon": 103.9114973, "tags": {"amenity": "restaurant", "name": "Jag WIne"}}, {"type": "node", "id": 10242087189, "lat": 1.3044353, "lon": 103.9021744, "tags": {"amenity": "restaurant", "check_date": "2022-12-03", "cuisine": "italian;pizza;pasta;steak_house", "name": "Volare", "outdoor_seating": "yes", "wheelchair": "yes"}}, {"type": "node", "id": 10242087191, "lat": 1.3050546, "lon": 103.9033248, "tags": {"amenity": "restaurant", "check_date": "2022-12-04", "name": "Tandoori Nights"}}, {"type": "node", "id": 10243984940, "lat": 1.3088321, "lon": 103.9027081, "tags": {"amenity": "restaurant", "name": "Chuan Wei Xuan"}}, {"type": "node", "id": 11786293669, "lat": 1.3087958, "lon": 103.9121045, "tags": {"addr:postcode": "428997", "amenity": "restaurant", "cuisine": "japanese", "name": "Maguro Father", "opening_hours": "Mo-Su 11:30-15:00,17:30-22:00", "website": "https://magurodonya.com/news/2022/12/10/introducing-the-maguro-father-our-new-restaurant-at-east-coast-road"}}, {"type": "node", "id": 11830039222, "lat": 1.305269, "lon": 103.9052486, "tags": {"addr:city": "Singapore", "addr:country": "SG", "addr:housenumber": "112", "addr:postcode": "428802", "addr:street": "East Coast Road", "addr:unit": "#B1-50", "amenity": "restaurant", "cuisine": "thai", "name": "Yum Yum Thai"}}, {"type": "node", "id": 12093257650, "lat": 1.3131131, "lon": 103.9263921, "tags": {"air_conditioning": "yes", "amenity": "restaurant", "bar": "yes", "check_date": "2024-08-04", "cuisine": "indian", "name": "Briyani Concepts"}}, {"type": "way", "id": 187944959, "nodes": [1985789878, 1985789879, 1985789881, 1985789880, 1985789878], "tags": {"amenity": "restaurant", "building": "yes", "name": "Smokey's"}}, {"type": "way", "id": 213582746, "nodes": [2232573566, 2232574046, 2232574040, 2232573564, 2232573566], "tags": {"amenity": "restaurant", "building": "yes", "building:levels": "2", "name": "Canteen", "name:zh": "\u98df\u5802"}}, {"type": "way", "id": 285163475, "nodes": [2888370265, 2888370266, 2888370267, 2888370268, 2888370265], "tags": {"addr:city": "Singapore", "addr:street": "Joo Chiat Place", "amenity": "restaurant", "building": "yes", "building:levels": "1", "cuisine": "seafood", "name": "Eng Seng Restaurant", "wheelchair": "yes"}}, {"type": "way", "id": 334111775, "nodes": [3412051883, 3412051833, 3412051854, 3412051553, 3412051566, 3412051884, 3412051589, 3412045438, 3412051588, 3412051997, 3412051583, 3412045416, 3412051895, 3412051571, 3412051562, 3412051906, 3412051883], "tags": {"addr:city": "Singapore", "addr:country": "SG", "addr:housenumber": "382", "addr:street": "Joo Chiat Road", "amenity": "restaurant", "building": "yes", "building:levels": "1", "name": "Pictotin", "source": "Kaart Ground Survey 2017"}}, {"type": "way", "id": 461519003, "nodes": [4500262150, 4500262147, 4500262143, 4569989822, 4569989823, 4500262149, 4500262150], "tags": {"addr:city": "Singapore", "addr:housenumber": "462", "addr:postcode": "466508", "addr:street": "Upper East Coast Road", "amenity": "restaurant", "building": "yes", "cuisine": "asian", "name": "Hua Yu Wee"}}, {"type": "way", "id": 745270748, "nodes": [6982533265, 6982571847, 6976046886, 6976343105, 6976336802, 6976343104, 6976343103, 6976343102, 6976343198, 6982533265], "tags": {"amenity": "restaurant", "indoor": "room", "level": "1", "name": "Treasures", "room": "restaurant"}}, {"type": "way", "id": 745527076, "nodes": [6978609908, 6976047788, 6976046990, 6976045793, 6978610195, 6978609908], "tags": {"amenity": "restaurant", "indoor": "room", "level": "0", "name": "Dome", "room": "restaurant"}}, {"type": "way", "id": 745530704, "nodes": [6976847191, 6982502055, 6991554572, 6991554568, 6991554569, 6978637796, 6978637990, 6978635801, 6978637797, 6978637798, 6978637799, 6978637988, 6978637792, 6978637791, 6978635796, 6978635795, 6978635794, 6976847191], "tags": {"amenity": "restaurant", "indoor": "room", "level": "0", "name": "Jack's Place", "room": "restaurant"}}, {"type": "way", "id": 745530736, "nodes": [6982511417, 6982511421, 6976043411, 6978637994, 6978635809, 6978635810, 6982511410, 6982511413, 6982511417], "tags": {"amenity": "restaurant", "brand": "Din Tai Fung", "brand:wikidata": "Q699142", "brand:wikipedia": "en:Din Tai Fung", "cuisine": "taiwanese", "indoor": "room", "level": "0", "name": "Din Tai Fung", "name:zh": "\u9f0e\u6cf0\u8c50", "name:zh-Hans": "\u9f0e\u6cf0\u4e30", "name:zh-Hant": "\u9f0e\u6cf0\u8c50", "room": "restaurant"}}, {"type": "way", "id": 745530737, "nodes": [6978635810, 6978638185, 6978635811, 6978637994, 6978635809, 6978635810], "tags": {"amenity": "restaurant", "cuisine": "japanese", "indoor": "room", "level": "0", "name": "Tori Q", "room": "restaurant"}}, {"type": "way", "id": 745530747, "nodes": [6978637893, 6978637998, 6978637809, 6978635818, 6978637813, 6978635813, 6978637997, 6978635812, 6978637893], "tags": {"amenity": "restaurant", "indoor": "room", "level": "0", "name": "Sanook Kitchen", "room": "restaurant"}}, {"type": "way", "id": 746049597, "nodes": [6976343386, 6982511445, 6982511435, 6976336788, 6976343189, 6976343487, 6982002503, 6982001929, 6982001930, 6976343386], "tags": {"amenity": "restaurant", "indoor": "room", "level": "1", "name": "Putien", "room": "restaurant"}}, {"type": "way", "id": 746049599, "nodes": [6976343386, 6982001997, 6982001807, 6982001932, 6982511467, 6975655486, 6982001808, 6982002087, 6982001998, 6982511452, 6976343386], "tags": {"amenity": "restaurant", "indoor": "room", "level": "1", "name": "Ichiban Boshi", "room": "restaurant"}}, {"type": "way", "id": 746052353, "nodes": [6982021634, 6982021635, 6982021637, 6982021638, 6982024690, 6982021639, 6982021640, 6982024601, 6982021634], "tags": {"amenity": "restaurant", "indoor": "room", "level": "-1", "name": "Swensen's", "room": "restaurant"}}, {"type": "way", "id": 746052355, "nodes": [6982021639, 6982024690, 6982021642, 6982021643, 6982021644, 6982024985, 6982021641, 6982024689, 6982021639], "tags": {"amenity": "restaurant", "indoor": "room", "level": "-1", "name": "Fish Mart Sakuraya", "room": "restaurant"}}, {"type": "way", "id": 746052356, "nodes": [6982024985, 6982021644, 6982024986, 6982021645, 6982021646, 6982021647, 6982024602, 6982024603, 6982021648, 6982024985], "tags": {"amenity": "restaurant", "cuisine": "yakiniku;japanese", "indoor": "room", "level": "-1", "name": "Yakiniku-GO", "room": "restaurant"}}, {"type": "way", "id": 746110472, "nodes": [6982433009, 6982433008, 6982024585, 6982021589, 6982433009], "tags": {"amenity": "restaurant", "indoor": "room", "level": "-1", "name": "Bee Cheng Hiang", "name:nan": "\u7f8e\u73cd\u9999", "name:zh": "\u7f8e\u73cd\u9999", "room": "restaurant"}}, {"type": "way", "id": 746110620, "nodes": [6982432929, 6982433093, 6982432925, 6982432930, 6982432931, 6982432932, 6982432929], "tags": {"amenity": "restaurant", "indoor": "room", "level": "-1", "name": "Famous Amos", "room": "restaurant"}}]}