{"version": 0.6, "generator": "Overpass API 0.7.62.7 375dc00a", "osm3s": {"timestamp_osm_base": "2025-07-13T04:33:05Z", "copyright": "The data included in this document is from www.openstreetmap.org. The data is made available under ODbL."}, "elements": [{"type": "node", "id": 688979565, "lat": 1.4024725, "lon": 103.9708268}, {"type": "node", "id": 688979571, "lat": 1.4024725, "lon": 103.9710087}, {"type": "node", "id": 688979575, "lat": 1.4023553, "lon": 103.9710087}, {"type": "node", "id": 688979579, "lat": 1.4023553, "lon": 103.9708268}, {"type": "node", "id": 3218854649, "lat": 1.362377, "lon": 103.9739772}, {"type": "node", "id": 3218854650, "lat": 1.3620746, "lon": 103.9738632}, {"type": "node", "id": 3218854651, "lat": 1.3619958, "lon": 103.9740721}, {"type": "node", "id": 3218854652, "lat": 1.3622982, "lon": 103.9741862}, {"type": "node", "id": 5253879660, "lat": 1.4740442, "lon": 103.9060608, "tags": {"name": "Kite Museum Pasir Gudang", "name:zh": "\u5df4\u897f\u53e4\u5f53\u98ce\u7b5d\u535a\u7269\u9986", "tourism": "museum", "wikidata": "Q27966949", "wikimedia_commons": "Category:Kite Museum (Johor)", "wikipedia": "en:Kite Museum (Johor)"}}, {"type": "node", "id": 9810686286, "lat": 1.3523281, "lon": 103.941093, "tags": {"description": "gallery within the Tampines library, detailing Tampines' heritage", "level": "1", "name": "Our Tampines Gallery", "tourism": "museum"}}, {"type": "node", "id": 10814087225, "lat": 1.4066903, "lon": 104.0288977}, {"type": "node", "id": 10814087226, "lat": 1.4067862, "lon": 104.0289369}, {"type": "node", "id": 10814087227, "lat": 1.4068622, "lon": 104.0287508}, {"type": "node", "id": 10814087228, "lat": 1.4067663, "lon": 104.0287115}, {"type": "node", "id": 11402748479, "lat": 1.4061784, "lon": 104.0295003, "tags": {"museum": "military", "name": "NS Gallery", "tourism": "museum"}}, {"type": "way", "id": 54725325, "nodes": [688979565, 688979571, 688979575, 688979579, 688979565], "tags": {"addr:city": "Pulau Ubin, Singapore", "addr:street": "Jalan Pekan Ubin", "building": "yes", "name": "Nature Gallery", "operator": "National Parks Board", "tourism": "museum"}}, {"type": "way", "id": 315753904, "nodes": [3218854649, 3218854650, 3218854651, 3218854652, 3218854649], "tags": {"building": "yes", "museum": "war", "name": "The Changi Museum", "name:en": "The Changi Museum", "opening_hours": "Tu-Su 09:30-17:30", "tourism": "museum", "website": "https://www.nhb.gov.sg/changichapelmuseum", "wikidata": "Q5072000", "wikimedia_commons": "Category:Changi Museum", "wikipedia": "en:Changi Chapel and Museum"}}, {"type": "way", "id": 1162751054, "nodes": [10814087225, 10814087226, 10814087227, 10814087228, 10814087225], "tags": {"building": "yes", "tourism": "museum"}}]}