{"version": 0.6, "generator": "Overpass API 0.7.62.7 375dc00a", "osm3s": {"timestamp_osm_base": "2025-07-13T13:42:14Z", "copyright": "The data included in this document is from www.openstreetmap.org. The data is made available under ODbL."}, "elements": [{"type": "node", "id": 783666679, "lat": 1.3449077, "lon": 103.9314365, "tags": {"amenity": "restaurant", "name": "Design Pad"}}, {"type": "node", "id": 1437194714, "lat": 1.4069742, "lon": 103.9536344}, {"type": "node", "id": 1437194715, "lat": 1.4070307, "lon": 103.9537222}, {"type": "node", "id": 1437194716, "lat": 1.4073518, "lon": 103.9535598}, {"type": "node", "id": 1437194718, "lat": 1.4073128, "lon": 103.9533759}, {"type": "node", "id": 1840905869, "lat": 1.3953492, "lon": 103.9173761}, {"type": "node", "id": 1840906101, "lat": 1.395448, "lon": 103.9172447}, {"type": "node", "id": 1840906102, "lat": 1.3954514, "lon": 103.917453}, {"type": "node", "id": 1840906116, "lat": 1.3955502, "lon": 103.9173216}, {"type": "node", "id": 1989200164, "lat": 1.403051, "lon": 103.9701473}, {"type": "node", "id": 1989200165, "lat": 1.4029925, "lon": 103.9702135}, {"type": "node", "id": 1989200166, "lat": 1.4030703, "lon": 103.9702821}, {"type": "node", "id": 1994801746, "lat": 1.3975221, "lon": 103.9614338}, {"type": "node", "id": 1994801748, "lat": 1.3975421, "lon": 103.9616021}, {"type": "node", "id": 1994801750, "lat": 1.3974745, "lon": 103.9616222}, {"type": "node", "id": 1994801753, "lat": 1.3974928, "lon": 103.9617053}, {"type": "node", "id": 1994801760, "lat": 1.3974414, "lon": 103.9617134}, {"type": "node", "id": 1994801762, "lat": 1.397454, "lon": 103.9617925}, {"type": "node", "id": 1994801764, "lat": 1.397452, "lon": 103.9618937}, {"type": "node", "id": 1994801766, "lat": 1.3977786, "lon": 103.9618288}, {"type": "node", "id": 1994801768, "lat": 1.3978603, "lon": 103.9622216}, {"type": "node", "id": 1994801769, "lat": 1.3975675, "lon": 103.9622806}, {"type": "node", "id": 1994801772, "lat": 1.3975993, "lon": 103.9624464}, {"type": "node", "id": 1994801773, "lat": 1.3972747, "lon": 103.9625054}, {"type": "node", "id": 1994801774, "lat": 1.39724, "lon": 103.9623337}, {"type": "node", "id": 1994801775, "lat": 1.3971499, "lon": 103.9623496}, {"type": "node", "id": 1994801776, "lat": 1.3970909, "lon": 103.9620173}, {"type": "node", "id": 1994801777, "lat": 1.3972906, "lon": 103.9619855}, {"type": "node", "id": 1994801778, "lat": 1.3972838, "lon": 103.9619242}, {"type": "node", "id": 1994801780, "lat": 1.3972877, "lon": 103.9616604}, {"type": "node", "id": 1994801782, "lat": 1.3971923, "lon": 103.9616816}, {"type": "node", "id": 1994801784, "lat": 1.3971658, "lon": 103.9615041}, {"type": "node", "id": 1994811269, "lat": 1.3973428, "lon": 103.9619151}, {"type": "node", "id": 1994811275, "lat": 1.3974291, "lon": 103.9618016}, {"type": "node", "id": 2152902999, "lat": 1.3508012, "lon": 104.2241395, "tags": {"addr:city": "Sungai Rengit", "addr:country": "MY", "addr:housenumber": "54", "addr:postcode": "81620", "addr:street": "Jalan Kerisi", "amenity": "restaurant", "cuisine": "chinese", "name": "Restoran Makanan Laut Sin Kong", "name:en": "Sin Kong", "name:ms": "Restoran Makanan Laut Sin Kong", "name:zh": "\u65b0\u5149\u6d77\u9bae\u51b7\u6c14\u9152\u697c"}}, {"type": "node", "id": 2314266817, "lat": 1.4025517, "lon": 103.9697017}, {"type": "node", "id": 2314266820, "lat": 1.4025449, "lon": 103.9697905}, {"type": "node", "id": 2314266823, "lat": 1.4026459, "lon": 103.9697089}, {"type": "node", "id": 2314266825, "lat": 1.402639, "lon": 103.9697978}, {"type": "node", "id": 2385941338, "lat": 1.351014, "lon": 104.224002, "tags": {"amenity": "restaurant", "name": "Restoran Makanan Laut You Kees", "name:en": "Restoran You Kees", "name:ms": "Restoran Makanan Laut You Kees", "name:zh": "\u4f51\u8bb0\u6d77\u9c9c"}}, {"type": "node", "id": 2476253445, "lat": 1.3316442, "lon": 103.9470924, "tags": {"addr:city": "Singapore", "addr:housenumber": "357", "addr:postcode": "469545", "addr:street": "Bedok Road", "amenity": "restaurant", "cuisine": "chinese;western", "name": "Tang Tea House", "opening_hours": "Su-Th 11:00-02:00, Fr,Sa,PH 11:00-03:00", "phone": "+65 6445 9100", "takeaway": "yes", "website": "http://www.tangteahouse.com"}}, {"type": "node", "id": 2604539223, "lat": 1.4070762, "lon": 103.9534864}, {"type": "node", "id": 2604539224, "lat": 1.4071136, "lon": 103.9535445}, {"type": "node", "id": 2604539225, "lat": 1.4071675, "lon": 103.9534275}, {"type": "node", "id": 2604539227, "lat": 1.4071739, "lon": 103.9536299}, {"type": "node", "id": 2604539228, "lat": 1.4071943, "lon": 103.9536615}, {"type": "node", "id": 2604539229, "lat": 1.40721, "lon": 103.9534934}, {"type": "node", "id": 2604539230, "lat": 1.40726, "lon": 103.95341}, {"type": "node", "id": 2604539231, "lat": 1.4072833, "lon": 103.9534462}, {"type": "node", "id": 2604539232, "lat": 1.4073217, "lon": 103.953513}, {"type": "node", "id": 2604539233, "lat": 1.4073778, "lon": 103.9534768}, {"type": "node", "id": 2620554404, "lat": 1.3890699, "lon": 103.988457, "tags": {"addr:housenumber": "2", "addr:postcode": "500002", "addr:street": "Changi Village Road", "addr:unit": "01-70", "air_conditioning": "no", "amenity": "restaurant", "brewery": "yes", "check_date": "2022-11-20", "cuisine": "burger;hot_dog;grill;sausage;steak_house;american;pasta;pizza;diner;fish_and_chips;barbecue;fish", "drink:beer": "draught;bottled", "indoor_seating": "no", "level": "0", "name": "Charlie's Corner #01-70", "opening_hours": "Tu-Fr 14:00-00:00; Sa-Su 11:30-00:00", "outdoor_seating": "yes", "payment:mastercard": "yes", "payment:nets": "yes", "payment:visa": "yes", "phone": "+6565431754", "wheelchair": "yes"}}, {"type": "node", "id": 2903702107, "lat": 1.3267231, "lon": 103.91906, "tags": {"addr:housenumber": "55", "addr:postcode": "460055", "addr:street": "Chai Chee Drive", "amenity": "restaurant", "cuisine": "chinese;local;seafood", "name": "New Hawa Restaurant", "opening_hours": "Mo-Su 10:30-23:00", "phone": "+6591508172"}}, {"type": "node", "id": 3146488232, "lat": 1.3862626, "lon": 103.9416926}, {"type": "node", "id": 3146488235, "lat": 1.386371, "lon": 103.9419115}, {"type": "node", "id": 3146488260, "lat": 1.3864298, "lon": 103.9417559}, {"type": "node", "id": 3146488308, "lat": 1.3862038, "lon": 103.9418482}, {"type": "node", "id": 3218854653, "lat": 1.3622679, "lon": 103.9735981}, {"type": "node", "id": 3218854654, "lat": 1.3621855, "lon": 103.9735681}, {"type": "node", "id": 3218854655, "lat": 1.3620873, "lon": 103.9738382}, {"type": "node", "id": 3218854656, "lat": 1.3623768, "lon": 103.9739435}, {"type": "node", "id": 3218854657, "lat": 1.3623996, "lon": 103.9738808}, {"type": "node", "id": 3218854658, "lat": 1.3621925, "lon": 103.9738055}, {"type": "node", "id": 3523415337, "lat": 1.3920248, "lon": 103.9847706}, {"type": "node", "id": 3523415338, "lat": 1.3919322, "lon": 103.9847158}, {"type": "node", "id": 3523415339, "lat": 1.3918999, "lon": 103.9847748}, {"type": "node", "id": 3523415340, "lat": 1.3919083, "lon": 103.9848661}, {"type": "node", "id": 3523415341, "lat": 1.3918142, "lon": 103.9848858}, {"type": "node", "id": 3523415342, "lat": 1.3918212, "lon": 103.9849349}, {"type": "node", "id": 3523415343, "lat": 1.3919125, "lon": 103.9849195}, {"type": "node", "id": 3523415344, "lat": 1.3919223, "lon": 103.9849841}, {"type": "node", "id": 3523415345, "lat": 1.392022, "lon": 103.9850515}, {"type": "node", "id": 3523415346, "lat": 1.3920094, "lon": 103.9850768}, {"type": "node", "id": 3523415347, "lat": 1.3921898, "lon": 103.9851921}, {"type": "node", "id": 3523415348, "lat": 1.3922896, "lon": 103.9850365}, {"type": "node", "id": 3523415349, "lat": 1.3921287, "lon": 103.9849181}, {"type": "node", "id": 3523415350, "lat": 1.3921021, "lon": 103.9849644}, {"type": "node", "id": 3523415351, "lat": 1.3920319, "lon": 103.9849223}, {"type": "node", "id": 3523415352, "lat": 1.3920529, "lon": 103.9849209}, {"type": "node", "id": 3611121099, "lat": 1.3775267, "lon": 103.9548924, "tags": {"addr:city": "Singapore", "addr:country": "SG", "addr:housenumber": "1", "addr:postcode": "519599", "addr:street": "Pasir Ris Close", "addr:unit": "#02-334", "air_conditioning": "yes", "amenity": "restaurant", "cuisine": "sushi", "diet:halal": "yes", "level": "1", "name": "Hei Sushi", "opening_hours": "Mo-Th 11:30-21:30; Fr-Su,PH 11:30-22:00", "phone": "+65 63867141", "website": "https://www.heisushi.com/"}}, {"type": "node", "id": 3684757277, "lat": 1.3552779, "lon": 103.9853894}, {"type": "node", "id": 3684757281, "lat": 1.3553182, "lon": 103.9853128}, {"type": "node", "id": 3684757286, "lat": 1.3553835, "lon": 103.9854367}, {"type": "node", "id": 3684757294, "lat": 1.3555036, "lon": 103.9854943}, {"type": "node", "id": 3684757295, "lat": 1.3555085, "lon": 103.9856267}, {"type": "node", "id": 3684757297, "lat": 1.3555265, "lon": 103.9855833}, {"type": "node", "id": 3684757301, "lat": 1.355545, "lon": 103.9854077}, {"type": "node", "id": 3684757306, "lat": 1.3555595, "lon": 103.9856479}, {"type": "node", "id": 3684757308, "lat": 1.3555775, "lon": 103.9856045}, {"type": "node", "id": 3684757309, "lat": 1.3555798, "lon": 103.9854837}, {"type": "node", "id": 3684757312, "lat": 1.3556069, "lon": 103.985427}, {"type": "node", "id": 3684757315, "lat": 1.3556347, "lon": 103.9855101}, {"type": "node", "id": 3684757317, "lat": 1.3556619, "lon": 103.9854533}, {"type": "node", "id": 3684757322, "lat": 1.3557105, "lon": 103.9856026}, {"type": "node", "id": 3684757324, "lat": 1.3557247, "lon": 103.9855436}, {"type": "node", "id": 3684764327, "lat": 1.355756, "lon": 103.9856136}, {"type": "node", "id": 3684764330, "lat": 1.3557703, "lon": 103.9855546}, {"type": "node", "id": 3684764335, "lat": 1.3558268, "lon": 103.985634}, {"type": "node", "id": 3684764337, "lat": 1.355865, "lon": 103.9855453}, {"type": "node", "id": 3684764343, "lat": 1.3559662, "lon": 103.985694}, {"type": "node", "id": 3684764345, "lat": 1.3559987, "lon": 103.98561}, {"type": "node", "id": 3823826493, "lat": 1.4208204, "lon": 103.9124204, "tags": {"addr:city": "Punggol", "addr:housenumber": "3", "addr:street": "Punggol Point Walk", "amenity": "restaurant", "cuisine": "international", "level": "1", "name": "Just The Place"}}, {"type": "node", "id": 3891548621, "lat": 1.3560922, "lon": 103.9897134, "tags": {"amenity": "restaurant", "cuisine": "asian", "halal": "yes", "name": "Penang Culture"}}, {"type": "node", "id": 3891548627, "lat": 1.3546968, "lon": 103.9891474, "tags": {"amenity": "restaurant", "name": "Seafood Paradise"}}, {"type": "node", "id": 3891548628, "lat": 1.3562285, "lon": 103.9897519, "tags": {"amenity": "restaurant", "cuisine": "asian", "name": "Soup Restaurant", "opening_hours": "Mo-Su 10:30-23:00", "phone": "+65 6545 6866", "website": "https://www.souprestaurant.com.sg/index_ori.html"}}, {"type": "node", "id": 3891548631, "lat": 1.3563737, "lon": 103.9893637, "tags": {"amenity": "restaurant", "cuisine": "western", "halal": "yes", "microbrewery": "no", "name": "Swensens", "opening_hours": "24/7"}}, {"type": "node", "id": 3891550912, "lat": 1.3538791, "lon": 103.9887918, "tags": {"amenity": "restaurant", "cuisine": "indian", "name": "Ananda Bhavan", "opening_hours": "24/7"}}, {"type": "node", "id": 3891550917, "lat": 1.355947, "lon": 103.9896482, "tags": {"amenity": "restaurant", "cuisine": "thai", "halal": "yes", "name": "Central Thai"}}, {"type": "node", "id": 3891550922, "lat": 1.3553486, "lon": 103.9894289, "tags": {"amenity": "restaurant", "cuisine": "chinese", "name": "Crystal Jade"}}, {"type": "node", "id": 3891550925, "lat": 1.3543561, "lon": 103.9890052, "tags": {"amenity": "restaurant", "cuisine": "western", "halal": "yes", "name": "Fish & Co", "operator": "w"}}, {"type": "node", "id": 3891550936, "lat": 1.3541162, "lon": 103.9888925, "tags": {"amenity": "restaurant", "cuisine": "turkish", "name": "Nando"}}, {"type": "node", "id": 4000370264, "lat": 1.3903748, "lon": 103.9878841}, {"type": "node", "id": 4000370265, "lat": 1.3901706, "lon": 103.9879653}, {"type": "node", "id": 4000370266, "lat": 1.3901243, "lon": 103.9878487}, {"type": "node", "id": 4005765129, "lat": 1.420568, "lon": 103.9125198, "tags": {"amenity": "restaurant", "cuisine": "chinese", "level": "0", "name": "House of White Bee Hoon"}}, {"type": "node", "id": 4139047870, "lat": 1.3686265, "lon": 104.088823, "tags": {"amenity": "restaurant"}}, {"type": "node", "id": 4247881894, "lat": 1.347961, "lon": 104.2242389, "tags": {"amenity": "restaurant", "cuisine": "seafood;asian", "internet_access": "wlan", "name": "Jade Garden Seafood Corner", "name:en": "Jade Garden Seafood Corner", "name:zh": "\u7fe1\u7fe0\u5712\u6d77\u9bae\u9152\u5bb6"}}, {"type": "node", "id": 4274802300, "lat": 1.3408943, "lon": 103.9619651, "tags": {"addr:city": "Singapore", "addr:housenumber": "#01-204, 8", "addr:postcode": "487372", "addr:street": "Somapah Road", "air_conditioning": "yes", "amenity": "restaurant", "bar": "yes", "cuisine": "japanese;western", "description": "Most affordable drinking place in the east serving delicious rice bowl and ramen", "name": "Crooked Cooks", "opening_hours": "Mo-Fr 11:30-20:00", "phone": "+65 6384 0944", "takeaway": "yes", "website": "https://www.facebook.com/crookedcooksg/"}}, {"type": "node", "id": 4274802301, "lat": 1.3407413, "lon": 103.9620926, "tags": {"addr:city": "Singapore", "addr:housenumber": "#01-203, 8", "addr:postcode": "487372", "addr:street": "Somapah Road", "air_conditioning": "yes", "amenity": "restaurant", "cuisine": "fusion;regional;western", "description": "Helmed by Chef Simon Loke, a Master Chef with more than four decades of culinary experience and multiple Salon Culinary wins in the F&B industry. His career spanned from being in Singapore Airlines Head Office, to being a founding member of the first rest", "name": "Loke Culinarian"}}, {"type": "node", "id": 4294016189, "lat": 1.335444, "lon": 103.962753, "tags": {"amenity": "restaurant", "cuisine": "indian"}}, {"type": "node", "id": 4369183794, "lat": 1.328421, "lon": 103.9351558, "tags": {"amenity": "restaurant", "name": "Nakhon Kitchen"}}, {"type": "node", "id": 4369351489, "lat": 1.3285238, "lon": 103.9351361, "tags": {"amenity": "restaurant", "name": "Nangfa Thai Kitchen"}}, {"type": "node", "id": 4449890791, "lat": 1.3468181, "lon": 103.9380215, "tags": {"addr:housenumber": "Blk 801", "addr:postcode": "520801", "addr:street": "Tampines Ave 4", "amenity": "restaurant", "diet:vegetarian": "only", "name": "Zi Zai Vegetarian (Tampines Branch)", "name:en": "Zi Zai Vegetarian (Tampines Branch)"}}, {"type": "node", "id": 4493618264, "lat": 1.4058122, "lon": 103.9569483, "tags": {"amenity": "restaurant"}}, {"type": "node", "id": 4508913289, "lat": 1.3799908, "lon": 103.9368168, "tags": {"amenity": "restaurant", "cuisine": "asian", "name": "Kopitiam Food Court", "name:en": "Kopitiam Food Court", "wheelchair": "yes"}}, {"type": "node", "id": 4522443990, "lat": 1.3907687, "lon": 103.9857712, "tags": {"addr:housenumber": "08/09--02", "addr:postcode": "508502", "addr:street": "Netheravon Road", "amenity": "restaurant", "cuisine": "italian_pizza;italian", "name": "La Cantina in Venezia", "opening_hours": "Tu-Fr 10:00-15:00, 18:00-22:00; Sa-Su 10:00-22:00", "phone": "65469190"}}, {"type": "node", "id": 4543762489, "lat": 1.3925692, "lon": 103.9170473, "tags": {"amenity": "restaurant", "name": "Uncle Leong", "name:en": "Uncle Leong", "wheelchair": "yes"}}, {"type": "node", "id": 4579120933, "lat": 1.3314177, "lon": 103.9090155, "tags": {"addr:city": "Singapore", "addr:housenumber": "Blk 117, #01-72, S470117", "addr:postcode": "470117", "addr:street": "Bedok Reservoir Road", "amenity": "restaurant", "cuisine": "Indian Muslim", "description": "Open 23 hrs daily", "name": "Al Afrida Restaurant", "phone": "89046400 82345543"}}, {"type": "node", "id": 4599779550, "lat": 1.3236064, "lon": 103.922313, "tags": {"addr:city": "Singapore", "addr:country": "SG", "addr:housenumber": "750", "addr:postcode": "469000", "addr:street": "Chai Chee Road", "addr:unit": "#01-30", "amenity": "restaurant", "name": "Astons", "phone": "+65 6636 4465"}}, {"type": "node", "id": 4599779555, "lat": 1.3235229, "lon": 103.9222996, "tags": {"addr:city": "Singapore", "addr:country": "SG", "addr:housenumber": "750", "addr:postcode": "469000", "addr:street": "Chai Chee Road", "addr:unit": "#01-31", "amenity": "restaurant", "name": "Chic A Boo", "phone": "+65 6243 0032", "website": "https://www.astons.com.sg/partners/chic-a-boo/"}}, {"type": "node", "id": 4599779557, "lat": 1.3238125, "lon": 103.9221574, "tags": {"addr:city": "Singapore", "addr:country": "SG", "addr:housenumber": "750", "addr:postcode": "469000", "addr:street": "Chai Chee Road", "amenity": "restaurant", "name": "Pastamania"}}, {"type": "node", "id": 4617376364, "lat": 1.3313804, "lon": 103.9369823, "tags": {"addr:city": "Singapore", "addr:country": "SG", "addr:housenumber": "115", "addr:postcode": "460115", "addr:street": "Bedok North Road", "addr:unit": "#01-285", "amenity": "restaurant", "cuisine": "chinese", "name": "Chin Lee", "phone": "+65 6444 5554", "website": "https://chinlee.com.sg/"}}, {"type": "node", "id": 4654659734, "lat": 1.3904778, "lon": 103.9861148, "tags": {"addr:street": "Changi Village Road", "amenity": "restaurant", "name": "The Wine Company", "source": "Kaart Ground Survey 2017"}}, {"type": "node", "id": 4655131792, "lat": 1.4731952, "lon": 103.9303897, "tags": {"amenity": "restaurant", "name": "Medan Selera Kebayan", "name:en": "Kebayan Food Court", "name:ms": "Medan Selera Kebayan"}}, {"type": "node", "id": 4655138589, "lat": 1.4737415, "lon": 103.930519, "tags": {"amenity": "restaurant", "name": "Anak-Anak Mak Ngah", "name:ms": "Anak-Anak Mak Ngah"}}, {"type": "node", "id": 4655140391, "lat": 1.472229, "lon": 103.9333125, "tags": {"addr:street": "6, Jalan Siakap 10, Taman Pasir Putih, 81700 Pasir Gudang, Johor", "amenity": "restaurant", "name": "Restoran Hamara", "name:en": "Restoran Hamara", "opening_hours": "24/7", "phone": "07-256 4691"}}, {"type": "node", "id": 4658663498, "lat": 1.351262, "lon": 103.933926, "tags": {"addr:street": "Tampines Street 83", "amenity": "restaurant", "name": "Mufiz Restaurant", "source": "Kaart Ground Survey 2017"}}, {"type": "node", "id": 4670075216, "lat": 1.3519905, "lon": 103.9539087, "tags": {"addr:city": "Singapore", "addr:housenumber": "201D", "addr:postcode": "524201", "addr:street": "Tampines Street 21", "amenity": "restaurant", "cuisine": "asian", "name": "Al-Makan", "opening_hours": "24/7", "source": "Kaart Ground Survey 2017;local knowledge"}}, {"type": "node", "id": 4686048195, "lat": 1.3216707, "lon": 103.9133269, "tags": {"amenity": "restaurant", "name": "Kembangan Kedai", "name:en": "Kembangan Kedai"}}, {"type": "node", "id": 4696397691, "lat": 1.3224013, "lon": 103.9138837, "tags": {"amenity": "restaurant", "name": "Raimah Eating House", "name:en": "Raimah Eating House"}}, {"type": "node", "id": 4708953095, "lat": 1.3311723, "lon": 103.9019142, "tags": {"addr:street": "Ubi Avenue 2", "amenity": "restaurant", "name": "Aui Food Centre", "name:ms": "Pusat Makanan Aui", "source": "Kaart Ground Survey 2017"}}, {"type": "node", "id": 4792676603, "lat": 1.4340784, "lon": 103.930598}, {"type": "node", "id": 4792676604, "lat": 1.4340784, "lon": 103.9307949}, {"type": "node", "id": 4792676605, "lat": 1.4343663, "lon": 103.9307949}, {"type": "node", "id": 4792676606, "lat": 1.4343663, "lon": 103.9307187}, {"type": "node", "id": 4792676607, "lat": 1.4342214, "lon": 103.9307187}, {"type": "node", "id": 4792676608, "lat": 1.4342214, "lon": 103.9305981}, {"type": "node", "id": 4838347621, "lat": 1.331824, "lon": 103.9463, "tags": {"addr:housenumber": "430", "addr:postcode": "487048", "addr:street": "Upper Changi Road", "amenity": "restaurant", "diet:vegetarian": "only", "name": "Cundhi Vegetarian", "name:en": "Cundhi Vegetarian", "opening_hours": "Tu-Su 10:00-22:00", "phone": "+65 6386 1088"}}, {"type": "node", "id": 4840498135, "lat": 1.3881644, "lon": 104.1491775, "tags": {"amenity": "restaurant"}}, {"type": "node", "id": 4892096327, "lat": 1.3891455, "lon": 103.9883159, "tags": {"amenity": "restaurant", "name": "Wong Hing Kitchenette (Beef Hor Fun)", "name:zh": "\u9ec3\u8208\u5c0f\u5eda (\u725b\u8089\u6cb3\u7c89)"}}, {"type": "node", "id": 4945682521, "lat": 1.3934169, "lon": 103.9177197, "tags": {"amenity": "restaurant", "diet:halal": "only", "microbrewery": "yes", "name": "Big Fish Small Fish", "name:en": "Big Fish Small Fish", "wheelchair": "yes"}}, {"type": "node", "id": 4992526321, "lat": 1.3546037, "lon": 103.9605367, "tags": {"amenity": "restaurant", "brand": "Pizza Hut", "brand:wikidata": "Q191615", "brand:wikipedia": "en:Pizza Hut", "cuisine": "pizza", "name": "Pizza Hut", "name:en": "Pizza Hut"}}, {"type": "node", "id": 5009560128, "lat": 1.4045914, "lon": 103.9088893, "tags": {"addr:housenumber": "612", "addr:postcode": "823612", "addr:street": "Punggol Drive", "amenity": "restaurant", "name": "Broadway Kopitiam", "opening_hours": "Mo-Su 07:00-22:00"}}, {"type": "node", "id": 5102086222, "lat": 1.3899104, "lon": 103.988655, "tags": {"amenity": "restaurant", "name": "Little Island Brewing Co"}}, {"type": "node", "id": 5179443945, "lat": 1.3526395, "lon": 103.9447878, "tags": {"addr:street": "Tampines Mall, Tampines Central Rd, #02-01", "amenity": "restaurant", "brand": "Din Tai Fung", "brand:en": "Din Tai Fung", "brand:wikidata": "Q699142", "brand:zh": "\u9f0e\u6cf0\u8c50", "cuisine": "taiwanese", "name": "Din Tai Fung", "name:en": "Din Tai Fung", "name:zh": "\u9f0e\u6cf0\u8c50", "name:zh-Hans": "\u9f0e\u6cf0\u4e30", "name:zh-Hant": "\u9f0e\u6cf0\u8c50", "wheelchair": "yes"}}, {"type": "node", "id": 5258047442, "lat": 1.335201, "lon": 103.9638762, "tags": {"amenity": "restaurant", "name": "TUROTURO"}}, {"type": "node", "id": 5272902004, "lat": 1.4031287, "lon": 103.9702159}, {"type": "node", "id": 5280505696, "lat": 1.3918534, "lon": 103.9849295}, {"type": "node", "id": 5280505697, "lat": 1.3918493, "lon": 103.9848785}, {"type": "node", "id": 5326353223, "lat": 1.3883342, "lon": 103.987625, "tags": {"amenity": "restaurant"}}, {"type": "node", "id": 5327507121, "lat": 1.4289998, "lon": 103.9555826, "tags": {"addr:postcode": "81750", "addr:street": "Kampung Telok Kabong, Kampung Pasir Puteh", "amenity": "restaurant", "name": "Teo Orang Asli Family Seafood", "phone": "0177755180"}}, {"type": "node", "id": 5404528423, "lat": 1.4049279, "lon": 103.9078853, "tags": {"amenity": "restaurant"}}, {"type": "node", "id": 5407620147, "lat": 1.3265146, "lon": 103.9107259, "tags": {"amenity": "restaurant", "name": "Uncle David's"}}, {"type": "node", "id": 5535936553, "lat": 1.3314627, "lon": 103.9483651, "tags": {"addr:housenumber": "348, #02-16", "addr:postcode": "469560", "addr:street": "Bedok Road", "amenity": "restaurant", "cuisine": "barbecue;grill;asian", "name": "Burning Oak", "opening_hours": "Sa-Su 12:00-14:00, 18:00-22:00; Tu-Fr 12:00-14:00, 18:00-21:30", "phone": "+6598736093"}}, {"type": "node", "id": 5548117123, "lat": 1.3483239, "lon": 103.9483872, "tags": {"addr:postcode": "521107", "amenity": "restaurant", "name": "Triple 3 Eating House"}}, {"type": "node", "id": 5580467722, "lat": 1.3321195, "lon": 103.9384756, "tags": {"addr:postcode": "460085", "addr:street": "Bedok North Avenue 4", "addr:unit": "#01-09&10", "amenity": "restaurant", "cuisine": "chinese;local", "name": "85 Bedok North Fried Oyster", "name:en": "85 Bedok North Fried Oyster Omelette", "opening_hours": "Mo-Su 11:00-23:00"}}, {"type": "node", "id": 5580486921, "lat": 1.3322402, "lon": 103.9388803, "tags": {"addr:housenumber": "85", "addr:postcode": "460085", "addr:street": "Bedok North Avenue 4", "addr:unit": "#01-23", "amenity": "restaurant", "cuisine": "chinese", "name": "Chai Chee Pork Porridge", "name:en": "Chai Chew Pork Porridge", "opening_hours": "Mo-Su 05:30-15:30, 17:00-03:00"}}, {"type": "node", "id": 5813931526, "lat": 1.3534561, "lon": 103.9408046, "tags": {"amenity": "restaurant", "level": "0", "name": "Blanco Court"}}, {"type": "node", "id": 5816877589, "lat": 1.4065881, "lon": 103.902442, "tags": {"amenity": "restaurant", "name": "Han's", "wheelchair": "yes"}}, {"type": "node", "id": 5816877590, "lat": 1.4064839, "lon": 103.9019081, "tags": {"amenity": "restaurant", "brand": "Swensen's", "brand:wikidata": "Q6640658", "name": "Swensen's"}}, {"type": "node", "id": 5867134471, "lat": 1.3324543, "lon": 103.9137024, "tags": {"addr:city": "Singapore", "addr:housenumber": "632, #01-862", "addr:postcode": "470632", "addr:street": "Bedok Reservoir Road", "amenity": "restaurant", "name": "Mata Thai Restaurant", "takeaway": "yes"}}, {"type": "node", "id": 5867134476, "lat": 1.3319904, "lon": 103.9141905, "tags": {"addr:city": "Singapore", "addr:housenumber": "632", "addr:postcode": "470632", "addr:street": "Bedok Reservoir Road", "amenity": "restaurant", "cuisine": "Muslim_Food", "name": "Al Thohirah Restaurant", "opening_hours": "24/7"}}, {"type": "node", "id": 5867134480, "lat": 1.3323739, "lon": 103.9137185, "tags": {"addr:city": "Singapore", "addr:housenumber": "632", "addr:postcode": "470632", "addr:street": "Bedok Reservoir Road", "amenity": "restaurant", "name": "Kampong Eating House"}}, {"type": "node", "id": 5892251351, "lat": 1.3330859, "lon": 103.9155399, "tags": {"addr:city": "Singapore", "addr:housenumber": "631", "addr:postcode": "470631", "addr:street": "Bedok Reservoir Road", "amenity": "restaurant", "name": "Al-Fazl Restaurant"}}, {"type": "node", "id": 5936189453, "lat": 1.3776682, "lon": 103.9550641, "tags": {"air_conditioning": "yes", "amenity": "restaurant", "brand": "Pizza Hut", "brand:wikidata": "Q191615", "brand:wikipedia": "en:Pizza Hut", "cuisine": "pizza", "level": "0", "name": "Pizza Hut"}}, {"type": "node", "id": 5936189456, "lat": 1.3764756, "lon": 103.9550319, "tags": {"addr:city": "Singapore", "addr:housenumber": "1", "addr:postcode": "519599", "addr:street": "Pasir Ris Close", "amenity": "restaurant", "contact:facebook": "https://www.facebook.com/gakusushibarsg/", "cuisine": "sushi", "level": "1", "name": "Gaku Sushi Bar", "opening_hours": "Mo-Su 11:30-22:30", "phone": "+65 6284 0678", "website": "https://gsb.sukigroup.com.sg/"}}, {"type": "node", "id": 5973973285, "lat": 1.3388956, "lon": 103.9840091, "tags": {"amenity": "restaurant", "name": "International Food Hall", "name:zh": "\u56fd\u9645\u7f8e\u98df\u574a"}}, {"type": "node", "id": 6141723798, "lat": 1.3736865, "lon": 103.9322537, "tags": {"air_conditioning": "yes", "amenity": "restaurant", "cuisine": "swedish", "diet:halal": "yes", "level": "3", "name": "IKEA Restaurant & Caf\u00e9", "opening_hours": "Mo-Th,Su 08:45-22:00; Fr-Sa 09:00-22:30", "operator": "IKEA", "payment:credit_cards": "yes", "payment:debit_cards": "yes", "payment:visa": "yes", "self_service": "yes", "smoking": "no"}}, {"type": "node", "id": 6175818999, "lat": 1.3666275, "lon": 103.9265976, "tags": {"addr:city": "Singapore", "addr:housenumber": "15", "addr:postcode": "529788", "addr:street": "Tampines Avenue", "amenity": "restaurant", "name": "Good Year Coffee Shop"}}, {"type": "node", "id": 6175819000, "lat": 1.3666176, "lon": 103.9265473, "tags": {"addr:city": "Singapore", "addr:housenumber": "15", "addr:postcode": "529788", "addr:street": "Tampines Avenue", "amenity": "restaurant", "name": "Good Year Seafood Village", "opening_hours": "Mo-Su 11:00-22:30"}}, {"type": "node", "id": 6187395556, "lat": 1.3378811, "lon": 103.9220469, "tags": {"addr:city": "Singapore", "addr:housenumber": "742", "addr:postcode": "470742", "addr:street": "Bedok Reservoir Road", "amenity": "restaurant", "cuisine": "indian;western;turkish;local_delights", "name": "Mr. Prata", "opening_hours": "24/7", "start_date": "2012"}}, {"type": "node", "id": 6237348685, "lat": 1.3903284, "lon": 103.9877675}, {"type": "node", "id": 6259519054, "lat": 1.3271778, "lon": 103.934788, "tags": {"amenity": "restaurant", "name": "SPICY THAI-THAI CAFE"}}, {"type": "node", "id": 6260001644, "lat": 1.3589613, "lon": 103.9551285, "tags": {"amenity": "restaurant", "name": "Zalena Food Corner"}}, {"type": "node", "id": 6260056547, "lat": 1.3483046, "lon": 103.9362714, "tags": {"amenity": "restaurant", "name": "Georgetown Coffee House"}}, {"type": "node", "id": 6639589387, "lat": 1.4067318, "lon": 103.902391, "tags": {"amenity": "restaurant", "level": "-1", "name": "Fish & Co."}}, {"type": "node", "id": 6639589392, "lat": 1.4068821, "lon": 103.9027376, "tags": {"amenity": "restaurant", "level": "-1", "name:zh": "\u4e00\u54e5\u8001\u706b\u6c64"}}, {"type": "node", "id": 6639589393, "lat": 1.4070142, "lon": 103.9028523, "tags": {"amenity": "restaurant", "cuisine": "japanese", "level": "0", "name": "Sushiro", "wheelchair": "yes"}}, {"type": "node", "id": 6639589395, "lat": 1.4066937, "lon": 103.9020588, "tags": {"amenity": "restaurant", "brand": "Guzman y Gomez", "brand:wikidata": "Q23019759", "cuisine": "mexican", "level": "-2", "name": "Guzman y Gomez"}}, {"type": "node", "id": 6639589398, "lat": 1.4068169, "lon": 103.9026391, "tags": {"amenity": "restaurant", "cuisine": "seafood", "level": "-1", "name": "Uncle Leong Signatures", "name:zh": "\u9f99\u6d77\u9c9c\u8783\u87f9\u738b"}}, {"type": "node", "id": 6639589408, "lat": 1.4067355, "lon": 103.902795, "tags": {"amenity": "restaurant", "level": "-1", "name": "Kuriya Fish Market", "wheelchair": "yes"}}, {"type": "node", "id": 6639589411, "lat": 1.4067696, "lon": 103.9025368, "tags": {"amenity": "restaurant", "cuisine": "japanese", "level": "-1", "name": "Ichiban Boshi"}}, {"type": "node", "id": 6639589413, "lat": 1.4067345, "lon": 103.9022753, "tags": {"amenity": "restaurant", "brand": "PappaRich", "brand:wikidata": "Q95721282", "cuisine": "malaysian", "level": "-1", "name": "PappaRich", "wheelchair": "yes"}}, {"type": "node", "id": 6639589417, "lat": 1.4069039, "lon": 103.9018333, "tags": {"amenity": "restaurant", "cuisine": "thai", "level": "-1", "name": "Bali Thai", "wheelchair": "no"}}, {"type": "node", "id": 6639589420, "lat": 1.406781, "lon": 103.9026554, "tags": {"amenity": "restaurant", "cuisine": "chinese", "diet:vegetarian": "only", "level": "0", "name": "Green Signature"}}, {"type": "node", "id": 6639589422, "lat": 1.4068154, "lon": 103.9018981, "tags": {"amenity": "restaurant", "cuisine": "japanese", "level": "-1", "name": "Osaka Osho", "wheelchair": "yes"}}, {"type": "node", "id": 6639589436, "lat": 1.4067537, "lon": 103.9025668, "tags": {"amenity": "restaurant", "cuisine": "vietnamese", "level": "0", "name": "So Pho", "wheelchair": "yes"}}, {"type": "node", "id": 6639589438, "lat": 1.4066393, "lon": 103.9021546, "tags": {"amenity": "restaurant", "cuisine": "chinese;noodle", "level": "-2", "name": "Wen Zhang Lao Mian", "name:zh": "\u6587\u7ae0\u635e\u9762"}}, {"type": "node", "id": 6639589441, "lat": 1.4068443, "lon": 103.9027416, "tags": {"amenity": "restaurant", "cuisine": "chinese", "level": "0", "name": "Dian Xiao Er", "name:zh": "\u5e97\u5c0f\u4e8c"}}, {"type": "node", "id": 6639589446, "lat": 1.4066041, "lon": 103.9023545, "tags": {"amenity": "restaurant", "cuisine": "japanese", "level": "-2", "name": "Umi Sushi", "name:fa": "\u06cc\u0648\u0645\u06cc \u0633\u0648\u0634\u06cc", "takeaway": "yes", "wheelchair": "limited"}}, {"type": "node", "id": 6639726948, "lat": 1.406659, "lon": 103.9020891, "tags": {"amenity": "restaurant", "cuisine": "chinese", "level": "0", "name": "Tim Ho Wan", "name:zh": "\u6dfb\u597d\u904b"}}, {"type": "node", "id": 6639726949, "lat": 1.4068163, "lon": 103.9020818, "tags": {"amenity": "restaurant", "level": "1", "name": "Buddy Hoagies", "wheelchair": "yes"}}, {"type": "node", "id": 6639726950, "lat": 1.406408, "lon": 103.9019311, "tags": {"amenity": "restaurant", "cuisine": "japanese", "level": "0", "name": "Hototogisu Ramen"}}, {"type": "node", "id": 6639726958, "lat": 1.4067306, "lon": 103.9021853, "tags": {"amenity": "restaurant", "cuisine": "japanese", "level": "1", "name": "Monster Curry"}}, {"type": "node", "id": 6639726969, "lat": 1.4067288, "lon": 103.9020785, "tags": {"amenity": "restaurant", "cuisine": "japanese", "level": "0", "name": "Yayoi"}}, {"type": "node", "id": 6639726970, "lat": 1.4068639, "lon": 103.9020274, "tags": {"amenity": "restaurant", "brand": "Popeyes", "brand:wikidata": "Q1330910", "brand:wikipedia": "en:Popeyes", "cuisine": "korean;noodle", "level": "1", "name": "Paik's Noodle", "official_name": "Popeyes Louisiana Kitchen", "takeaway": "yes", "wheelchair": "yes"}}, {"type": "node", "id": 6639726973, "lat": 1.4067505, "lon": 103.9020362, "tags": {"amenity": "restaurant", "brand": "Din Tai Fung", "brand:en": "Din Tai Fung", "brand:wikidata": "Q699142", "brand:wikipedia": "en:Din Tai Fung", "brand:zh": "\u9f0e\u6cf0\u8c50", "cuisine": "taiwanese", "level": "0", "name": "Din Tai Fung", "name:en": "Din Tai Fung", "name:zh": "\u9f0e\u6cf0\u8c50", "name:zh-Hans": "\u9f0e\u6cf0\u4e30", "name:zh-Hant": "\u9f0e\u6cf0\u8c50", "wheelchair": "yes"}}, {"type": "node", "id": 6639726979, "lat": 1.4067353, "lon": 103.9021163, "tags": {"amenity": "restaurant", "cuisine": "japanese", "level": "1", "name": "Genki Sushi", "wheelchair": "yes"}}, {"type": "node", "id": 6718652851, "lat": 1.389125, "lon": 103.9779059, "tags": {"addr:housenumber": "200", "addr:street": "Netheravon Road", "air_conditioning": "yes", "amenity": "restaurant", "brewery": "yes", "check_date": "2022-11-20", "cuisine": "breakfast;pizza;brunch", "diet:vegetarian": "yes", "email": "enquiries@thecoastalsettlement.com", "highchair": "no", "internet_access": "wlan", "internet_access:fee": "customers", "name": "The Coastal Settlement", "opening_hours": "Mo-Fr 10:30-23:00; Sa-Su,PH 08:30-23:00", "outdoor_seating": "yes", "payment:cash": "yes", "payment:mastercard": "yes", "payment:nets": "yes", "payment:visa": "yes", "phone": "+65 6475 0200", "reservation": "yes", "website": "https://www.thecoastalsettlement.com/"}}, {"type": "node", "id": 6759014971, "lat": 1.3606245, "lon": 103.989727}, {"type": "node", "id": 6759014972, "lat": 1.3606164, "lon": 103.9897712}, {"type": "node", "id": 6759014973, "lat": 1.3605983, "lon": 103.9898336}, {"type": "node", "id": 6782656485, "lat": 1.359945, "lon": 103.9896698, "tags": {"amenity": "restaurant", "check_date:opening_hours": "2024-04-21", "level": "-1", "name": "Pink Fish", "opening_hours": "Mo-Su 10:00-22:00"}}, {"type": "node", "id": 6873277959, "lat": 1.386519, "lon": 103.9099501}, {"type": "node", "id": 6873277960, "lat": 1.3865012, "lon": 103.9099386}, {"type": "node", "id": 6873277974, "lat": 1.3865941, "lon": 103.9098189}, {"type": "node", "id": 6873277975, "lat": 1.3866068, "lon": 103.9097967}, {"type": "node", "id": 6873277984, "lat": 1.3866214, "lon": 103.9097711}, {"type": "node", "id": 6873277986, "lat": 1.3866715, "lon": 103.9096835}, {"type": "node", "id": 6873277989, "lat": 1.3866997, "lon": 103.9096343}, {"type": "node", "id": 6874352979, "lat": 1.386709, "lon": 103.9096181}, {"type": "node", "id": 6874352980, "lat": 1.3866612, "lon": 103.9095926}, {"type": "node", "id": 6874352981, "lat": 1.3866141, "lon": 103.9095999}, {"type": "node", "id": 6874352982, "lat": 1.3865326, "lon": 103.9097402}, {"type": "node", "id": 6874352983, "lat": 1.3864979, "lon": 103.9097189}, {"type": "node", "id": 6874352984, "lat": 1.3864477, "lon": 103.9097286}, {"type": "node", "id": 6874352985, "lat": 1.3863744, "lon": 103.9098558}, {"type": "node", "id": 6874352986, "lat": 1.386454, "lon": 103.9099012}, {"type": "node", "id": 6874352991, "lat": 1.3864511, "lon": 103.9099062}, {"type": "node", "id": 6874352994, "lat": 1.3865436, "lon": 103.9099071}, {"type": "node", "id": 6944062864, "lat": 1.3598837, "lon": 103.989543}, {"type": "node", "id": 6944062865, "lat": 1.3599011, "lon": 103.9895174}, {"type": "node", "id": 6944062881, "lat": 1.3599182, "lon": 103.9895268}, {"type": "node", "id": 6944270129, "lat": 1.3318338, "lon": 103.9388842, "tags": {"addr:city": "Singapore", "addr:housenumber": "85", "addr:postcode": "460085", "addr:street": "Bedok North Road", "air_conditioning": "no", "amenity": "restaurant", "cuisine": "pork;porridge", "level": "0", "name": "Chai Chee Pork Porridge", "opening_hours": "Mo-Tu 17:00-02:00; Th-Su 17:00-02:00", "takeaway": "yes"}}, {"type": "node", "id": 6956299286, "lat": 1.360562, "lon": 103.9897072, "tags": {"amenity": "restaurant", "level": "4", "name": "Priv\u00e9"}}, {"type": "node", "id": 6956299310, "lat": 1.3604266, "lon": 103.9900241, "tags": {"amenity": "restaurant", "brand": "Burger & Lobster", "brand:wikidata": "Q113547162", "cuisine": "burger;seafood", "level": "4", "name": "Burger & Lobster"}}, {"type": "node", "id": 6956299311, "lat": 1.3604678, "lon": 103.990144, "tags": {"amenity": "restaurant", "level": "4", "name": "Tanuri Raw"}}, {"type": "node", "id": 6956299315, "lat": 1.3599521, "lon": 103.9894879}, {"type": "node", "id": 6959225896, "lat": 1.3598117, "lon": 103.9893191}, {"type": "node", "id": 6959225897, "lat": 1.3598286, "lon": 103.9893318}, {"type": "node", "id": 6959225898, "lat": 1.359782, "lon": 103.9893942}, {"type": "node", "id": 6959225907, "lat": 1.3596572, "lon": 103.9896806}, {"type": "node", "id": 6959225909, "lat": 1.359621, "lon": 103.9897563}, {"type": "node", "id": 6959226392, "lat": 1.3596453, "lon": 103.9900173}, {"type": "node", "id": 6959226393, "lat": 1.3596678, "lon": 103.9901212}, {"type": "node", "id": 6959226394, "lat": 1.3597114, "lon": 103.9902112}, {"type": "node", "id": 6959226396, "lat": 1.359766, "lon": 103.9903183}, {"type": "node", "id": 6959226397, "lat": 1.3597807, "lon": 103.9903835}, {"type": "node", "id": 6959226398, "lat": 1.3598145, "lon": 103.9903974}, {"type": "node", "id": 6959226399, "lat": 1.359805, "lon": 103.9904205}, {"type": "node", "id": 6959226403, "lat": 1.3598571, "lon": 103.9903858}, {"type": "node", "id": 6959226404, "lat": 1.3598048, "lon": 103.9903643}, {"type": "node", "id": 6959226405, "lat": 1.3598008, "lon": 103.9903432}, {"type": "node", "id": 6959226406, "lat": 1.3598212, "lon": 103.9903006}, {"type": "node", "id": 6959226407, "lat": 1.3598299, "lon": 103.9903056}, {"type": "node", "id": 6959226413, "lat": 1.3598702, "lon": 103.9902248}, {"type": "node", "id": 6959226414, "lat": 1.3598615, "lon": 103.9902198}, {"type": "node", "id": 6959226415, "lat": 1.3599395, "lon": 103.990063}, {"type": "node", "id": 6959226419, "lat": 1.3597982, "lon": 103.9898655}, {"type": "node", "id": 6959226420, "lat": 1.3598009, "lon": 103.9898772}, {"type": "node", "id": 6959226433, "lat": 1.35979, "lon": 103.9900815}, {"type": "node", "id": 6959226434, "lat": 1.3597468, "lon": 103.9899899}, {"type": "node", "id": 6959226435, "lat": 1.3597247, "lon": 103.9899179}, {"type": "node", "id": 6959226436, "lat": 1.3597084, "lon": 103.9898109}, {"type": "node", "id": 6959226439, "lat": 1.3597108, "lon": 103.9896996}, {"type": "node", "id": 6959226440, "lat": 1.3597234, "lon": 103.9896351}, {"type": "node", "id": 6959226450, "lat": 1.3600238, "lon": 103.9892669}, {"type": "node", "id": 6959226493, "lat": 1.360334, "lon": 103.9893686}, {"type": "node", "id": 6959226494, "lat": 1.3603421, "lon": 103.9893579}, {"type": "node", "id": 6959226495, "lat": 1.3603283, "lon": 103.9893478}, {"type": "node", "id": 6959226496, "lat": 1.360321, "lon": 103.9893592}, {"type": "node", "id": 6959226587, "lat": 1.3602593, "lon": 103.989319}, {"type": "node", "id": 6959226685, "lat": 1.3603119, "lon": 103.9891714}, {"type": "node", "id": 6959226686, "lat": 1.3603233, "lon": 103.9891728}, {"type": "node", "id": 6959250285, "lat": 1.3596719, "lon": 103.9895989}, {"type": "node", "id": 6959250286, "lat": 1.3596732, "lon": 103.989611}, {"type": "node", "id": 6959250287, "lat": 1.3596571, "lon": 103.9896807}, {"type": "node", "id": 6959250290, "lat": 1.3595693, "lon": 103.9897545}, {"type": "node", "id": 6959250291, "lat": 1.3595693, "lon": 103.9897625}, {"type": "node", "id": 6959250292, "lat": 1.3595371, "lon": 103.9897598}, {"type": "node", "id": 6959250293, "lat": 1.3595358, "lon": 103.9897732}, {"type": "node", "id": 6959250296, "lat": 1.3595981, "lon": 103.9896324}, {"type": "node", "id": 6959250297, "lat": 1.3596585, "lon": 103.9895855}, {"type": "node", "id": 6959250298, "lat": 1.359767, "lon": 103.9892443}, {"type": "node", "id": 6959250299, "lat": 1.3597544, "lon": 103.9892573}, {"type": "node", "id": 6959250685, "lat": 1.3597781, "lon": 103.9892773}, {"type": "node", "id": 6959250686, "lat": 1.3597716, "lon": 103.9892833}, {"type": "node", "id": 6959250687, "lat": 1.3598116, "lon": 103.9893191}, {"type": "node", "id": 6959250688, "lat": 1.3598286, "lon": 103.9893319}, {"type": "node", "id": 6959250785, "lat": 1.3597821, "lon": 103.9893941}, {"type": "node", "id": 6961002295, "lat": 1.359808, "lon": 103.9894863}, {"type": "node", "id": 6961002296, "lat": 1.3598059, "lon": 103.9894641}, {"type": "node", "id": 6961002297, "lat": 1.3599548, "lon": 103.9893112}, {"type": "node", "id": 6961002298, "lat": 1.359991, "lon": 103.9892894}, {"type": "node", "id": 6961002302, "lat": 1.3601498, "lon": 103.9893709}, {"type": "node", "id": 6961002318, "lat": 1.3598535, "lon": 103.9896572}, {"type": "node", "id": 6961002319, "lat": 1.3597295, "lon": 103.9896452}, {"type": "node", "id": 6961002320, "lat": 1.3597242, "lon": 103.9896552}, {"type": "node", "id": 6961002321, "lat": 1.3597094, "lon": 103.9897719}, {"type": "node", "id": 6961002322, "lat": 1.3597376, "lon": 103.9899463}, {"type": "node", "id": 6961002323, "lat": 1.3597537, "lon": 103.9899845}, {"type": "node", "id": 6961002388, "lat": 1.3598468, "lon": 103.9894091}, {"type": "node", "id": 6961002389, "lat": 1.3601535, "lon": 103.9893314}, {"type": "node", "id": 6961002395, "lat": 1.3597436, "lon": 103.9896385}, {"type": "node", "id": 6961002487, "lat": 1.3597141, "lon": 103.9897189}, {"type": "node", "id": 6961002587, "lat": 1.3597255, "lon": 103.989908}, {"type": "node", "id": 6961002685, "lat": 1.3599045, "lon": 103.9893501}, {"type": "node", "id": 6961002688, "lat": 1.3597121, "lon": 103.9898302}, {"type": "node", "id": 6961050994, "lat": 1.3604884, "lon": 103.9898034}, {"type": "node", "id": 6961050995, "lat": 1.3603898, "lon": 103.9897136}, {"type": "node", "id": 6961050996, "lat": 1.3603972, "lon": 103.9896452}, {"type": "node", "id": 6961051009, "lat": 1.3598088, "lon": 103.9898785}, {"type": "node", "id": 6961051011, "lat": 1.3598492, "lon": 103.9898125}, {"type": "node", "id": 6961051021, "lat": 1.3600282, "lon": 103.9893676}, {"type": "node", "id": 6961051022, "lat": 1.3600483, "lon": 103.9894051}, {"type": "node", "id": 6961051023, "lat": 1.3600557, "lon": 103.9894202}, {"type": "node", "id": 6961051024, "lat": 1.3599903, "lon": 103.9894574}, {"type": "node", "id": 6961051025, "lat": 1.3599849, "lon": 103.9894494}, {"type": "node", "id": 6961051026, "lat": 1.3599859, "lon": 103.9894366}, {"type": "node", "id": 6961051090, "lat": 1.3605092, "lon": 103.9897055}, {"type": "node", "id": 6961051091, "lat": 1.3605447, "lon": 103.9898249}, {"type": "node", "id": 6961051092, "lat": 1.3604361, "lon": 103.9897732}, {"type": "node", "id": 6961051093, "lat": 1.3604066, "lon": 103.9897008}, {"type": "node", "id": 6961051103, "lat": 1.3598338, "lon": 103.9899399}, {"type": "node", "id": 6961051104, "lat": 1.3598599, "lon": 103.9898608}, {"type": "node", "id": 6961051117, "lat": 1.3600902, "lon": 103.9893428}, {"type": "node", "id": 6961051118, "lat": 1.3600929, "lon": 103.989388}, {"type": "node", "id": 6961051119, "lat": 1.3599923, "lon": 103.9894433}, {"type": "node", "id": 6961051287, "lat": 1.3604032, "lon": 103.989737}, {"type": "node", "id": 6961051288, "lat": 1.3603979, "lon": 103.989672}, {"type": "node", "id": 6961051292, "lat": 1.3598431, "lon": 103.9897538}, {"type": "node", "id": 6961051303, "lat": 1.3600231, "lon": 103.9894363}, {"type": "node", "id": 6961051304, "lat": 1.3599407, "lon": 103.9894752}, {"type": "node", "id": 6961051387, "lat": 1.3605172, "lon": 103.9896485}, {"type": "node", "id": 6961051388, "lat": 1.3598452, "lon": 103.9897028}, {"type": "node", "id": 6961051391, "lat": 1.3601482, "lon": 103.9893796}, {"type": "node", "id": 6961249907, "lat": 1.3598524, "lon": 103.9905885}, {"type": "node", "id": 6961249911, "lat": 1.3597889, "lon": 103.990556}, {"type": "node", "id": 6961249912, "lat": 1.35973, "lon": 103.9905138}, {"type": "node", "id": 6961249918, "lat": 1.3596796, "lon": 103.9904652}, {"type": "node", "id": 6961250102, "lat": 1.3595352, "lon": 103.9902183}, {"type": "node", "id": 6961398763, "lat": 1.3595169, "lon": 103.9901544}, {"type": "node", "id": 6965920178, "lat": 1.3595038, "lon": 103.9900894}, {"type": "node", "id": 6966019985, "lat": 1.3597087, "lon": 103.9894632}, {"type": "node", "id": 6966019987, "lat": 1.3595885, "lon": 103.9902157}, {"type": "node", "id": 6966019988, "lat": 1.3596674, "lon": 103.990257}, {"type": "node", "id": 6966019989, "lat": 1.359713, "lon": 103.9903298}, {"type": "node", "id": 6966019990, "lat": 1.3597179, "lon": 103.9903785}, {"type": "node", "id": 6966020085, "lat": 1.3596587, "lon": 103.9895858}, {"type": "node", "id": 6966020186, "lat": 1.3596426, "lon": 103.9902336}, {"type": "node", "id": 6966020189, "lat": 1.3597057, "lon": 103.9904272}, {"type": "node", "id": 6966021489, "lat": 1.3601639, "lon": 103.9892147}, {"type": "node", "id": 6966021490, "lat": 1.3600238, "lon": 103.989267}, {"type": "node", "id": 6966021491, "lat": 1.360065, "lon": 103.9893431}, {"type": "node", "id": 6966021492, "lat": 1.3601522, "lon": 103.9893297}, {"type": "node", "id": 6966022187, "lat": 1.3599972, "lon": 103.9890435}, {"type": "node", "id": 6966022188, "lat": 1.3597087, "lon": 103.9894631}, {"type": "node", "id": 6966045986, "lat": 1.3601002, "lon": 103.9892335}, {"type": "node", "id": 6966045987, "lat": 1.3599631, "lon": 103.9893685}, {"type": "node", "id": 6966045989, "lat": 1.3599628, "lon": 103.9893682}, {"type": "node", "id": 6966045991, "lat": 1.359703, "lon": 103.9893863}, {"type": "node", "id": 6966049386, "lat": 1.3602089, "lon": 103.9890087}, {"type": "node", "id": 6966049387, "lat": 1.3601071, "lon": 103.9891012}, {"type": "node", "id": 6966049388, "lat": 1.3601594, "lon": 103.9890811}, {"type": "node", "id": 6966049389, "lat": 1.3599656, "lon": 103.98907}, {"type": "node", "id": 6966049390, "lat": 1.3600151, "lon": 103.9891523}, {"type": "node", "id": 6966049391, "lat": 1.3600216, "lon": 103.989331}, {"type": "node", "id": 6966049392, "lat": 1.3600341, "lon": 103.9893559}, {"type": "node", "id": 6966049393, "lat": 1.3600677, "lon": 103.9893498}, {"type": "node", "id": 6966050385, "lat": 1.3601595, "lon": 103.9889957}, {"type": "node", "id": 6966050386, "lat": 1.3601148, "lon": 103.9889681}, {"type": "node", "id": 6966050485, "lat": 1.3599715, "lon": 103.9890035}, {"type": "node", "id": 6966050486, "lat": 1.3600554, "lon": 103.9891283}, {"type": "node", "id": 6966050487, "lat": 1.3600553, "lon": 103.9891282}, {"type": "node", "id": 6966050585, "lat": 1.360205, "lon": 103.9890676}, {"type": "node", "id": 6966050685, "lat": 1.3599755, "lon": 103.9892938}, {"type": "node", "id": 6966050686, "lat": 1.360106, "lon": 103.989336}, {"type": "node", "id": 6966050687, "lat": 1.3597235, "lon": 103.9894645}, {"type": "node", "id": 6966050688, "lat": 1.3597376, "lon": 103.9894588}, {"type": "node", "id": 6966050785, "lat": 1.3599326, "lon": 103.9893233}, {"type": "node", "id": 6966126786, "lat": 1.3603677, "lon": 103.9893988}, {"type": "node", "id": 6966126787, "lat": 1.3602671, "lon": 103.9893341}, {"type": "node", "id": 6966126788, "lat": 1.3603865, "lon": 103.9891886}, {"type": "node", "id": 6966126801, "lat": 1.3597662, "lon": 103.9898518}, {"type": "node", "id": 6966126802, "lat": 1.3597601, "lon": 103.9898092}, {"type": "node", "id": 6966126803, "lat": 1.3597762, "lon": 103.9898077}, {"type": "node", "id": 6966126804, "lat": 1.3597602, "lon": 103.9897272}, {"type": "node", "id": 6966126805, "lat": 1.3597699, "lon": 103.9896716}, {"type": "node", "id": 6966126806, "lat": 1.3598024, "lon": 103.9896491}, {"type": "node", "id": 6966128085, "lat": 1.3596209, "lon": 103.9897561}, {"type": "node", "id": 6966128091, "lat": 1.3598226, "lon": 103.9905006}, {"type": "node", "id": 6966128092, "lat": 1.3598664, "lon": 103.9903304}, {"type": "node", "id": 6966128185, "lat": 1.3596456, "lon": 103.9897577}, {"type": "node", "id": 6966128187, "lat": 1.3602711, "lon": 103.989323}, {"type": "node", "id": 6966128191, "lat": 1.3599902, "lon": 103.9900932}, {"type": "node", "id": 6966128402, "lat": 1.3597884, "lon": 103.9904425}, {"type": "node", "id": 6966128403, "lat": 1.3598124, "lon": 103.9904518}, {"type": "node", "id": 6966128404, "lat": 1.359806, "lon": 103.9904682}, {"type": "node", "id": 6966128405, "lat": 1.3599287, "lon": 103.9904153}, {"type": "node", "id": 6966128406, "lat": 1.3599482, "lon": 103.9903683}, {"type": "node", "id": 6966128407, "lat": 1.3599143, "lon": 103.9903566}, {"type": "node", "id": 6966128408, "lat": 1.3600652, "lon": 103.9901}, {"type": "node", "id": 6966128409, "lat": 1.3599868, "lon": 103.9902818}, {"type": "node", "id": 6966128410, "lat": 1.3599483, "lon": 103.9900671}, {"type": "node", "id": 6966128411, "lat": 1.3599463, "lon": 103.9900718}, {"type": "node", "id": 6966128412, "lat": 1.3595526, "lon": 103.9900849}, {"type": "node", "id": 6966128486, "lat": 1.3604461, "lon": 103.9892174}, {"type": "node", "id": 6966128497, "lat": 1.3598314, "lon": 103.9904781}, {"type": "node", "id": 6966128498, "lat": 1.3598814, "lon": 103.9905236}, {"type": "node", "id": 6966128499, "lat": 1.3599191, "lon": 103.9902549}, {"type": "node", "id": 6966128500, "lat": 1.3599912, "lon": 103.9900879}, {"type": "node", "id": 6966128501, "lat": 1.3600164, "lon": 103.9900983}, {"type": "node", "id": 6966128502, "lat": 1.3600177, "lon": 103.9900946}, {"type": "node", "id": 6966128503, "lat": 1.3598639, "lon": 103.9899954}, {"type": "node", "id": 6966128504, "lat": 1.3598254, "lon": 103.9899434}, {"type": "node", "id": 6966128505, "lat": 1.3597917, "lon": 103.9898465}, {"type": "node", "id": 6966128506, "lat": 1.3597783, "lon": 103.9897323}, {"type": "node", "id": 6966128507, "lat": 1.3597235, "lon": 103.9896351}, {"type": "node", "id": 6966128508, "lat": 1.3595484, "lon": 103.9900406}, {"type": "node", "id": 6966128588, "lat": 1.3597967, "lon": 103.9896756}, {"type": "node", "id": 6966129585, "lat": 1.359798, "lon": 103.9904178}, {"type": "node", "id": 6966232286, "lat": 1.3602087, "lon": 103.9889987}, {"type": "node", "id": 6966232288, "lat": 1.3595871, "lon": 103.9902131}, {"type": "node", "id": 6966232289, "lat": 1.3596359, "lon": 103.9902358}, {"type": "node", "id": 6966232290, "lat": 1.359666, "lon": 103.9902616}, {"type": "node", "id": 6966232292, "lat": 1.359713, "lon": 103.9903746}, {"type": "node", "id": 6966232293, "lat": 1.3597089, "lon": 103.9904229}, {"type": "node", "id": 6966232299, "lat": 1.3601386, "lon": 103.9902566}, {"type": "node", "id": 6966232386, "lat": 1.3601632, "lon": 103.9889941}, {"type": "node", "id": 6966232387, "lat": 1.3601186, "lon": 103.9889749}, {"type": "node", "id": 6966232388, "lat": 1.3600833, "lon": 103.9889459}, {"type": "node", "id": 6966232389, "lat": 1.3597054, "lon": 103.9903295}, {"type": "node", "id": 6966232390, "lat": 1.3601815, "lon": 103.9902465}, {"type": "node", "id": 6966232485, "lat": 1.3595391, "lon": 103.9902089}, {"type": "node", "id": 6966258598, "lat": 1.3595334, "lon": 103.9896536}, {"type": "node", "id": 6966258600, "lat": 1.3595284, "lon": 103.9901727}, {"type": "node", "id": 6966258601, "lat": 1.3596909, "lon": 103.990467}, {"type": "node", "id": 6966258602, "lat": 1.3597347, "lon": 103.9905095}, {"type": "node", "id": 6966259188, "lat": 1.3600493, "lon": 103.9889628}, {"type": "node", "id": 6966259191, "lat": 1.3595087, "lon": 103.990081}, {"type": "node", "id": 6966259192, "lat": 1.3598555, "lon": 103.9905826}, {"type": "node", "id": 6966259224, "lat": 1.3601572, "lon": 103.9890827}, {"type": "node", "id": 6966259225, "lat": 1.3602034, "lon": 103.9890679}, {"type": "node", "id": 6966259232, "lat": 1.3597728, "lon": 103.9892855}, {"type": "node", "id": 6966259233, "lat": 1.3598286, "lon": 103.9893331}, {"type": "node", "id": 6966259234, "lat": 1.3597792, "lon": 103.9893979}, {"type": "node", "id": 6966259235, "lat": 1.3597371, "lon": 103.9894595}, {"type": "node", "id": 6966259236, "lat": 1.3597078, "lon": 103.9894123}, {"type": "node", "id": 6966259237, "lat": 1.3597005, "lon": 103.9893704}, {"type": "node", "id": 6966259238, "lat": 1.3595376, "lon": 103.9897682}, {"type": "node", "id": 6966259239, "lat": 1.3596224, "lon": 103.9896147}, {"type": "node", "id": 6966259240, "lat": 1.359576, "lon": 103.9896432}, {"type": "node", "id": 6966259241, "lat": 1.3596226, "lon": 103.9897564}, {"type": "node", "id": 6966259251, "lat": 1.3596676, "lon": 103.9901154}, {"type": "node", "id": 6966259252, "lat": 1.3597128, "lon": 103.9902152}, {"type": "node", "id": 6966259253, "lat": 1.359791, "lon": 103.9903156}, {"type": "node", "id": 6966259254, "lat": 1.359851, "lon": 103.9903632}, {"type": "node", "id": 6966259255, "lat": 1.3598393, "lon": 103.9903893}, {"type": "node", "id": 6966259256, "lat": 1.3598115, "lon": 103.9904534}, {"type": "node", "id": 6966259257, "lat": 1.3598308, "lon": 103.9904805}, {"type": "node", "id": 6966259258, "lat": 1.359822, "lon": 103.9905001}, {"type": "node", "id": 6966259281, "lat": 1.3601367, "lon": 103.9902194}, {"type": "node", "id": 6966272986, "lat": 1.3597417, "lon": 103.9892313}, {"type": "node", "id": 6966272987, "lat": 1.3597924, "lon": 103.9905501}, {"type": "node", "id": 6966273015, "lat": 1.3602108, "lon": 103.9890605}, {"type": "node", "id": 6966273018, "lat": 1.3597785, "lon": 103.9892788}, {"type": "node", "id": 6966273019, "lat": 1.3597251, "lon": 103.9894647}, {"type": "node", "id": 6966273020, "lat": 1.3597054, "lon": 103.989462}, {"type": "node", "id": 6966273021, "lat": 1.35954, "lon": 103.9897501}, {"type": "node", "id": 6966273022, "lat": 1.3596459, "lon": 103.9897582}, {"type": "node", "id": 6966273024, "lat": 1.359671, "lon": 103.9895932}, {"type": "node", "id": 6966273025, "lat": 1.3596542, "lon": 103.9895805}, {"type": "node", "id": 6966273026, "lat": 1.3596503, "lon": 103.9900547}, {"type": "node", "id": 6966273027, "lat": 1.3597726, "lon": 103.9903105}, {"type": "node", "id": 6966273028, "lat": 1.3598151, "lon": 103.9903785}, {"type": "node", "id": 6966273029, "lat": 1.3598046, "lon": 103.9904687}, {"type": "node", "id": 6966273030, "lat": 1.3598797, "lon": 103.9905261}, {"type": "node", "id": 6966273031, "lat": 1.3598414, "lon": 103.9903845}, {"type": "node", "id": 6966273052, "lat": 1.359791, "lon": 103.9900841}, {"type": "node", "id": 6966273053, "lat": 1.3598178, "lon": 103.9898018}, {"type": "node", "id": 6966273054, "lat": 1.3597092, "lon": 103.9898106}, {"type": "node", "id": 6966288885, "lat": 1.3596798, "lon": 103.989319}, {"type": "node", "id": 6966288898, "lat": 1.3601166, "lon": 103.9902107}, {"type": "node", "id": 6966288899, "lat": 1.3598862, "lon": 103.9899581}, {"type": "node", "id": 6966289085, "lat": 1.3595114, "lon": 103.9897664}, {"type": "node", "id": 6966289091, "lat": 1.360104, "lon": 103.9891027}, {"type": "node", "id": 6966289093, "lat": 1.3597574, "lon": 103.9892446}, {"type": "node", "id": 6966289094, "lat": 1.3597494, "lon": 103.989254}, {"type": "node", "id": 6966289095, "lat": 1.3596566, "lon": 103.9896837}, {"type": "node", "id": 6966289097, "lat": 1.3595515, "lon": 103.990078}, {"type": "node", "id": 6966289099, "lat": 1.3597865, "lon": 103.9904422}, {"type": "node", "id": 6966289108, "lat": 1.3600972, "lon": 103.990259}, {"type": "node", "id": 6966289110, "lat": 1.359732, "lon": 103.9899447}, {"type": "node", "id": 6966289111, "lat": 1.3598346, "lon": 103.9898743}, {"type": "node", "id": 6966289112, "lat": 1.3599437, "lon": 103.9893161}, {"type": "node", "id": 6966289113, "lat": 1.3600679, "lon": 103.9892463}, {"type": "node", "id": 6966289291, "lat": 1.3598814, "lon": 103.9895381}, {"type": "node", "id": 6966289292, "lat": 1.3600571, "lon": 103.9893838}, {"type": "node", "id": 6966289293, "lat": 1.3600531, "lon": 103.9893697}, {"type": "node", "id": 6966289294, "lat": 1.3600947, "lon": 103.9893556}, {"type": "node", "id": 6966290687, "lat": 1.3598922, "lon": 103.9899648}, {"type": "node", "id": 6966290688, "lat": 1.3597568, "lon": 103.9900178}, {"type": "node", "id": 6966290689, "lat": 1.3597957, "lon": 103.9899252}, {"type": "node", "id": 6966290690, "lat": 1.3597857, "lon": 103.9898904}, {"type": "node", "id": 6966290691, "lat": 1.3598634, "lon": 103.9899346}, {"type": "node", "id": 6966290692, "lat": 1.3598708, "lon": 103.9899286}, {"type": "node", "id": 6966290693, "lat": 1.3598909, "lon": 103.989952}, {"type": "node", "id": 6966290694, "lat": 1.3597166, "lon": 103.989879}, {"type": "node", "id": 6966290696, "lat": 1.3599806, "lon": 103.9894274}, {"type": "node", "id": 6966290697, "lat": 1.3599095, "lon": 103.9893423}, {"type": "node", "id": 6966290698, "lat": 1.3598458, "lon": 103.9894047}, {"type": "node", "id": 6966290699, "lat": 1.3597922, "lon": 103.9894744}, {"type": "node", "id": 6966290700, "lat": 1.359929, "lon": 103.9894724}, {"type": "node", "id": 6966290701, "lat": 1.3600396, "lon": 103.9893912}, {"type": "node", "id": 6966290702, "lat": 1.3599893, "lon": 103.9892873}, {"type": "node", "id": 6966338387, "lat": 1.3598105, "lon": 103.9893176}, {"type": "node", "id": 6966343286, "lat": 1.3596739, "lon": 103.9896073}, {"type": "node", "id": 6966343301, "lat": 1.3608424, "lon": 103.9895037}, {"type": "node", "id": 6966343302, "lat": 1.3608447, "lon": 103.9895358}, {"type": "node", "id": 6966363312, "lat": 1.3608575, "lon": 103.9895358}, {"type": "node", "id": 6966507410, "lat": 1.3607538, "lon": 103.9897055}, {"type": "node", "id": 6966507429, "lat": 1.3607398, "lon": 103.9897097}, {"type": "node", "id": 6966507442, "lat": 1.3604957, "lon": 103.9903508}, {"type": "node", "id": 6966530698, "lat": 1.3606191, "lon": 103.9902358}, {"type": "node", "id": 6966530699, "lat": 1.3608575, "lon": 103.9896153}, {"type": "node", "id": 6966530700, "lat": 1.3608548, "lon": 103.9896619}, {"type": "node", "id": 6966538598, "lat": 1.3605565, "lon": 103.9901594}, {"type": "node", "id": 6966538599, "lat": 1.3604868, "lon": 103.9902251}, {"type": "node", "id": 6966538600, "lat": 1.3604696, "lon": 103.9902449}, {"type": "node", "id": 6966538601, "lat": 1.3604709, "lon": 103.9902643}, {"type": "node", "id": 6966538618, "lat": 1.3607565, "lon": 103.989581}, {"type": "node", "id": 6966538619, "lat": 1.3607458, "lon": 103.9896635}, {"type": "node", "id": 6966538629, "lat": 1.3605839, "lon": 103.9901993}, {"type": "node", "id": 6966538630, "lat": 1.3604867, "lon": 103.9902252}, {"type": "node", "id": 6966538804, "lat": 1.3607652, "lon": 103.9895106}, {"type": "node", "id": 6966538814, "lat": 1.3605021, "lon": 103.9903589}, {"type": "node", "id": 6966538815, "lat": 1.3604713, "lon": 103.9903706}, {"type": "node", "id": 6966538827, "lat": 1.3608592, "lon": 103.9897847}, {"type": "node", "id": 6966538896, "lat": 1.3604227, "lon": 103.9903052}, {"type": "node", "id": 6966538905, "lat": 1.3607699, "lon": 103.9895763}, {"type": "node", "id": 6966538913, "lat": 1.3607978, "lon": 103.9897015}, {"type": "node", "id": 6966538987, "lat": 1.3607478, "lon": 103.9895984}, {"type": "node", "id": 6966538995, "lat": 1.3605621, "lon": 103.9903006}, {"type": "node", "id": 6966539003, "lat": 1.3609298, "lon": 103.989665}, {"type": "node", "id": 6966539987, "lat": 1.3607485, "lon": 103.9896172}, {"type": "node", "id": 6966539998, "lat": 1.3609132, "lon": 103.9897843}, {"type": "node", "id": 6966541118, "lat": 1.3607821, "lon": 103.9897807}, {"type": "node", "id": 6966541119, "lat": 1.3607895, "lon": 103.9897767}, {"type": "node", "id": 6966541120, "lat": 1.3607533, "lon": 103.9896265}, {"type": "node", "id": 6966541121, "lat": 1.3607492, "lon": 103.9896868}, {"type": "node", "id": 6966541188, "lat": 1.3608491, "lon": 103.9897045}, {"type": "node", "id": 6966560110, "lat": 1.3607392, "lon": 103.9897505}, {"type": "node", "id": 6966560111, "lat": 1.3607667, "lon": 103.9897545}, {"type": "node", "id": 6966560112, "lat": 1.3608317, "lon": 103.9896613}, {"type": "node", "id": 6966583289, "lat": 1.360833, "lon": 103.9896244}, {"type": "node", "id": 6967989743, "lat": 1.3607968, "lon": 103.9898001}, {"type": "node", "id": 6968039092, "lat": 1.3600868, "lon": 103.9889371}, {"type": "node", "id": 6968039096, "lat": 1.3597405, "lon": 103.9892215}, {"type": "node", "id": 6968039097, "lat": 1.359672, "lon": 103.9893215}, {"type": "node", "id": 6968039100, "lat": 1.3595291, "lon": 103.9896532}, {"type": "node", "id": 6968039101, "lat": 1.3595051, "lon": 103.9897692}, {"type": "node", "id": 6968143209, "lat": 1.3602514, "lon": 103.9892833}, {"type": "node", "id": 6968143211, "lat": 1.3599923, "lon": 103.9893005}, {"type": "node", "id": 6968143212, "lat": 1.3599688, "lon": 103.9893582}, {"type": "node", "id": 6968143213, "lat": 1.3600529, "lon": 103.9893919}, {"type": "node", "id": 6968143310, "lat": 1.3601484, "lon": 103.9895716}, {"type": "node", "id": 6968143324, "lat": 1.3601912, "lon": 103.9894067}, {"type": "node", "id": 6968143325, "lat": 1.3602625, "lon": 103.9893601}, {"type": "node", "id": 6968143326, "lat": 1.3601914, "lon": 103.9894865}, {"type": "node", "id": 6968143445, "lat": 1.3602262, "lon": 103.989344}, {"type": "node", "id": 6968143447, "lat": 1.3601538, "lon": 103.9894702}, {"type": "node", "id": 6968143449, "lat": 1.3601376, "lon": 103.9895063}, {"type": "node", "id": 6968143450, "lat": 1.3601295, "lon": 103.9895023}, {"type": "node", "id": 6968143451, "lat": 1.3602475, "lon": 103.9893941}, {"type": "node", "id": 6968143452, "lat": 1.3602114, "lon": 103.9893781}, {"type": "node", "id": 6968143455, "lat": 1.3602146, "lon": 103.9894559}, {"type": "node", "id": 6968143456, "lat": 1.3601628, "lon": 103.9895172}, {"type": "node", "id": 6968143518, "lat": 1.3601488, "lon": 103.9895483}, {"type": "node", "id": 6968143718, "lat": 1.3601686, "lon": 103.9894363}, {"type": "node", "id": 6968143721, "lat": 1.3602339, "lon": 103.9894248}, {"type": "node", "id": 6968144193, "lat": 1.3601174, "lon": 103.989375}, {"type": "node", "id": 6968144194, "lat": 1.3601093, "lon": 103.989571}, {"type": "node", "id": 6968144294, "lat": 1.3602906, "lon": 103.9892994}, {"type": "node", "id": 6968144295, "lat": 1.3600766, "lon": 103.9893364}, {"type": "node", "id": 6968144302, "lat": 1.3601979, "lon": 103.9894098}, {"type": "node", "id": 6968144305, "lat": 1.3601096, "lon": 103.9895483}, {"type": "node", "id": 6968144306, "lat": 1.3602284, "lon": 103.9894224}, {"type": "node", "id": 6968144307, "lat": 1.3601769, "lon": 103.98944}, {"type": "node", "id": 6968144309, "lat": 1.3601761, "lon": 103.989523}, {"type": "node", "id": 6968144486, "lat": 1.3601458, "lon": 103.9893092}, {"type": "node", "id": 6968149584, "lat": 1.3602376, "lon": 103.9893171}, {"type": "node", "id": 6968157985, "lat": 1.3602768, "lon": 103.989333}, {"type": "node", "id": 6968157991, "lat": 1.3602061, "lon": 103.9894526}, {"type": "node", "id": 6968185508, "lat": 1.3599591, "lon": 103.989534, "tags": {"amenity": "restaurant", "level": "-2", "name": "Thye Moh Chan"}}, {"type": "node", "id": 6968694486, "lat": 1.3601782, "lon": 103.9902356}, {"type": "node", "id": 6972809688, "lat": 1.3617291, "lon": 103.9900775}, {"type": "node", "id": 6972809690, "lat": 1.3620914, "lon": 103.9903649}, {"type": "node", "id": 6972809691, "lat": 1.3620264, "lon": 103.990518}, {"type": "node", "id": 6972809692, "lat": 1.3618767, "lon": 103.9904545}, {"type": "node", "id": 6972817991, "lat": 1.3616373, "lon": 103.9902894}, {"type": "node", "id": 6972817992, "lat": 1.3615014, "lon": 103.9906092}, {"type": "node", "id": 6972818095, "lat": 1.3614271, "lon": 103.9905773}, {"type": "node", "id": 6972818097, "lat": 1.3618765, "lon": 103.9904543}, {"type": "node", "id": 6972818893, "lat": 1.3615629, "lon": 103.9902571}, {"type": "node", "id": 6972818894, "lat": 1.3615928, "lon": 103.9903965}, {"type": "node", "id": 6972818895, "lat": 1.3619415, "lon": 103.9903012}, {"type": "node", "id": 6972818896, "lat": 1.3620262, "lon": 103.9905182}, {"type": "node", "id": 6972819585, "lat": 1.3616547, "lon": 103.9900452}, {"type": "node", "id": 6972819586, "lat": 1.3615185, "lon": 103.9903645}, {"type": "node", "id": 6972819587, "lat": 1.3618117, "lon": 103.9906067}, {"type": "node", "id": 6972819588, "lat": 1.3619612, "lon": 103.9906704}, {"type": "node", "id": 6972935395, "lat": 1.3620483, "lon": 103.991284}, {"type": "node", "id": 6972935397, "lat": 1.3622811, "lon": 103.9912677}, {"type": "node", "id": 6972935398, "lat": 1.3621207, "lon": 103.9913451}, {"type": "node", "id": 6972935402, "lat": 1.3620712, "lon": 103.9906999}, {"type": "node", "id": 6972935403, "lat": 1.3619955, "lon": 103.9908783}, {"type": "node", "id": 6972937794, "lat": 1.3621414, "lon": 103.991266}, {"type": "node", "id": 6972937795, "lat": 1.3621904, "lon": 103.9912498}, {"type": "node", "id": 6972937796, "lat": 1.3621974, "lon": 103.9912319}, {"type": "node", "id": 6972937797, "lat": 1.3620456, "lon": 103.9912904}, {"type": "node", "id": 6972937800, "lat": 1.3622636, "lon": 103.9907817}, {"type": "node", "id": 6972974888, "lat": 1.3621293, "lon": 103.9913249}, {"type": "node", "id": 6972974991, "lat": 1.3622283, "lon": 103.9913912}, {"type": "node", "id": 6972975187, "lat": 1.3621183, "lon": 103.9913202}, {"type": "node", "id": 6972975188, "lat": 1.3620678, "lon": 103.9912369}, {"type": "node", "id": 6972975286, "lat": 1.3621879, "lon": 103.9909601}, {"type": "node", "id": 6973215197, "lat": 1.3620568, "lon": 103.9912634, "tags": {"highway": "elevator", "level": "2"}}, {"type": "node", "id": 7016678813, "lat": 1.3368673, "lon": 103.9204745, "tags": {"addr:city": "Singapore", "addr:housenumber": "704", "addr:postcode": "470704", "addr:street": "Bedok Reservoir Road", "amenity": "restaurant", "cuisine": "coffee_shop;Prawn_Noodle", "name": "58 Prawn Noodle", "opening_hours": "Tu-Su 06:00-14:30; Mo off"}}, {"type": "node", "id": 7121379185, "lat": 1.3296576, "lon": 103.9183325, "tags": {"amenity": "restaurant", "name": "Broadway"}}, {"type": "node", "id": 7157500929, "lat": 1.3728842, "lon": 104.2029302, "tags": {"amenity": "restaurant", "cuisine": "seafood", "name": "Super Lobster Village", "name:zh": "\u9f8d\u7687\u6d77\u9c9c\u6751", "opening_hours": "Mo-Su 11:00-22:00", "phone": "+60 16 790 8528", "website": "https://super-lobster-village.business.site/"}}, {"type": "node", "id": 7168937386, "lat": 1.4737034, "lon": 103.9309839, "tags": {"amenity": "restaurant", "cuisine": "chinese", "name": "Restoran Xin Long", "name:zh": "\u946b\u9f99\u7f8e\u98df\u9601"}}, {"type": "node", "id": 7196777008, "lat": 1.3270478, "lon": 103.9188583, "tags": {"amenity": "restaurant", "name": "Khan Saab Restaurant"}}, {"type": "node", "id": 7202567685, "lat": 1.3258831, "lon": 103.9301943, "tags": {"amenity": "restaurant", "name": "Happy Hawker", "wheelchair": "yes"}}, {"type": "node", "id": 7205437809, "lat": 1.3934712, "lon": 103.9178026, "tags": {"addr:city": "Singapore", "addr:housenumber": "50", "addr:postcode": "828824", "addr:street": "Punggol East", "amenity": "restaurant", "brewery": "yes", "min_age": "18", "name": "Miami Bistro", "wheelchair": "yes"}}, {"type": "node", "id": 7283590410, "lat": 1.3333815, "lon": 103.9569064, "tags": {"addr:city": "Singapore", "addr:country": "SG", "addr:housename": "Singapore Expo", "addr:housenumber": "1", "addr:postcode": "486150", "addr:street": "Expo Drive", "addr:unit": "#02-03", "amenity": "restaurant", "cuisine": "chinese", "fax": "+65 67890012", "name": "Bliss Garden Restaurant", "name:en": "Bliss Garden Restaurant", "name:zh": "\u798f\u6ee1\u697c", "phone": "+65 67891313", "website": "https://www.qianxi.com.sg/"}}, {"type": "node", "id": 7457571847, "lat": 1.331644, "lon": 103.9248335, "tags": {"amenity": "restaurant", "brand": "Pizza Hut", "brand:wikidata": "Q191615", "brand:wikipedia": "en:Pizza Hut", "cuisine": "pizza", "delivery": "yes", "level": "1", "name": "Pizza Hut", "takeaway": "only"}}, {"type": "node", "id": 7457571848, "lat": 1.3248588, "lon": 103.929949, "tags": {"amenity": "restaurant", "brand": "Pizza Hut", "brand:wikidata": "Q191615", "brand:wikipedia": "en:Pizza Hut", "cuisine": "pizza", "level": "-2", "name": "Pizza Hut"}}, {"type": "node", "id": 7457571850, "lat": 1.353439, "lon": 103.9405579, "tags": {"amenity": "restaurant", "brand": "Pizza Hut", "brand:wikidata": "Q191615", "brand:wikipedia": "en:Pizza Hut", "cuisine": "pizza", "level": "0", "name": "Pizza Hut"}}, {"type": "node", "id": 7457571858, "lat": 1.4069494, "lon": 103.9017697, "tags": {"amenity": "restaurant", "brand": "Pizza Hut", "brand:wikidata": "Q191615", "brand:wikipedia": "en:Pizza Hut", "cuisine": "pizza", "level": "-1", "name": "Pizza Hut", "wheelchair": "yes"}}, {"type": "node", "id": 7616898176, "lat": 1.3253423, "lon": 103.9298766, "tags": {"amenity": "restaurant", "level": "2", "name": "Nene Chicken"}}, {"type": "node", "id": 7616898177, "lat": 1.3245564, "lon": 103.9291512, "tags": {"amenity": "restaurant", "name": "Yole"}}, {"type": "node", "id": 7616898179, "lat": 1.3244203, "lon": 103.9288988, "tags": {"amenity": "restaurant", "cuisine": "pizza", "name": "Pezzo"}}, {"type": "node", "id": 7616898183, "lat": 1.3246969, "lon": 103.9299864, "tags": {"amenity": "restaurant", "cuisine": "chinese;noodle", "level": "-2", "name": "LeNu Chef Wai's Noodle Bar"}}, {"type": "node", "id": 7616898184, "lat": 1.3245951, "lon": 103.9289788, "tags": {"amenity": "restaurant", "level": "-2", "name": "Hong Kong Sheng Kee Dessert", "name:zh": "\u9999\u6e2f\u76db\u8bb0\u751c\u54c1"}}, {"type": "node", "id": 7616935685, "lat": 1.3251042, "lon": 103.9296843, "tags": {"amenity": "restaurant", "level": "1", "name": "Dian Xiao Er", "name:zh": "\u5e97\u5c0f\u4e8c"}}, {"type": "node", "id": 7616935686, "lat": 1.3245002, "lon": 103.928747, "tags": {"amenity": "restaurant", "brand": "Haidilao Hot Pot", "brand:en": "Haidilao Hot Pot", "brand:wikidata": "Q5638920", "brand:zh": "\u6d77\u5e95\u635e\u706b\u9505", "cuisine": "chinese;hotpot", "level": "1", "name": "Haidilao Hot Pot", "name:en": "Haidilao Hot Pot", "name:zh": "\u6d77\u5e95\u635e\u706b\u9505", "phone": "+65 63853343 / 63853433", "website": "https://www.haidilao.com/"}}, {"type": "node", "id": 7616935689, "lat": 1.3245241, "lon": 103.9298878, "tags": {"amenity": "restaurant", "level": "1", "name": "Blackball"}}, {"type": "node", "id": 7616935690, "lat": 1.3246675, "lon": 103.9299682, "tags": {"amenity": "restaurant", "level": "-2", "name": "Canton Paradise"}}, {"type": "node", "id": 7616935691, "lat": 1.3247266, "lon": 103.9299795, "tags": {"amenity": "restaurant", "level": "-1", "name": "So Ramen"}}, {"type": "node", "id": 7616935692, "lat": 1.3248483, "lon": 103.9297111, "tags": {"amenity": "restaurant", "name": "Seoul Garden Hot Pot"}}, {"type": "node", "id": 7616935693, "lat": 1.324967, "lon": 103.9298569, "tags": {"amenity": "restaurant", "level": "-1", "name": "Encik Tan"}}, {"type": "node", "id": 7616935700, "lat": 1.3253556, "lon": 103.9297311, "tags": {"amenity": "restaurant", "level": "1", "name": "Streats Hong Kong Cafe"}}, {"type": "node", "id": 7616935703, "lat": 1.3251457, "lon": 103.9296747, "tags": {"amenity": "restaurant", "cuisine": "japanese;noodle", "level": "1", "name": "Ajisen Ramen"}}, {"type": "node", "id": 7616935715, "lat": 1.3252947, "lon": 103.9298481, "tags": {"amenity": "restaurant", "level": "1", "name": "Swensen's", "wheelchair": "yes"}}, {"type": "node", "id": 7763485185, "lat": 1.3243836, "lon": 103.9286428, "tags": {"amenity": "restaurant", "name": "Warong Gemuk 18"}}, {"type": "node", "id": 7828481331, "lat": 1.3820941, "lon": 103.9478979, "tags": {"addr:city": "Singapore", "addr:housenumber": "201", "addr:postcode": "519147", "addr:street": "Pasir Ris Road", "air_conditioning": "yes", "amenity": "restaurant", "cuisine": "international;fish", "diet:halal": "yes", "email": "rasaistimewapasirris@gmail.com", "name": "Rasa Istimewa", "opening_hours": "Su-Fr 12:00-23:00; Sa 12:00-24:00", "phone": "+65 63869339", "source": "local knowledge", "website": "http://www.rasaistimewa.com.sg/", "wheelchair": "yes"}}, {"type": "node", "id": 7968049743, "lat": 1.3793158, "lon": 103.9483159}, {"type": "node", "id": 7968049744, "lat": 1.37929, "lon": 103.9484191}, {"type": "node", "id": 7968049745, "lat": 1.3791075, "lon": 103.9483735}, {"type": "node", "id": 7968049746, "lat": 1.3791332, "lon": 103.9482703}, {"type": "node", "id": 8150734034, "lat": 1.3392414, "lon": 103.9121039, "tags": {"addr:city": "Singapore", "addr:housenumber": "11", "addr:postcode": "417806", "addr:street": "Kaki Bukit Road 4", "amenity": "restaurant", "cuisine": "coffee_shop", "diet:halal": "yes", "name": "Makan Empire", "opening_hours": "Daily 7am - 2am"}}, {"type": "node", "id": 8178978451, "lat": 1.33295, "lon": 103.9147837, "tags": {"addr:city": "Singapore", "addr:housenumber": "631 #01-928", "addr:postcode": "470631", "addr:street": "Bedok Reservoir Road", "amenity": "restaurant", "cuisine": "indian_muslim;thai_seafood;western", "diet:halal": "yes", "name": "Al Mubin Restaurant", "opening_hours": "Open 24 hrs daily"}}, {"type": "node", "id": 8208583194, "lat": 1.346886, "lon": 103.9289065, "tags": {"amenity": "restaurant", "name": "The Top Table"}}, {"type": "node", "id": 8257853419, "lat": 1.3562824, "lon": 103.9863733, "tags": {"addr:city": "Singapore", "addr:country": "SG", "addr:housenumber": "65", "addr:postcode": "819663", "addr:street": "Airport Blvd", "addr:unit": "#03-32", "air_conditioning": "yes", "amenity": "restaurant", "branch": "Changi Airport T3", "cuisine": "chinese", "name": "Paradise Dynasty", "name:en": "Paradise Dynasty", "name:zh": "\u6a02\u5929\u7687\u671d", "opening_hours": "Mo-Fr 11:00-22:00; Sa-Su,PH 10:30-22:00", "phone": "+65 6242 4372", "website": "https://www.paradisegp.com/brand-paradise-dynasty/"}}, {"type": "node", "id": 8423125757, "lat": 1.3576152, "lon": 103.9871316, "tags": {"addr:city": "Singapore", "addr:housenumber": "65", "addr:postcode": "819663", "addr:street": "Airport Boulevard", "addr:unit": "#B2-49", "air_conditioning": "yes", "amenity": "restaurant", "branch": "Changi Airport T3", "brand": "Le Shrimp Ramen", "cuisine": "chinese;japanese", "level": "-2", "name": "Le Shrimp Ramen", "name:en": "Le Shrimp Ramen", "name:zh": "\u6a02\u867e\u62c9\u9762\u5bb6", "opening_hours": "Mo-Fr 11:00-22:00; Sa-Su,PH 10:30-22:00", "reservation": "no", "website": "https://www.paradisegp.com/"}}, {"type": "node", "id": 8423125758, "lat": 1.3577389, "lon": 103.987165, "tags": {"addr:city": "Singapore", "addr:housenumber": "65", "addr:postcode": "819663", "addr:street": "Airport Boulevard", "addr:unit": "#B2-49", "air_conditioning": "yes", "amenity": "restaurant", "branch": "Changi Airport T3", "brand": "Canton Paradise", "cuisine": "hong_kong", "delivery": "yes", "level": "-2", "name": "Canton Paradise", "name:en": "Canton Paradise", "name:zh": "\u6a02\u5929\u5c0f\u9999\u6e2f", "opening_hours": "Mo-Fr 11:00-22:00; Sa-Su,PH 10:30-22:00", "takeaway": "yes", "website": "https://www.paradisegp.com/"}}, {"type": "node", "id": 8423125760, "lat": 1.3566135, "lon": 103.987105, "tags": {"addr:city": "Singapore", "addr:housenumber": "65", "addr:postcode": "819663", "addr:street": "Airport Boulevard", "addr:unit": "#B2-31/32", "air_conditioning": "yes", "amenity": "restaurant", "branch": "Changi Airport Terminal 3", "brand": "Swensen's", "brand:wikidata": "Q6640658", "brand:wikipedia": "en:Swensen's", "diet:halal": "yes", "level": "-2", "name": "Swensen's", "opening_hours": "Mo-Su 11:30-22:30", "phone": "+65 6242 3669", "takeaway": "yes", "website": "https://www.swensens.com.sg/"}}, {"type": "node", "id": 8424079571, "lat": 1.3562995, "lon": 103.9865674, "tags": {"addr:city": "Singapore", "addr:housenumber": "65", "addr:postcode": "819663", "addr:street": "Airport Boulevard", "addr:unit": "#03-42/43", "air_conditioning": "yes", "amenity": "restaurant", "branch": "Changi Airport Terminal 3", "cuisine": "chinese", "level": "2", "name": "A-One", "opening_hours": "Mo-Su 10:30-22:00", "phone": "+65 6283 0905", "website": "https://aonegroup.sg/"}}, {"type": "node", "id": 8430485178, "lat": 1.3920289, "lon": 103.9047309, "tags": {"amenity": "restaurant", "brand": "Saizeriya", "brand:en": "Saizeriya", "brand:it": "Saizeriya", "brand:ja": "\u30b5\u30a4\u30bc\u30ea\u30e4", "brand:wikidata": "Q886564", "brand:zh": "\u85a9\u8389\u4e9e", "cuisine": "italian", "level": "1", "name": "Saizeriya", "name:en": "Saizeriya", "name:it": "Saizeriya", "name:ja": "\u30b5\u30a4\u30bc\u30ea\u30e4", "name:zh": "\u8428\u8389\u4e9a", "wheelchair": "yes"}}, {"type": "node", "id": 8430485182, "lat": 1.3922605, "lon": 103.9045713, "tags": {"amenity": "restaurant", "level": "0", "name": "The Soup Spoon Union", "wheelchair": "yes"}}, {"type": "node", "id": 8430485189, "lat": 1.3918945, "lon": 103.9048268, "tags": {"amenity": "restaurant", "level": "0", "name": "A One Signature"}}, {"type": "node", "id": 8448237310, "lat": 1.3858183, "lon": 103.9017437, "tags": {"amenity": "restaurant", "level": "0", "name": "Ban Li Heng", "name:zh": "\u4e07\u5229\u5174", "self_service": "yes", "takeaway": "yes"}}, {"type": "node", "id": 8448237313, "lat": 1.3855873, "lon": 103.902409, "tags": {"amenity": "restaurant", "level": "0", "name": "Boat Noodle Express", "self_service": "yes"}}, {"type": "node", "id": 8448240731, "lat": 1.385724, "lon": 103.9017106, "tags": {"amenity": "restaurant", "level": "0", "name": "CHUMPO2 Indonesian Padang"}}, {"type": "node", "id": 8448240735, "lat": 1.3857138, "lon": 103.9020806, "tags": {"amenity": "restaurant", "level": "0", "name": "Tenderfresh - 118 Rivervale Drive", "name:zh": "\u53ef\u7231\u9e21", "operator": "Tenderfresh", "takeaway": "yes"}}, {"type": "node", "id": 8474547238, "lat": 1.3940162, "lon": 103.9132056, "tags": {"amenity": "restaurant", "level": "-1", "name": "Min Xiang Ge", "name:zh": "\u95fd\u9999\u9601"}}, {"type": "node", "id": 8566305131, "lat": 1.4027765, "lon": 103.9136196, "tags": {"amenity": "restaurant", "level": "1", "name": "Tampopo"}}, {"type": "node", "id": 8566305132, "lat": 1.4029829, "lon": 103.9131376, "tags": {"amenity": "restaurant", "cuisine": "korean", "level": "0", "name": "Chik Soo", "wheelchair": "yes"}}, {"type": "node", "id": 8566305141, "lat": 1.4028178, "lon": 103.913652, "tags": {"amenity": "restaurant", "brand": "Saizeriya", "brand:en": "Saizeriya", "brand:it": "Saizeriya", "brand:ja": "\u30b5\u30a4\u30bc\u30ea\u30e4", "brand:wikidata": "Q886564", "brand:zh": "\u85a9\u8389\u4e9e", "cuisine": "italian", "level": "2", "name": "Saizeriya", "name:en": "Saizeriya", "name:it": "Saizeriya", "name:ja": "\u30b5\u30a4\u30bc\u30ea\u30e4", "name:zh": "\u85a9\u8389\u4e9e"}}, {"type": "node", "id": 8639399920, "lat": 1.3901864, "lon": 103.9090298, "tags": {"addr:housenumber": "182A", "addr:street": "Rivervale Crescent", "amenity": "restaurant", "cuisine": "indonesian", "name": "Nasi Padang Indonesia Bandung"}}, {"type": "node", "id": 8658614279, "lat": 1.3733978, "lon": 103.9494502, "tags": {"amenity": "restaurant", "level": "0", "name": "Sichuan Chef", "name:zh": "\u56db\u5ddd\u53a8\u5b50", "takeaway": "yes"}}, {"type": "node", "id": 8658652636, "lat": 1.3723461, "lon": 103.9499269, "tags": {"addr:city": "Singapore", "addr:housenumber": "1", "addr:postcode": "518457", "addr:street": "Pasir Ris Central Street 3", "air_conditioning": "yes", "amenity": "restaurant", "brand": "Sushi Express", "brand:wikidata": "Q15920674", "cuisine": "sushi", "fax": "+65 65850984", "level": "2", "name": "Sushi Express", "opening_hours": "Mo-Su 11:00-21:30", "phone": "+65 65850978", "reservation": "no", "takeaway": "yes", "website": "https://www.sushiexpress.com.sg/home"}}, {"type": "node", "id": 8658809931, "lat": 1.3723914, "lon": 103.9493384, "tags": {"addr:city": "Singapore", "addr:housenumber": "1", "addr:postcode": "518457", "addr:street": "Pasir Ris Central Street 3", "air_conditioning": "yes", "amenity": "restaurant", "brand": "Saizeriya", "brand:en": "Saizeriya", "brand:it": "Saizeriya", "brand:ja": "\u30b5\u30a4\u30bc\u30ea\u30e4", "brand:wikidata": "Q886564", "brand:zh": "\u85a9\u8389\u4e9e", "cuisine": "italian", "delivery": "yes", "fax": "63854245", "level": "2", "name": "Saizeriya", "name:en": "Saizeriya", "name:it": "Saizeriya", "name:ja": "\u30b5\u30a4\u30bc\u30ea\u30e4", "name:zh": "\u85a9\u8389\u4e9e", "opening_hours": "Mo-Su 11:00-22:00", "phone": "+6563854234", "takeaway": "yes", "website": "https://www.saizeriya.com.sg/"}}, {"type": "node", "id": 8658867043, "lat": 1.3723813, "lon": 103.9493433, "tags": {"addr:city": "Singapore", "addr:housenumber": "1", "addr:postcode": "518457", "addr:street": "Pasir Ris Central Street 3", "air_conditioning": "yes", "amenity": "restaurant", "cuisine": "japanese", "diet:halal": "yes", "email": "yakinikuok22@gmail.com", "level": "1", "name": "Yakiniku OK!", "opening_hours": "Mo-Su 11:00-22:00", "phone": "+6568449003", "website": "https://www.facebook.com/yakinikuok/"}}, {"type": "node", "id": 8658867063, "lat": 1.3722561, "lon": 103.9498927, "tags": {"addr:city": "Singapore", "addr:housenumber": "1", "addr:postcode": "518457", "addr:street": "Pasir Ris Central Street 3", "amenity": "restaurant", "cuisine": "asian", "diet:halal": "yes", "level": "-1", "name": "Qi Ji", "opening_hours": "Mo-Su 08:00-22:00", "takeaway": "yes", "website": "https://www.qiji.com.sg/"}}, {"type": "node", "id": 8658867064, "lat": 1.3723198, "lon": 103.9498828, "tags": {"addr:city": "Singapore", "addr:housenumber": "1", "addr:postcode": "518457", "addr:street": "Pasir Ris Central Street 3", "air_conditioning": "yes", "amenity": "restaurant", "cuisine": "japanese", "delivery": "yes", "level": "-1", "name": "Men Men Don Don", "name:ja": "\u9eba\u9eba\u4e3c\u4e3c", "opening_hours": "Mo-Su 11:00-21:30", "phone": "+65 65834048", "takeaway": "yes", "website": "http://mmdd.com.sg/"}}, {"type": "node", "id": 8658867065, "lat": 1.3724528, "lon": 103.9499947, "tags": {"addr:city": "Singapore", "addr:housenumber": "1", "addr:postcode": "518457", "addr:street": "Pasir Ris Central Street 3", "amenity": "restaurant", "level": "1", "name": "The Soup Spoon Union"}}, {"type": "node", "id": 8658867069, "lat": 1.3722862, "lon": 103.9497739, "tags": {"addr:city": "Singapore", "addr:housenumber": "1", "addr:postcode": "518457", "addr:street": "Pasir Ris Central Street 3", "air_conditioning": "yes", "amenity": "restaurant", "cuisine": "japanese", "diet:halal": "yes", "level": "1", "name": "Edo Shokudo", "name:ja": "\u6c5f\u6238\u98df\u5802", "opening_hours": "Mo-Su 11:30-21:30", "outdoor_seating": "no", "phone": "+6562140486"}}, {"type": "node", "id": 8658867071, "lat": 1.3722356, "lon": 103.949851, "tags": {"addr:city": "Singapore", "addr:housenumber": "1", "addr:postcode": "518457", "addr:street": "Pasir Ris Central Street 3", "air_conditioning": "yes", "amenity": "restaurant", "contact:facebook": "https://www.facebook.com/xinwanghkcafe/", "cuisine": "chinese", "delivery": "yes", "level": "1", "name": "Xin Wang Hong Kong Caf\u00e9", "name:zh": "\u65b0\u65fa\u9999\u6e2f\u8336\u9910\u5385", "opening_hours": "Mo-Fr,PH -1 day 11:00-22:00; Sa-Su,PH 10:00-22:00", "phone": "+65 6585 0756", "takeaway": "yes", "website": "https://www.xinwang.com.sg/"}}, {"type": "node", "id": 8658867073, "lat": 1.3722653, "lon": 103.949745, "tags": {"addr:city": "Singapore", "addr:housenumber": "1", "addr:postcode": "518457", "addr:street": "Pasir Ris Central Street 3", "amenity": "restaurant", "cuisine": "chinese", "level": "-1", "name": "85 Redhill"}}, {"type": "node", "id": 8796784617, "lat": 1.3274933, "lon": 103.9184948, "tags": {"amenity": "restaurant", "name": "Red Lantern Seafood", "name:zh": "\u7ea2\u706f\u7b3c"}}, {"type": "node", "id": 8829282617, "lat": 1.3250334, "lon": 103.9411451, "tags": {"addr:postcode": "461056", "amenity": "restaurant", "name": "Kopi Kia Hawker Center"}}, {"type": "node", "id": 8914120117, "lat": 1.3485418, "lon": 103.93979, "tags": {"amenity": "restaurant", "cuisine": "indian", "diet:vegetarian": "yes", "email": "makanveg@gmail.com", "name": "Sri Laksmi", "name:en": "Sri Lakshmi Narayana Restaurant", "opening_hours": "Mo-Tu, Th-Sa 07:30-21:30; Su, We 07:30-16:00", "phone": "+65 8153 2722", "website": "https://www.makanveg.com"}}, {"type": "node", "id": 9125543480, "lat": 1.406868, "lon": 103.901879, "tags": {"amenity": "restaurant", "level": "-1", "name": "\u4e09\u5df4\u65fa\u767d\u7c73\u7c89", "name:en": "White", "wheelchair": "yes"}}, {"type": "node", "id": 9269019962, "lat": 1.416418, "lon": 103.902118, "tags": {"addr:unit": "39", "amenity": "restaurant", "branch": "Northshore", "diet:vegetarian": "yes", "level": "1", "name": "Grove", "name:zh": "\u7d20\u6797"}}, {"type": "node", "id": 9269019963, "lat": 1.4170674, "lon": 103.9018551, "tags": {"amenity": "restaurant", "branch": "Northshore", "level": "1", "name": "Song Fa Kway Chap", "name:zh": "\u677e\u53d1\u7cbf\u6c41", "payment:contactless": "yes", "takeaway": "yes"}}, {"type": "node", "id": 9269019964, "lat": 1.417129, "lon": 103.9018104, "tags": {"amenity": "restaurant", "level": "1", "name": "Downstairs", "name:zh": "\u697c\u4e0b", "payment:contactless": "yes", "takeaway": "yes"}}, {"type": "node", "id": 9269019969, "lat": 1.4162865, "lon": 103.9019726, "tags": {"addr:unit": "05", "amenity": "restaurant", "level": "1", "name": "Staple"}}, {"type": "node", "id": 9457223907, "lat": 1.3404335, "lon": 103.9625687, "tags": {"addr:city": "Singapore", "addr:housenumber": "#01-102, 8", "addr:postcode": "487372", "addr:street": "Somapah Road", "air_conditioning": "yes", "amenity": "restaurant", "cuisine": "western;pizza;italian;ice_cream", "name": "D'Star Bistro", "phone": "+65 6904 5477", "takeaway": "yes", "website": "https://order.dstarbistro.com.sg/"}}, {"type": "node", "id": 9457223910, "lat": 1.3410513, "lon": 103.963024, "tags": {"addr:city": "Singapore", "addr:housenumber": "#02-201, 8", "addr:postcode": "487372", "addr:street": "Somapah Road", "amenity": "restaurant", "cuisine": "international", "name": "SUTD Canteen", "opening_hours": "Mo-Fr 08:00-19:30, Sa 08:00-14:00"}}, {"type": "node", "id": 9625589717, "lat": 1.3334408, "lon": 103.9155467, "tags": {"amenity": "restaurant", "cuisine": "asian", "name": "Fried Rice Story"}}, {"type": "node", "id": 9671017351, "lat": 1.3887447, "lon": 103.9884459, "tags": {"amenity": "restaurant", "name": "Makan Melaka"}}, {"type": "node", "id": 9671017923, "lat": 1.3893242, "lon": 103.9873527, "tags": {"addr:housenumber": "5", "addr:street": "Changi Village Road", "amenity": "restaurant", "cuisine": "thai", "name": "Pranakorn"}}, {"type": "node", "id": 9671017924, "lat": 1.3883702, "lon": 103.9869375, "tags": {"addr:street": "Changi Village Road", "amenity": "restaurant", "cuisine": "indian", "name": "Mr Mamak"}}, {"type": "node", "id": 9674875223, "lat": 1.3893218, "lon": 103.9873427, "tags": {"addr:housenumber": "5", "addr:street": "Changi Village Road", "amenity": "restaurant", "cuisine": "thai", "name": "Pranakorn"}}, {"type": "node", "id": 9674876817, "lat": 1.3882469, "lon": 103.9869479, "tags": {"addr:street": "Changi Village Road", "amenity": "restaurant", "cuisine": "indian", "name": "Mr Mamak"}}, {"type": "node", "id": 9676070548, "lat": 1.3543146, "lon": 103.9449129, "tags": {"addr:city": "Singapore", "addr:housenumber": "#B1-04", "addr:postcode": "529536", "addr:street": "Tampines 1", "amenity": "restaurant", "branch": "Tampines 1", "brand": "Sushi Plus", "cuisine": "sushi", "name": "Sushi Express", "not:brand:wikidata": "Q15920674", "opening_hours": "Mo-Su 11:00-21:30", "phone": "+65 67892877", "website": "https://www.sushiexpress.com.sg/"}}, {"type": "node", "id": 9676070550, "lat": 1.3523288, "lon": 103.9449438, "tags": {"addr:city": "Singapore", "addr:housenumber": "4", "addr:postcode": "529510", "addr:street": "Tampines Central 5", "amenity": "restaurant", "cuisine": "sushi", "name": "Genki Sushi", "opening_hours": "Mo-Su 11:00-22:00", "phone": "6816 4573", "website": "https://genkisushi.com.sg/"}}, {"type": "node", "id": 9676070551, "lat": 1.3527988, "lon": 103.9448807, "tags": {"addr:city": "Singapore", "addr:housenumber": "4", "addr:postcode": "529510", "addr:street": "Tampines Central 5", "amenity": "restaurant", "cuisine": "sushi", "name": "Itacho Sushi", "opening_hours": "Tuesday 11:30am-10pm Wednesday 11:30am-10pm Thursday 11:30am-10pm Friday 11am-10:30pm Saturday 11am-10:30pm Sunday 11am-10pm Monday 11:30am-10pm", "phone": "6789 5388", "website": "https://www.itachosushi.com.sg/"}}, {"type": "node", "id": 9676070552, "lat": 1.3538317, "lon": 103.9446606, "tags": {"addr:city": "Singapore", "addr:housenumber": "20", "addr:postcode": "529538", "addr:street": "Tampines Central 1", "amenity": "restaurant", "cuisine": "sushi", "name": "Sushi Express Take Out", "opening_hours": "Mo-Su 10:00-22:00", "phone": "6970 2766"}}, {"type": "node", "id": 9772174874, "lat": 1.3339577, "lon": 103.9622734, "tags": {"amenity": "restaurant", "level": "-1", "name": "Akimitsu"}}, {"type": "node", "id": 9772174875, "lat": 1.3342972, "lon": 103.962975, "tags": {"amenity": "restaurant", "level": "-1", "name": "Ichiban Sushi"}}, {"type": "node", "id": 9772174876, "lat": 1.3342144, "lon": 103.9628183, "tags": {"amenity": "restaurant", "level": "-1", "name": "The Soup Spoon Union"}}, {"type": "node", "id": 9772174877, "lat": 1.3343368, "lon": 103.9621253, "tags": {"amenity": "restaurant", "brand": "Saizeriya", "brand:en": "Saizeriya", "brand:it": "Saizeriya", "brand:ja": "\u30b5\u30a4\u30bc\u30ea\u30e4", "brand:wikidata": "Q886564", "brand:zh": "\u85a9\u8389\u4e9e", "cuisine": "italian", "level": "-1", "name": "Saizeriya", "name:en": "Saizeriya", "name:it": "Saizeriya", "name:ja": "\u30b5\u30a4\u30bc\u30ea\u30e4", "name:zh": "\u85a9\u8389\u4e9e"}}, {"type": "node", "id": 9772174878, "lat": 1.3339216, "lon": 103.9623692, "tags": {"amenity": "restaurant", "level": "-1", "name": "Curry is Drink"}}, {"type": "node", "id": 9772174880, "lat": 1.3346198, "lon": 103.9623832, "tags": {"amenity": "restaurant", "level": "-1", "name": "The Fishball Folks"}}, {"type": "node", "id": 9772174881, "lat": 1.3343377, "lon": 103.963002, "tags": {"amenity": "restaurant", "level": "-1", "name": "Idaten Udon"}}, {"type": "node", "id": 9772174882, "lat": 1.3340649, "lon": 103.9622981, "tags": {"amenity": "restaurant", "level": "-1", "name": "Wee Nam Kee Chicken Rice"}}, {"type": "node", "id": 9772174883, "lat": 1.3346579, "lon": 103.9624803, "tags": {"amenity": "restaurant", "level": "-q", "name": "Gong Yuan Ma La Tang"}}, {"type": "node", "id": 9772367028, "lat": 1.334027, "lon": 103.9624058, "tags": {"amenity": "restaurant", "level": "0", "name": "Wok Master"}}, {"type": "node", "id": 9772367030, "lat": 1.3343257, "lon": 103.9629596, "tags": {"amenity": "restaurant", "cuisine": "korean", "level": "0", "name": "Manna"}}, {"type": "node", "id": 9772367032, "lat": 1.3340584, "lon": 103.9628794, "tags": {"amenity": "restaurant", "level": "-1", "name": "Shabu Shai"}}, {"type": "node", "id": 9772367033, "lat": 1.3343396, "lon": 103.9625996, "tags": {"amenity": "restaurant", "level": "0", "name": "Tamago-EN"}}, {"type": "node", "id": 9772367037, "lat": 1.334132, "lon": 103.9624058, "tags": {"amenity": "restaurant", "level": "0", "name": "Manna Bistro & Grill"}}, {"type": "node", "id": 9772367040, "lat": 1.3343318, "lon": 103.9627474, "tags": {"amenity": "restaurant", "level": "0", "name": "Aburi-En"}}, {"type": "node", "id": 9772367041, "lat": 1.3346842, "lon": 103.9627672, "tags": {"amenity": "restaurant", "level": "0", "name": "Han's"}}, {"type": "node", "id": 9772367043, "lat": 1.334402, "lon": 103.962836, "tags": {"amenity": "restaurant", "level": "0", "name": "Monster Chili"}}, {"type": "node", "id": 9772367044, "lat": 1.3341829, "lon": 103.9628652, "tags": {"amenity": "restaurant", "level": "-1", "name": "PaPer Rice"}}, {"type": "node", "id": 9772367045, "lat": 1.3339484, "lon": 103.9628219, "tags": {"amenity": "restaurant", "level": "-1", "name": "The Dim Sum Place"}}, {"type": "node", "id": 9776505296, "lat": 1.4071208, "lon": 103.9029018, "tags": {"amenity": "restaurant", "brand": "Gyu-Kaku", "brand:wikidata": "Q11349387", "cuisine": "japanese;barbecue", "level": "0", "name": "Gyu-Kaku"}}, {"type": "node", "id": 9810363808, "lat": 1.3423233, "lon": 103.9530522, "tags": {"amenity": "restaurant", "level": "0", "name": "Andes"}}, {"type": "node", "id": 9810363816, "lat": 1.3423546, "lon": 103.9531135, "tags": {"amenity": "restaurant", "level": "1", "name": "Buddy Hoagies"}}, {"type": "node", "id": 9810396719, "lat": 1.3424608, "lon": 103.9532523, "tags": {"amenity": "restaurant", "level": "1", "name": "Shi Li Fang"}}, {"type": "node", "id": 9810396720, "lat": 1.3430411, "lon": 103.9531209, "tags": {"amenity": "restaurant", "level": "0", "name": "Takagi Ramen"}}, {"type": "node", "id": 9810396724, "lat": 1.3425746, "lon": 103.9532383, "tags": {"amenity": "restaurant", "brand": "Saizeriya", "brand:en": "Saizeriya", "brand:it": "Saizeriya", "brand:ja": "\u30b5\u30a4\u30bc\u30ea\u30e4", "brand:wikidata": "Q886564", "brand:zh": "\u85a9\u8389\u4e9e", "cuisine": "italian", "level": "2", "name": "Saizeriya", "name:en": "Saizeriya", "name:it": "Saizeriya", "name:ja": "\u30b5\u30a4\u30bc\u30ea\u30e4", "name:zh": "\u85a9\u8389\u4e9e"}}, {"type": "node", "id": 9810396735, "lat": 1.3425681, "lon": 103.9532837, "tags": {"amenity": "restaurant", "brand": "Pizza Hut", "brand:wikidata": "Q191615", "cuisine": "pizza", "level": "1", "name": "Pizza Hut"}}, {"type": "node", "id": 9810396739, "lat": 1.3426956, "lon": 103.9527253, "tags": {"amenity": "restaurant", "level": "0", "name": "JinShangYiPin", "name:zh": "\u9526\u5c1a\u4f0a\u54c1", "outdoor_seating": "yes", "self_service": "yes"}}, {"type": "node", "id": 9810396743, "lat": 1.3424551, "lon": 103.9529308, "tags": {"amenity": "restaurant", "level": "0", "name": "Sanook Kitchen"}}, {"type": "node", "id": 9810396747, "lat": 1.3424065, "lon": 103.9531845, "tags": {"amenity": "restaurant", "level": "1", "name": "Nandhana's"}}, {"type": "node", "id": 9810591354, "lat": 1.3541968, "lon": 103.9454012, "tags": {"amenity": "restaurant", "level": "0", "name": "Monster Curry"}}, {"type": "node", "id": 9810591361, "lat": 1.3544576, "lon": 103.9446436, "tags": {"amenity": "restaurant", "level": "0", "name": "Tim Ho Wan", "name:zh": "\u6dfb\u597d\u904b"}}, {"type": "node", "id": 9812117483, "lat": 1.3931851, "lon": 103.917562, "tags": {"amenity": "restaurant", "name": "Nadyas", "wheelchair": "yes"}}, {"type": "node", "id": 9812117484, "lat": 1.3932667, "lon": 103.9176222, "tags": {"amenity": "restaurant", "name": "Beastro", "wheelchair": "yes"}}, {"type": "node", "id": 9812117485, "lat": 1.3935066, "lon": 103.9178431, "tags": {"amenity": "restaurant", "cuisine": "thai", "name": "Kin Kao Mai", "wheelchair": "yes"}}, {"type": "node", "id": 9812117486, "lat": 1.3936073, "lon": 103.917905, "tags": {"amenity": "restaurant", "name": "Pump Station 1965", "wheelchair": "yes"}}, {"type": "node", "id": 9812117487, "lat": 1.3933191, "lon": 103.9176592, "tags": {"amenity": "restaurant", "name": "Seoul Good", "wheelchair": "yes"}}, {"type": "node", "id": 9876737817, "lat": 1.3571837, "lon": 103.9863086, "tags": {"amenity": "restaurant", "cuisine": "indian", "diet:vegan": "yes", "indoor_seating": "yes", "name": "Kaveri", "outdoor_seating": "no"}}, {"type": "node", "id": 9886234617, "lat": 1.3258283, "lon": 103.923042, "tags": {"amenity": "restaurant", "name": "Al-Haji"}}, {"type": "node", "id": 9950624421, "lat": 1.3353779, "lon": 103.9638395, "tags": {"amenity": "restaurant", "name": "Joah Korean"}}, {"type": "node", "id": 9950628219, "lat": 1.3351921, "lon": 103.9641331, "tags": {"amenity": "restaurant", "name": "Sakura Asian Crusine"}}, {"type": "node", "id": 9950628220, "lat": 1.3354344, "lon": 103.9640154, "tags": {"amenity": "restaurant", "name": "Kurry Korner"}}, {"type": "node", "id": 9950628221, "lat": 1.3348958, "lon": 103.9639842, "tags": {"amenity": "restaurant", "name": "Sakunthalas"}}, {"type": "node", "id": 9950628222, "lat": 1.3348585, "lon": 103.964067, "tags": {"amenity": "restaurant", "check_date": "2024-11-06", "internet_access": "no", "name": "Tonkotsu King", "payment:cash": "yes", "payment:credit_cards": "yes", "payment:debit_cards": "yes", "wheelchair": "yes"}}, {"type": "node", "id": 9950628518, "lat": 1.335223, "lon": 103.9639, "tags": {"amenity": "restaurant", "name": "Singa Cafe"}}, {"type": "node", "id": 9950628618, "lat": 1.3352656, "lon": 103.9640146, "tags": {"amenity": "restaurant", "name": "Ananda Bhavan"}}, {"type": "node", "id": 9950628619, "lat": 1.3354956, "lon": 103.9639317, "tags": {"amenity": "restaurant", "name": "Sushi Zanmai"}}, {"type": "node", "id": 9950628717, "lat": 1.3355923, "lon": 103.9637682, "tags": {"amenity": "restaurant", "name": "Yum Cha"}}, {"type": "node", "id": 9950628817, "lat": 1.3350899, "lon": 103.9640812, "tags": {"amenity": "restaurant", "name": "Salad Stop"}}, {"type": "node", "id": 9950628818, "lat": 1.3355312, "lon": 103.9638512, "tags": {"amenity": "restaurant", "name": "Uozen"}}, {"type": "node", "id": 9950628819, "lat": 1.3354763, "lon": 103.9637086, "tags": {"amenity": "restaurant", "name": "Banjara"}}, {"type": "node", "id": 9950628820, "lat": 1.3355653, "lon": 103.9638217, "tags": {"amenity": "restaurant", "name": "Zab Udon"}}, {"type": "node", "id": 9950628917, "lat": 1.3353895, "lon": 103.964106, "tags": {"amenity": "restaurant", "name": "Song Fa"}}, {"type": "node", "id": 10010436819, "lat": 1.4068746, "lon": 103.9028643, "tags": {"amenity": "restaurant", "level": "-1", "name": "Sukiya", "wheelchair": "yes"}}, {"type": "node", "id": 10012524762, "lat": 1.3615032, "lon": 103.9907446, "tags": {"access": "yes", "addr:floor": "3", "alt_name": "Kailash Parbat", "amenity": "restaurant", "check_date": "2024-10-17", "cuisine": "indian", "diet:halal": "yes", "diet:vegetarian": "yes", "level": "2", "name": "Anjappar", "payment:cash": "yes", "payment:credit_cards": "yes", "payment:debit_cards": "yes"}}, {"type": "node", "id": 10039754125, "lat": 1.3899901, "lon": 103.9888811, "tags": {"amenity": "restaurant", "name": "Tekong Seafood Restaurant", "name:zh": "\u5fb7\u5149\u6d77\u9c9c\u697c"}}, {"type": "node", "id": 10039776836, "lat": 1.391551, "lon": 103.9904218, "tags": {"amenity": "restaurant", "name": "The Sea Grill"}}, {"type": "node", "id": 10102513968, "lat": 1.4102707, "lon": 103.9064572, "tags": {"amenity": "restaurant", "level": "1", "name": "Huo Guo Gong Fu", "name:zh": "\u706b\u9505\u529f\u592b", "opening_hours": "16:00-02:00"}}, {"type": "node", "id": 10102513980, "lat": 1.4105752, "lon": 103.9060311, "tags": {"amenity": "restaurant", "level": "0", "name": "Jack's Place"}}, {"type": "node", "id": 10102513985, "lat": 1.4106366, "lon": 103.9060174, "tags": {"amenity": "restaurant", "brand": "Pizza Hut", "brand:wikidata": "Q191615", "cuisine": "pizza", "level": "1", "name": "Pizza Hut"}}, {"type": "node", "id": 10108896317, "lat": 1.3921665, "lon": 103.9047231, "tags": {"amenity": "restaurant", "level": "0", "name": "Pontian Wanton Noodles", "wheelchair": "yes"}}, {"type": "node", "id": 10202062917, "lat": 1.3375852, "lon": 103.9831818, "tags": {"addr:floor": "3", "amenity": "restaurant", "check_date": "2025-02-04", "diet:halal": "yes", "level": "2", "name": "Kopitiam", "payment:alipay": "yes", "payment:cash": "yes", "payment:credit_cards": "yes", "payment:debit_cards": "yes", "payment:mastercard": "yes", "payment:nets": "yes", "payment:paynow": "yes", "payment:visa": "yes", "payment:wechat": "yes"}}, {"type": "node", "id": 10202063017, "lat": 1.3375422, "lon": 103.9828342, "tags": {"amenity": "restaurant", "name": "Andes"}}, {"type": "node", "id": 10218210070, "lat": 1.3778922, "lon": 103.9551486, "tags": {"amenity": "restaurant"}}, {"type": "node", "id": 10218223532, "lat": 1.3782138, "lon": 103.9543742}, {"type": "node", "id": 10218223533, "lat": 1.3782483, "lon": 103.9543366}, {"type": "node", "id": 10218223534, "lat": 1.3782068, "lon": 103.9542977}, {"type": "node", "id": 10218223535, "lat": 1.3781698, "lon": 103.9543366}, {"type": "node", "id": 10284197309, "lat": 1.3269353, "lon": 103.9330113, "tags": {"amenity": "restaurant", "name:en": "Han Kee Fish Soup"}}, {"type": "node", "id": 10885700512, "lat": 1.3265634, "lon": 103.9315983, "tags": {"addr:city": "Singapore", "addr:housenumber": "11", "addr:postcode": "469662", "addr:street": "Bedok North Street 1", "amenity": "restaurant", "cuisine": "sushi", "level": "0", "name": "Sushi Express", "opening_hours": "Mo-Su 11:00-21:30", "wheelchair": "yes"}}, {"type": "node", "id": 10885700513, "lat": 1.3246039, "lon": 103.9294206, "tags": {"addr:city": "Singapore", "addr:housenumber": "311", "addr:postcode": "467360", "addr:street": "New Upper Changi Road", "amenity": "restaurant", "cuisine": "sushi", "diet:halal": "yes", "level": "-2", "name": "Junshin Express", "opening_hours": "Mo-Su 10:00-22:00", "phone": "+65 6844 9448", "website": "https://www.junshinsushi.com.sg/"}}, {"type": "node", "id": 10926199081, "lat": 1.3393455, "lon": 103.9334787}, {"type": "node", "id": 10926199082, "lat": 1.3393824, "lon": 103.9335887}, {"type": "node", "id": 10926199083, "lat": 1.3392648, "lon": 103.9336282}, {"type": "node", "id": 10926199084, "lat": 1.3392279, "lon": 103.9335182}, {"type": "node", "id": 11003104390, "lat": 1.3886444, "lon": 103.9765613, "tags": {"amenity": "restaurant", "name": "The Olive Tree"}}, {"type": "node", "id": 11023056280, "lat": 1.3329678, "lon": 103.9381752, "tags": {"addr:city": "Singapore", "addr:housenumber": "89", "addr:postcode": "460089", "addr:street": "Bedok North Avenue 4", "amenity": "restaurant", "branch": "Bedok", "cuisine": "indian", "level": "0", "name": "KNS RESTAURANT", "opening_hours": "24/7", "outdoor_seating": "yes", "phone": "+65 64451619", "website": "https://knsrestaurant.com/"}}, {"type": "node", "id": 11048914964, "lat": 1.4346342, "lon": 103.9305272, "tags": {"amenity": "restaurant", "name": "Rahmat Siakap Goreng"}}, {"type": "node", "id": 11068120556, "lat": 1.4711502, "lon": 104.0111377, "tags": {"amenity": "restaurant", "name": "Tanjung Langsat Yong Taufu", "name:en": "Tanjung Langsat Yong Taufu", "name:ms": "Tanjung Langsat Yong Taufu"}}, {"type": "node", "id": 11068122033, "lat": 1.4716109, "lon": 104.0113961, "tags": {"amenity": "restaurant", "name": "D'Anjung Kakmah", "name:en": "D'Anjung Kakmah", "name:ms": "D'Anjung Kakmah", "phone": "+6013-754 3442 +6013-733 4802"}}, {"type": "node", "id": 11068132246, "lat": 1.4735465, "lon": 103.9310651, "tags": {"amenity": "restaurant", "name": "Mmy Homes restaurant"}}, {"type": "node", "id": 11114420910, "lat": 1.3725033, "lon": 103.949602, "tags": {"addr:city": "Singapore", "addr:housenumber": "1", "addr:postcode": "518457", "addr:street": "Pasir Ris Central Street 3", "air_conditioning": "yes", "amenity": "restaurant", "cuisine": "ramen", "level": "2", "name": "Ramen Dining Keisuke Tokyo", "opening_hours": "Mo-Su 11:30-21:30", "phone": "+65 6440 5548", "reservation": "no", "website": "https://www.keisuke.sg/", "website:menu": "https://www.keisuke.sg/ramen-dining-keisuke-tokyo-white-sands"}}, {"type": "node", "id": 11142920452, "lat": 1.3617389, "lon": 103.9920361, "tags": {"addr:unit": "02-K17", "amenity": "restaurant", "brand": "Ippudo", "brand:en": "Ippudo", "brand:ja": "\u4e00\u98a8\u5802", "brand:wikidata": "Q6065417", "check_date": "2023-08-22", "cuisine": "ramen", "level": "0", "name": "Ippudo Express", "name:en": "Ippudo", "name:ja": "\u4e00\u98a8\u5802"}}, {"type": "node", "id": 11173204117, "lat": 1.4026052, "lon": 103.9131767, "tags": {"amenity": "restaurant", "cuisine": "chinese", "level": "1", "name": "Crystal Jade GO", "opening_hours": "Mo-Su 09:00-21:00", "wheelchair": "yes"}}, {"type": "node", "id": 11178310824, "lat": 1.3447613, "lon": 103.9418216, "tags": {"amenity": "restaurant", "name": "KEK Seafood", "wheelchair": "yes"}}, {"type": "node", "id": 11178310829, "lat": 1.3445945, "lon": 103.9418563, "tags": {"amenity": "restaurant", "level": "0.5", "name": "Sarpinos", "wheelchair": "yes"}}, {"type": "node", "id": 11346602225, "lat": 1.3240046, "lon": 103.9637599, "tags": {"amenity": "restaurant", "name": "The Nest", "opening_hours": "09:00-21:00; Mo,Tu 11:00-21:00", "phone": "+6563216792", "website": "https://www.dusitthanilagunasingapore.com/dining/thenest"}}, {"type": "node", "id": 11516531960, "lat": 1.3506957, "lon": 104.2209139, "tags": {"amenity": "restaurant", "name": "Kedai Makanan Sungai Emas", "name:en": "Sungai Emas", "name:ms": "Kedai Makanan Sungai Emas", "name:zh": "\u94f6\u6cb3\u7f8e\u98df\u574a"}}, {"type": "node", "id": 11516531973, "lat": 1.3506474, "lon": 104.2218916, "tags": {"amenity": "restaurant", "name": "Restoran Akbar", "name:en": "Akbar", "name:ms": "Restoran Akbar", "opening_hours": "24/7"}}, {"type": "node", "id": 11516531974, "lat": 1.3511944, "lon": 104.2232729, "tags": {"amenity": "restaurant", "name": "Restoran 9118 Teochew", "name:en": "9118 Teochew", "name:ms": "Restoran 9118 Teochew", "name:zh": "\u6f6e\u5dde\u7f8e\u98df\u4e2d\u5fc3"}}, {"type": "node", "id": 11516531991, "lat": 1.3507594, "lon": 104.2230195, "tags": {"amenity": "restaurant", "name": "Restoran MRM"}}, {"type": "node", "id": 11516531996, "lat": 1.3509491, "lon": 104.2234661, "tags": {"amenity": "restaurant", "name": "Restoran Chop Bee Tin", "name:en": "Chop Bee Tin", "name:ms": "Restoran Chop Bee Tin", "name:zh": "\u7f8e\u73cd\u8336\u9910\u5ba4"}}, {"type": "node", "id": 11516532026, "lat": 1.3536869, "lon": 104.2272802, "tags": {"amenity": "restaurant", "name": "Restoran Syed Ali", "name:ms": "Restoran Syed Ali", "opening_hours": "24/7"}}, {"type": "node", "id": 11516532027, "lat": 1.3535179, "lon": 104.227142, "tags": {"amenity": "restaurant", "name": "Restoran SR Dynasty Seafood", "name:en": "SR Dynasty Seafood Restaurant", "name:ms": "Restoran SR Dynasty Seafood", "name:zh": "\u738b\u671d\u6d77\u9c9c\u697c", "name:zh-Hans": "\u738b\u671d\u6d77\u9c9c\u697c", "name:zh-Hant": "\u738b\u671d\u6d77\u9bae\u6a13"}}, {"type": "node", "id": 11516532504, "lat": 1.3501768, "lon": 104.2247602, "tags": {"amenity": "restaurant", "name": "Medan Selera Big Tree Food Corner", "name:en": "Big Tree Food Corner", "name:ms": "Medan Selera Big Tree Food Corner", "name:zh": "\u5927\u6a39\u7f8e\u98df\u574a"}}, {"type": "node", "id": 11640417870, "lat": 1.3318624, "lon": 103.9465901, "tags": {"amenity": "restaurant", "name": "Thaiquet"}}, {"type": "node", "id": 11640417871, "lat": 1.3319098, "lon": 103.946377, "tags": {"amenity": "restaurant", "name": "Fisherman\u2019s Claypot"}}, {"type": "node", "id": 11640417872, "lat": 1.3319236, "lon": 103.9462921, "tags": {"amenity": "restaurant", "name": "Hong Kong Street Family Restaurant Bedok", "name:zh": "\u9127\u6587\u8a18"}}, {"type": "node", "id": 11640418069, "lat": 1.3318503, "lon": 103.9467135, "tags": {"amenity": "restaurant", "name": "Ikura", "name:ja": "\u30a4\u30af\u30e9"}}, {"type": "node", "id": 11640418269, "lat": 1.3318806, "lon": 103.9464932, "tags": {"amenity": "restaurant", "name": "Katong Mei Wei"}}, {"type": "node", "id": 11754825865, "lat": 1.3556225, "lon": 103.9893097, "tags": {"amenity": "restaurant", "check_date": "2024-03-21", "cuisine": "ramen", "level": "3", "name": "Keisuke Ramen Singapore"}}, {"type": "node", "id": 11754825866, "lat": 1.3552313, "lon": 103.9891806, "tags": {"amenity": "restaurant", "check_date": "2024-03-21", "cuisine": "chinese", "level": "3", "name": "Peach Garden"}}, {"type": "node", "id": 11861552190, "lat": 1.3416348, "lon": 103.9190745, "tags": {"amenity": "restaurant", "level": "1", "name": "Sri Bistari"}}, {"type": "node", "id": 11861552191, "lat": 1.3416493, "lon": 103.919173, "tags": {"amenity": "restaurant", "level": "1", "name": "\u5fc3\u70b9\u5fc3"}}, {"type": "node", "id": 11861562404, "lat": 1.3415771, "lon": 103.9198283, "tags": {"amenity": "restaurant", "level": "0", "name": "\u5c0f\u6728\u51f3", "toilets:wheelchair": "yes", "wheelchair": "yes"}}, {"type": "node", "id": 11862098769, "lat": 1.3910394, "lon": 103.975161, "tags": {"addr:street": "Andover Road", "amenity": "restaurant"}}, {"type": "node", "id": 11949553397, "lat": 1.3969936, "lon": 103.9210999, "tags": {"addr:floor": "0", "addr:unit": "10", "amenity": "restaurant", "name": "Daruma Tavern"}}, {"type": "node", "id": 11949553398, "lat": 1.396895, "lon": 103.9209012, "tags": {"amenity": "restaurant", "brand": "Pizza Hut", "brand:wikidata": "Q191615", "cuisine": "pizza", "name": "Pizza Hut"}}, {"type": "node", "id": 11950087371, "lat": 1.3544072, "lon": 103.9442421, "tags": {"amenity": "restaurant", "name": "Koufu"}}, {"type": "node", "id": 11975349366, "lat": 1.3849759, "lon": 103.9448318, "tags": {"addr:housenumber": "133", "addr:postcode": "519149", "addr:street": "Pasir Ris Road", "air_conditioning": "no", "amenity": "restaurant", "bar": "yes", "check_date": "2024-06-11", "contact:instagram": "https://www.instagram.com/georges_sg", "cuisine": "international", "delivery": "yes", "internet_access": "wlan", "internet_access:fee": "customers", "name": "Georges @ The Cove", "opening_hours": "Mo-Th,PH[-1] 15:00-23:00; Fr 12:00-24:00; Sa 09:00-24:00; Su,PH 09:00-23:00", "outdoor_seating": "yes", "payment:cash": "yes", "payment:credit_cards": "yes", "payment:debit_cards": "yes", "pets": "yes", "phone": "+65 6585 0535", "reservation": "yes", "takeaway": "yes", "toilets": "yes", "website": "https://www.georges.com.sg/", "wheelchair": "yes"}}, {"type": "node", "id": 12005122424, "lat": 1.3217464, "lon": 103.9054817, "tags": {"amenity": "restaurant", "cuisine": "noodle", "name": "Mim\u2019s Fried Hokkien Prawn Mee"}}, {"type": "node", "id": 12139517785, "lat": 1.3732337, "lon": 103.9487794, "tags": {"addr:city": "Singapore", "addr:housenumber": "7", "addr:postcode": "519467", "addr:street": "Pasir Ris Central", "amenity": "restaurant", "branch": "Pasir Ris Mall", "cuisine": "chinese", "name": "Huang Chao Teochew Noodle House"}}, {"type": "node", "id": 12143316818, "lat": 1.3723584, "lon": 103.9499074, "tags": {"addr:city": "Singapore", "addr:housenumber": "1", "addr:postcode": "518457", "addr:street": "Pasir Ris Central Street 3", "amenity": "restaurant", "branch": "White Sands", "brand": "Hugabo", "cuisine": "noodle;asian", "delivery": "yes", "diet:halal": "yes", "level": "-1", "name": "Hugabo", "opening_hours": "Mo-Su 10:30-20:30", "takeaway": "only", "website": "https://www.instagram.com/hugabosg/"}}, {"type": "node", "id": 12143316819, "lat": 1.3723363, "lon": 103.9499024, "tags": {"addr:city": "Singapore", "addr:housenumber": "1", "addr:postcode": "518457", "addr:street": "Pasir Ris Central Street 3", "amenity": "restaurant", "cuisine": "indian;mediterranean", "delivery": "yes", "diet:halal": "yes", "level": "-1", "name": "Dabba Street", "opening_hours": "Mo-Su 10:30-21:30", "takeaway": "only"}}, {"type": "node", "id": 12143316826, "lat": 1.3723616, "lon": 103.9497081, "tags": {"addr:city": "Singapore", "addr:housenumber": "1", "addr:postcode": "518457", "addr:street": "Pasir Ris Central Street 3", "amenity": "restaurant", "cuisine": "italian", "delivery": "yes", "diet:halal": "yes", "name": "Twyst", "opening_hours": "Mo-Su 11:00-21:30", "takeaway": "only", "website": "https://www.twyst.sg/", "website:menu": "https://www.twyst.sg/menu-1"}}, {"type": "node", "id": 12143316830, "lat": 1.3740108, "lon": 103.9484134, "tags": {"addr:city": "Singapore", "addr:housenumber": "7", "addr:postcode": "519612", "addr:street": "Pasir Ris Central", "air_conditioning": "yes", "amenity": "restaurant", "branch": "Pasir Ris Mall", "cuisine": "sushi", "delivery": "yes", "level": "-1", "name": "Genki Sushi", "opening_hours": "Mo-Su 11:00-21:15", "reservation": "no", "takeaway": "yes", "website": "https://www.genkisushi.com.sg/"}}, {"type": "node", "id": 12143316846, "lat": 1.3739626, "lon": 103.9483974, "tags": {"addr:city": "Singapore", "addr:housenumber": "7", "addr:postcode": "519612", "addr:street": "Pasir Ris Central", "air_conditioning": "yes", "amenity": "restaurant", "branch": "Pasir Ris Mall", "cuisine": "japanese", "delivery": "yes", "level": "-1", "name": "Butahage", "name:ja": "\u8c5a\u4e3c\u306e\u3076\u305f\u306f\u3052", "opening_hours": "Mo-Su 11:00-22:00", "phone": "+65 6931 2155", "reservation": "no", "takeaway": "yes", "website": "https://www.butahage.com/"}}, {"type": "node", "id": 12143316855, "lat": 1.3734832, "lon": 103.9485582, "tags": {"addr:city": "Singapore", "addr:housenumber": "7", "addr:postcode": "519612", "addr:street": "Pasir Ris Central", "air_conditioning": "yes", "amenity": "restaurant", "branch": "Pasir Ris Mall", "cuisine": "malay", "delivery": "yes", "diet:halal": "yes", "level": "-1", "name": "Crave Nasi Lemak", "opening_hours": "Mo-Su 07:00-22:00", "reservation": "no", "takeaway": "yes", "website": "https://www.kioskscollective.com/crave"}}, {"type": "node", "id": 12143316863, "lat": 1.3732079, "lon": 103.9485636, "tags": {"addr:city": "Singapore", "addr:housenumber": "7", "addr:postcode": "519612", "addr:street": "Pasir Ris Central", "air_conditioning": "yes", "amenity": "restaurant", "branch": "Pasir Ris Mall", "diet:halal": "yes", "level": "1", "name": "Earle Swensen's", "opening_hours": "Mo-Su 11:00-22:30", "phone": "+65 6995 2652", "website": "https://earleswensens.com.sg/", "website:menu": "https://earleswensens.com.sg/ourmenu/"}}, {"type": "node", "id": 12143316870, "lat": 1.3732651, "lon": 103.9483979, "tags": {"addr:city": "Singapore", "addr:housenumber": "7", "addr:postcode": "519612", "addr:street": "Pasir Ris Central", "air_conditioning": "yes", "amenity": "restaurant", "branch": "Pasir Ris Mall", "cuisine": "taiwanese;breakfast", "delivery": "yes", "name": "Fong Sheng Hao", "name:zh": "\u8c50\u76db\u865f", "opening_hours": "Mo-Su 07:30-21:00", "outdoor_seating": "no", "reservation": "yes", "takeaway": "yes", "website": "https://www.fongshenghao.com.tw/"}}, {"type": "node", "id": 12143331015, "lat": 1.3734368, "lon": 103.9481888, "tags": {"addr:city": "Singapore", "addr:housenumber": "7", "addr:postcode": "519612", "addr:street": "Pasir Ris Central", "air_conditioning": "yes", "amenity": "restaurant", "branch": "Pasir Ris Mall", "contact:facebook": "https://www.facebook.com/jianghu.hotpot", "cuisine": "chinese", "level": "0", "name": "Jianghu Buffet", "opening_hours": "Su-Th 11:00-22:00; Fr-Sa 11:00-22:30", "phone": "+65 9119 9626", "reservation": "yes"}}, {"type": "node", "id": 12143613150, "lat": 1.3738065, "lon": 103.9487998, "tags": {"addr:city": "Singapore", "addr:housenumber": "7", "addr:postcode": "519612", "addr:street": "Pasir Ris Central", "air_conditioning": "yes", "amenity": "restaurant", "branch": "Pasir Ris Mall", "cuisine": "japanese", "level": "-1", "name": "Kageyama Ramen", "opening_hours": "Mo-Su 11:30-22:00", "phone": "+65 6513 8923", "takeaway": "yes", "website": "https://www.instagram.com/kageyamasg"}}, {"type": "node", "id": 12143613157, "lat": 1.3742343, "lon": 103.9486246, "tags": {"addr:city": "Singapore", "addr:housenumber": "7", "addr:postcode": "519612", "addr:street": "Pasir Ris Central", "air_conditioning": "yes", "amenity": "restaurant", "branch": "Pasir Ris Mall", "cuisine": "singaporean;coffee_shop", "delivery": "yes", "name": "Kopifellas Cafe", "opening_hours": "Mo-Su 08:00-21:00", "takeaway": "yes", "website": "https://www.kopifellas.com.sg/"}}, {"type": "node", "id": 12143894970, "lat": 1.3739113, "lon": 103.9486149, "tags": {"addr:city": "Singapore", "addr:housenumber": "7", "addr:postcode": "519612", "addr:street": "Pasir Ris Central", "air_conditioning": "yes", "amenity": "restaurant", "branch": "Pasir Ris Mall", "cuisine": "japanese", "delivery": "yes", "level": "-1", "name": "Kuriya Japanese Market", "opening_hours": "Mo-Su 11:00-22:00", "phone": "+65 6029 3174", "takeaway": "yes", "website": "https://www.kuriyajapanesemarket.com.sg/en/"}}, {"type": "node", "id": 12143894973, "lat": 1.373737, "lon": 103.9485324, "tags": {"addr:city": "Singapore", "addr:housenumber": "7", "addr:postcode": "519612", "addr:street": "Pasir Ris Central", "air_conditioning": "yes", "amenity": "restaurant", "branch": "Pasir Ris Mall", "cuisine": "chinese", "delivery": "yes", "level": "-2", "name": "Lao Huo Tang", "name:zh": "\u8001\u706b\u6c64", "reservation": "no", "takeaway": "yes", "website": "https://laohuotang.com.sg/"}}, {"type": "node", "id": 12143894974, "lat": 1.3739421, "lon": 103.9487136, "tags": {"addr:city": "Singapore", "addr:housenumber": "7", "addr:postcode": "519612", "addr:street": "Pasir Ris Central", "air_conditioning": "yes", "amenity": "restaurant", "branch": "Pasir Ris Mall", "cuisine": "chinese", "delivery": "yes", "level": "-2", "name": "Lau Wang Claypot Delights", "opening_hours": "Mo-Su 11:00-21:30", "takeaway": "yes", "website": "https://lauwangclaypot.com/", "website:menu": "https://lauwangclaypot.com/#menu"}}, {"type": "node", "id": 12143894976, "lat": 1.374153, "lon": 103.948881, "tags": {"addr:city": "Singapore", "addr:housenumber": "7", "addr:postcode": "519612", "addr:street": "Pasir Ris Central", "air_conditioning": "yes", "amenity": "restaurant", "cuisine": "chinese", "delivery": "yes", "level": "1", "name": "Le Shrimp Ramen", "name:zh": "\u6a02\u867e\u62c9\u9762\u5bb6", "opening_hours": "Mo-Fr 11:00-22:00; Sa-Su 10:30-22:00", "outdoor_seating": "yes", "takeaway": "yes", "website": "https://www.paradisegp.com/le-shrimp-ramen/"}}, {"type": "node", "id": 12143894979, "lat": 1.373606, "lon": 103.9486022, "tags": {"addr:city": "Singapore", "addr:housenumber": "7", "addr:postcode": "519612", "addr:street": "Pasir Ris Central", "air_conditioning": "yes", "amenity": "restaurant", "branch": "Pasir Ris Mall", "cuisine": "chinese", "delivery": "yes", "level": "-2", "name": "LeNu Chef Wai\u2019s Noodle Bar", "name:zh": "\u6a02\u725b\u79c1\u623f\u9762\u5bb6", "opening_hours": "Mo-Fr 11:00-22:00; Sa-Su 10:30-22:00", "reservation": "no", "takeaway": "yes", "website": "https://www.paradisegp.com/lenu/"}}, {"type": "node", "id": 12143894996, "lat": 1.3742108, "lon": 103.9485495, "tags": {"addr:city": "Singapore", "addr:housenumber": "7", "addr:postcode": "519612", "addr:street": "Pasir Ris Central", "air_conditioning": "yes", "amenity": "restaurant", "branch": "Pasir Ris Mall", "cuisine": "chinese", "delivery": "yes", "level": "-1", "name": "Paradise Classic", "name:zh": "\u6a02\u5929\u7ecf\u5178", "opening_hours": "Mo-Fr 11:00-22:00; Sa-Su 10:30-22:00", "phone": "+65 6235 2664", "reservation": "yes", "takeaway": "yes", "website": "https://www.paradisegp.com/paradise-classic/"}}, {"type": "node", "id": 12143894997, "lat": 1.3741906, "lon": 103.9488903, "tags": {"addr:city": "Singapore", "addr:housenumber": "7", "addr:postcode": "519612", "addr:street": "Pasir Ris Central", "air_conditioning": "yes", "amenity": "restaurant", "branch": "Pasir Ris Mall", "cuisine": "chinese", "delivery": "yes", "level": "1", "name": "Paradise Dynasty", "opening_hours": "Mo-Fr 11:00-22:00; Sa-Su 10:30-22:00", "reservation": "yes", "takeaway": "yes", "website": "https://www.paradisegp.com/paradise-dynasty/"}}, {"type": "node", "id": 12143901702, "lat": 1.3737773, "lon": 103.9487345, "tags": {"addr:city": "Singapore", "addr:housenumber": "7", "addr:postcode": "519612", "addr:street": "Pasir Ris Central", "amenity": "restaurant", "branch": "Pasir Ris Mall", "contact:facebook": "https://www.facebook.com/pontiansingapore/", "cuisine": "chinese", "level": "-2", "name": "Pontian Jiak!", "opening_hours": "Mo-Su 10:00-21:30"}}, {"type": "node", "id": 12144126891, "lat": 1.3974254, "lon": 103.9615656, "tags": {"amenity": "restaurant", "name": "Smith marine Floating Restaurant", "phone": "+65 9792 7609", "website": "https://www.smithmarine.com.sg/"}}, {"type": "node", "id": 12144138732, "lat": 1.3738447, "lon": 103.9487184, "tags": {"addr:city": "Singapore", "addr:housenumber": "7", "addr:postcode": "519612", "addr:street": "Pasir Ris Central", "air_conditioning": "yes", "amenity": "restaurant", "cuisine": "ramen", "delivery": "yes", "level": "-2", "name": "Suparakki Ramen", "name:ja": "\u30b9\u30fc\u30d1\u30fc\u30e9\u30c3\u30ad\u30fc\u30e9\u30fc\u30e1\u30f3", "opening_hours": "Mo-Su 11:00-21:30", "takeaway": "yes", "website": "https://suparakki.com.sg/", "website:menu": "https://suparakki.com.sg/#menu"}}, {"type": "node", "id": 12144138733, "lat": 1.37395, "lon": 103.948865, "tags": {"addr:city": "Singapore", "addr:housenumber": "7", "addr:postcode": "519612", "addr:street": "Pasir Ris Central", "air_conditioning": "yes", "amenity": "restaurant", "branch": "Pasir Ris Mall", "cuisine": "chinese", "delivery": "yes", "level": "1", "name": "Tai Er", "name:zh": "\u592a\u4e8c\u9178\u83dc\u9c7c", "opening_hours": "Mo-Th 11:30-21:00; Fr 11:30-21:30; Sa-Su 11:00-21:30", "phone": "+65 6513 3588", "reservation": "yes", "takeaway": "yes", "website": "http://singapore.taier.net/"}}, {"type": "node", "id": 12144138735, "lat": 1.3739528, "lon": 103.9484621, "tags": {"addr:city": "Singapore", "addr:housenumber": "7", "addr:postcode": "519612", "addr:street": "Pasir Ris Central", "air_conditioning": "yes", "amenity": "restaurant", "branch": "Pasir Ris Mall", "cuisine": "indonesian", "delivery": "yes", "diet:halal": "yes", "level": "-2", "name": "Taste of Indonesia", "opening_hours": "Su-Th 10:30-21:30; Fr-Sa 10:30-22:30", "phone": "+65 6988 7204", "takeaway": "yes", "website": "https://www.tasteofindonesia.com/"}}, {"type": "node", "id": 12144138739, "lat": 1.3738626, "lon": 103.9486141, "tags": {"addr:city": "Singapore", "addr:housenumber": "7", "addr:postcode": "519612", "addr:street": "Pasir Ris Central", "air_conditioning": "yes", "amenity": "restaurant", "contact:facebook": "https://www.facebook.com/thehainanstory", "cuisine": "singaporean;coffee_shop", "delivery": "yes", "level": "-2", "name": "The Hainan Story Coffee House", "opening_hours": "Mo-Su 08:00-21:30", "takeaway": "yes", "website": "https://www.thehainanstory.com/", "website:menu": "https://www.thehainanstory.com/page/the-hainan-story-coffee-house"}}, {"type": "node", "id": 12144191535, "lat": 1.3738865, "lon": 103.9488308, "tags": {"addr:city": "Singapore", "addr:housenumber": "7", "addr:postcode": "519612", "addr:street": "Pasir Ris Central", "air_conditioning": "yes", "amenity": "restaurant", "branch": "Pasir Ris Mall", "cuisine": "chinese", "delivery": "yes", "level": "1", "name": "White Restaurant", "name:zh": "\u4e09\u5df4\u65fa\u767d\u7c73\u7c89", "opening_hours": "Mo-Su 11:00-22:00", "phone": "+65 8086 1058", "reservation": "yes", "takeaway": "yes", "website": "https://whiterestaurant.com.sg/locate-us/", "website:menu": "https://linktr.ee/whiterestaurant"}}, {"type": "node", "id": 12144191537, "lat": 1.3742425, "lon": 103.9489325, "tags": {"addr:city": "Singapore", "addr:housenumber": "7", "addr:postcode": "519612", "addr:street": "Pasir Ris Central", "air_conditioning": "yes", "amenity": "restaurant", "branch": "Pasir Ris Mall", "contact:facebook": "https://www.facebook.com/xiangxianghunancuisinesg/", "cuisine": "chinese", "delivery": "yes", "level": "1", "name": "Xiang Xiang Hunan Cuisine", "name:zh": "\u6e58\u9999\u6e56\u5357\u83dc", "opening_hours": "Mo-Su 11:00-22:00", "phone": "+65 6970 6856", "takeaway": "yes"}}, {"type": "node", "id": 12144191539, "lat": 1.3739263, "lon": 103.9483773, "tags": {"addr:city": "Singapore", "addr:housenumber": "7", "addr:postcode": "519612", "addr:street": "Pasir Ris Central", "air_conditioning": "yes", "amenity": "restaurant", "branch": "Pasir Ris Mall", "cuisine": "barbecue", "delivery": "yes", "level": "-1", "name": "Yakiniku Like", "name:ja": "\u713c\u8089\u30e9\u30a4\u30af", "opening_hours": "Mo-Su 11:00-22:00", "phone": "+65 6931 2161", "takeaway": "yes"}}, {"type": "node", "id": 12144191540, "lat": 1.3741658, "lon": 103.9489487, "tags": {"addr:city": "Singapore", "addr:housenumber": "7", "addr:postcode": "519612", "addr:street": "Pasir Ris Central", "air_conditioning": "yes", "amenity": "restaurant", "branch": "Pasir Ris Mall", "brand": "\u3084\u3088\u3044\u8ed2", "brand:en": "Yayoiken", "brand:ja": "\u3084\u3088\u3044\u8ed2", "brand:th": "\u0e22\u0e32\u0e42\u0e22\u0e2d\u0e34", "brand:wikidata": "Q11280577", "cuisine": "japanese", "delivery": "yes", "level": "1", "name": "\u3084\u3088\u3044\u8ed2", "name:en": "Yayoiken", "name:ja": "\u3084\u3088\u3044\u8ed2", "name:th": "\u0e22\u0e32\u0e42\u0e22\u0e2d\u0e34", "opening_hours": "Mo-Su 10:30-21:00", "outdoor_seating": "yes", "phone": "+65 6592 0277", "reservation": "yes", "website": "https://www.yayoi.sg/"}}, {"type": "node", "id": 12144191541, "lat": 1.3738911, "lon": 103.9487376, "tags": {"addr:city": "Singapore", "addr:housenumber": "7", "addr:postcode": "519612", "addr:street": "Pasir Ris Central", "air_conditioning": "yes", "amenity": "restaurant", "branch": "Pasir Ris Mall", "contact:facebook": "https://www.facebook.com/yewkeeduck", "cuisine": "chinese", "delivery": "yes", "level": "-2", "name": "Yew Kee Specialities", "takeaway": "yes", "website": "https://ykgi.com.sg/tax_food_types/yew-kee-duck-rice/"}}, {"type": "node", "id": 12144191542, "lat": 1.3734064, "lon": 103.9483902, "tags": {"addr:city": "Singapore", "addr:housenumber": "7", "addr:postcode": "519612", "addr:street": "Pasir Ris Central", "air_conditioning": "yes", "amenity": "restaurant", "branch": "Pasir Ris Mall", "brand": "\u6768\u56fd\u798f\u9ebb\u8fa3\u70eb", "brand:en": "Yangguofu Spicy Hot Pot", "brand:wikidata": "Q108210209", "brand:zh": "\u6768\u56fd\u798f\u9ebb\u8fa3\u70eb", "contact:facebook": "https://www.facebook.com/yangguofu.sg/", "cuisine": "chinese;malatang", "delivery": "yes", "level": "0", "name": "\u6768\u56fd\u798f\u9ebb\u8fa3\u70eb", "name:en": "Yangguofu Spicy Hot Pot", "name:zh": "\u6768\u56fd\u798f\u9ebb\u8fa3\u70eb", "opening_hours": "Mo-Su 11:00-21:30", "takeaway": "yes"}}, {"type": "node", "id": 12150582236, "lat": 1.3560955, "lon": 103.9864906, "tags": {"access": "yes", "addr:floor": "4", "amenity": "restaurant", "check_date": "2024-09-02", "cuisine": "indian", "diet:vegetarian": "yes", "level": "3", "name": "Bikanervala"}}, {"type": "node", "id": 12150582237, "lat": 1.3563642, "lon": 103.986923, "tags": {"addr:floor": "3", "amenity": "restaurant", "check_date": "2024-09-02", "cuisine": "chinese", "level": "2", "name": "Paradise Dynasty"}}, {"type": "node", "id": 12150582238, "lat": 1.3570183, "lon": 103.987268, "tags": {"addr:floor": "2", "amenity": "restaurant", "check_date": "2024-09-02", "cuisine": "vietnamese", "level": "1", "name": "NamNam"}}, {"type": "node", "id": 12192760599, "lat": 1.3476402, "lon": 103.9380006, "tags": {"addr:housenumber": "801 #01-257", "addr:street": "Tampines Ave 4", "amenity": "restaurant", "description": "Ayam & Ikan Penyet", "name": "Zoul's Corner | Tampines", "opening_hours": "Mo-Su 10:00-22:00", "website": "https://zoulcorner.com"}}, {"type": "node", "id": 12206384510, "lat": 1.325481, "lon": 103.9301705, "tags": {"amenity": "restaurant", "name": "Makisan", "wheelchair": "yes"}}, {"type": "node", "id": 12206384511, "lat": 1.325418, "lon": 103.9300914, "tags": {"amenity": "restaurant", "branch": "Hotpot", "brand": "XiaoLongKan", "brand:en": "XiaoLongKan", "brand:wikidata": "Q108212427", "brand:zh": "\u5c0f\u9f99\u574e\u706b\u9505", "cuisine": "chinese;hotpot", "name": "XiaoLongKan", "name:en": "XiaoLongKan", "name:zh": "\u5c0f\u9f99\u574e\u706b\u9505", "wheelchair": "yes"}}, {"type": "node", "id": 12210303065, "lat": 1.4067012, "lon": 103.9021876, "tags": {"amenity": "restaurant", "cuisine": "korean", "level": "1", "name": "Ajumma's"}}, {"type": "node", "id": 12210303066, "lat": 1.4068957, "lon": 103.902059, "tags": {"amenity": "restaurant", "cuisine": "chinese", "level": "1", "name": "Gong Yuan Ma La Tang"}}, {"type": "node", "id": 12245486095, "lat": 1.355272, "lon": 103.9868087, "tags": {"addr:housenumber": "65", "addr:street": "Airport Boulevard", "amenity": "restaurant", "check_date": "2024-10-12", "cuisine": "ramen", "diet:halal": "yes", "level": "-2", "name": "Ichikokudo Hokkaido Ramen"}}, {"type": "node", "id": 12408779555, "lat": 1.3477738, "lon": 103.9517608, "tags": {"addr:city": "Singapore", "addr:housenumber": "280", "addr:postcode": "520280", "addr:street": "Tampines Street 22", "amenity": "restaurant", "cuisine": "asian;indian;chinese;coffee_shop", "name": "Jin Biao Coffee Shop"}}, {"type": "node", "id": 12541117502, "lat": 1.3457613, "lon": 103.9458169, "tags": {"addr:street": "Tampines Street 11", "amenity": "restaurant"}}, {"type": "node", "id": 12541122502, "lat": 1.3457599, "lon": 103.9477417, "tags": {"amenity": "restaurant", "cuisine": "american;indian", "name": "KNS Restaurant"}}, {"type": "node", "id": 12556269849, "lat": 1.3383032, "lon": 103.9838892, "tags": {"addr:floor": "2", "amenity": "restaurant", "check_date": "2025-02-04", "cuisine": "chinese", "level": "1", "name": "Crystal Jade"}}, {"type": "node", "id": 12565999272, "lat": 1.3542874, "lon": 103.9448892, "tags": {"addr:housenumber": "#04-15", "amenity": "restaurant", "cuisine": "chinese", "name": "Dian Xiao Er \u5e97\u5c0f\u4e8c", "phone": "+65 67836068"}}, {"type": "node", "id": 12565999275, "lat": 1.3542079, "lon": 103.9449496, "tags": {"addr:housenumber": "3F", "amenity": "restaurant", "cuisine": "japanese", "name": "Gochi-So Shokudo"}}, {"type": "node", "id": 12565999277, "lat": 1.3543005, "lon": 103.9450653, "tags": {"addr:housenumber": "#04-K2/K3/K7", "addr:street": "Tampines 1", "amenity": "restaurant", "diet:halal": "only", "name": "G\u00e9lare"}}, {"type": "node", "id": 12565999290, "lat": 1.3542985, "lon": 103.9449889, "tags": {"addr:housenumber": "#B1-07/08", "amenity": "restaurant", "name": "Collin's"}}, {"type": "node", "id": 12565999291, "lat": 1.3539433, "lon": 103.9452827, "tags": {"addr:housenumber": "#04-04/05", "amenity": "restaurant", "cuisine": "chinese", "name": "Crystal Jade Hong Kong Kitchen"}}, {"type": "node", "id": 12565999294, "lat": 1.3541798, "lon": 103.945011, "tags": {"addr:housenumber": "#B1-K8", "addr:street": "Tampines 1", "amenity": "restaurant", "diet:vegetarian": "yes", "name": "Greendot"}}, {"type": "node", "id": 12565999298, "lat": 1.3541808, "lon": 103.9449386, "tags": {"addr:housenumber": "#04-12", "addr:street": "Tampines 1", "amenity": "restaurant", "brand": "Pepper Lunch", "cuisine": "teppanyaki", "name": "Pepper Lunch", "not:brand:wikidata": "Q1016072", "takeaway": "yes"}}, {"type": "node", "id": 12566028904, "lat": 1.353892, "lon": 103.9452404, "tags": {"addr:housenumber": "#04-23", "addr:street": "Tampines 1", "amenity": "restaurant", "brand": "Saizeriya", "brand:en": "Saizeriya", "brand:it": "Saizeriya", "brand:ja": "\u30b5\u30a4\u30bc\u30ea\u30e4", "brand:wikidata": "Q886564", "brand:zh": "\u85a9\u8389\u4e9e", "cuisine": "italian", "name": "Saizeriya", "name:en": "Saizeriya", "name:it": "Saizeriya", "name:ja": "\u30b5\u30a4\u30bc\u30ea\u30e4", "name:zh": "\u85a9\u8389\u4e9e"}}, {"type": "node", "id": 12566028905, "lat": 1.3541234, "lon": 103.9452636, "tags": {"addr:housenumber": "#03-25", "addr:street": "Tampines 1", "amenity": "restaurant", "cuisine": "thai", "diet:halal": "only", "name": "Sanook Kitchen"}}, {"type": "node", "id": 12566028907, "lat": 1.3541124, "lon": 103.9449375, "tags": {"addr:housenumber": "#02-15/16/17", "addr:street": "Tampines 1", "amenity": "restaurant", "cuisine": "sushi", "name": "Sushiro \u30b9\u30b7\u30ed\u30fc"}}, {"type": "node", "id": 12566028911, "lat": 1.354056, "lon": 103.9452736, "tags": {"amenity": "restaurant", "name": "Tanyu Grilled Fish"}}, {"type": "node", "id": 12566028914, "lat": 1.3540178, "lon": 103.9451126, "tags": {"addr:housenumber": "#03-K1", "addr:street": "Tampines 1", "amenity": "restaurant", "cuisine": "hokkien", "name": "Tun Xiang"}}, {"type": "node", "id": 12566028917, "lat": 1.3539252, "lon": 103.9451906, "tags": {"addr:housenumber": "#B1-K9", "addr:street": "Tampines 1", "amenity": "restaurant", "name": "\u6709\u8a18 Yew Kee Specialities"}}, {"type": "node", "id": 12566028918, "lat": 1.3540741, "lon": 103.9449867, "tags": {"addr:housenumber": "#04-13", "addr:street": "Tampines 1", "amenity": "restaurant", "cuisine": "japanese", "name": "Sushi Tei"}}, {"type": "node", "id": 12573500733, "lat": 1.3525705, "lon": 103.9438744, "tags": {"addr:housenumber": "#01-01", "addr:street": "Century Square", "amenity": "restaurant", "cuisine": "dimsum", "name": "Swee Choon", "opening_hours": "Mo-Su 09:00-23:00", "wheelchair": "yes"}}, {"type": "node", "id": 12573500735, "lat": 1.3522055, "lon": 103.9439935, "tags": {"addr:housenumber": "#01-21", "addr:street": "Century Square", "amenity": "restaurant", "cuisine": "japanese;beef_bowl", "name": "\u3059\u304d\u5bb6 Sukiya", "opening_hours": "Mo-Su 10:00-22:00", "website": "https://www.sukiya.com.sg/"}}, {"type": "node", "id": 12606919802, "lat": 1.3319463, "lon": 103.9460691, "tags": {"amenity": "restaurant", "name": "Indian Tandoor"}}, {"type": "node", "id": 12666241997, "lat": 1.4152993, "lon": 103.9102172, "tags": {"addr:unit": "123", "amenity": "restaurant", "cuisine": "sushi", "level": "0", "name": "Sushi Tei"}}, {"type": "node", "id": 12666241999, "lat": 1.4150753, "lon": 103.9102144, "tags": {"amenity": "restaurant", "cuisine": "sushi", "level": "1", "name": "Sushi-Go"}}, {"type": "node", "id": 12666250307, "lat": 1.4148529, "lon": 103.9098758, "tags": {"addr:unit": "116", "amenity": "restaurant", "cuisine": "japanese", "level": "0", "name": "Hokkaido-Ya", "opening_hours": "11:30-22:00", "opening_hours:kitchen": "11:30-21:30"}}, {"type": "node", "id": 12666250312, "lat": 1.4152882, "lon": 103.9102915, "tags": {"amenity": "restaurant", "level": "1", "name": "Astons Specialties"}}, {"type": "node", "id": 12666250315, "lat": 1.4147076, "lon": 103.9099556, "tags": {"amenity": "restaurant", "cuisine": "korean", "level": "1", "name": "Ha-Jun Korean"}}, {"type": "node", "id": 12704813398, "lat": 1.3521966, "lon": 103.9536675, "tags": {"addr:city": "Singapore", "addr:housenumber": "201D", "addr:postcode": "524201", "addr:street": "Tampines Street 21", "amenity": "restaurant", "cuisine": "asian", "diet:halal": "yes", "name": "Saffrons", "opening_hours": "24/7", "phone": "+65 9272 6361", "unit": "01-1163", "website": "https://saffrons.com.sg"}}, {"type": "node", "id": 12704833050, "lat": 1.3535681, "lon": 103.9539929, "tags": {"addr:city": "Singapore", "addr:housenumber": "201E", "addr:postcode": "527201", "addr:street": "Tampines Street 23", "amenity": "restaurant", "cuisine": "asian", "diet:halal": "yes", "name": "Afghanistan Family Restaurant", "opening_hours": "Mo-Su 07:00-21:00", "phone": "+65 98294907"}}, {"type": "node", "id": 12704844910, "lat": 1.3522288, "lon": 103.9534059, "tags": {"addr:city": "Singapore", "addr:housenumber": "201D", "addr:postcode": "524201", "addr:street": "Tampines Street 21", "amenity": "restaurant", "cuisine": "western;asian", "diet:halal": "yes", "diet:meat": "yes", "name": "Craze Kitchen", "opening_hours": "Mo-Su 11:30-22:00", "phone": "+65 69700287", "website": "https://crazekitchen.com/"}}, {"type": "node", "id": 12705014658, "lat": 1.3528994, "lon": 103.952929, "tags": {"addr:city": "Singapore", "addr:housenumber": "201C", "addr:postcode": "01-01", "addr:street": "Tampines Street 21", "amenity": "restaurant", "cuisine": "asian", "diet:halal": "yes", "name": "KhairunMiyah", "opening_hours": "Mo-Thu 06:00-21:30; Fri 06:00-12:30; 15:00-21:30", "phone": "+65 93381545"}}, {"type": "node", "id": 12705064900, "lat": 1.361153, "lon": 103.9535354, "tags": {"addr:city": "Singapore", "addr:housenumber": "476", "addr:postcode": "520476", "addr:street": "Tampines Street 44", "amenity": "restaurant", "cuisine": "asian", "diet:halal": "yes", "name": "Mr Prata", "opening_hours": "Mo-Su 06:00-03:00", "phone": "+65 67841677"}}, {"type": "node", "id": 12721903373, "lat": 1.3734482, "lon": 103.9483475, "tags": {"addr:city": "Singapore", "addr:housenumber": "7", "addr:postcode": "519612", "addr:street": "Pasir Ris Central", "air_conditioning": "yes", "amenity": "restaurant", "cuisine": "thai", "delivery": "yes", "level": "0", "name": "Khao Hom by Rung Mama", "opening_hours": "Mo-Su 11:00-22:00", "phone": "+65 83210462", "reservation": "yes", "takeaway": "yes", "website": "https://www.khaohomsg.com/"}}, {"type": "node", "id": 12721903374, "lat": 1.3724206, "lon": 103.9496899, "tags": {"addr:city": "Singapore", "addr:housenumber": "1", "addr:postcode": "518457", "addr:street": "Pasir Ris Central Street 3", "air_conditioning": "yes", "amenity": "restaurant", "cuisine": "sushi", "delivery": "yes", "diet:halal": "yes", "level": "-1", "name": "Super Sushi", "opening_hours": "Mo-Su 10:00-21:30", "phone": "+65 91881687", "takeaway": "only", "website": "https://linktr.ee/supersushisg"}}, {"type": "node", "id": 12721903383, "lat": 1.3722834, "lon": 103.9495712, "tags": {"addr:city": "Singapore", "addr:housenumber": "1", "addr:postcode": "518457", "addr:street": "Pasir Ris Central Street 3", "air_conditioning": "yes", "amenity": "restaurant", "cuisine": "taiwanese", "delivery": "yes", "level": "0", "name": "Eat 3 Bowls", "opening_hours": "Mo-Su 10:30-22:30", "phone": "+65 9828 2408", "reservation": "no", "takeaway": "yes", "website": "https://eat3bowls.oddle.me/en_SG/"}}, {"type": "node", "id": 12721903400, "lat": 1.3725317, "lon": 103.9498342, "tags": {"addr:city": "Singapore", "addr:housenumber": "1", "addr:postcode": "518457", "addr:street": "Pasir Ris Central Street 3", "air_conditioning": "yes", "amenity": "restaurant", "contact:facebook": "https://www.facebook.com/PouletSingapore/", "cuisine": "french", "diet:halal": "yes", "level": "1", "name": "Poulet", "opening_hours": "Mo-Su 11:30-22:00", "phone": "+65 6214 0960", "website": "https://www.poulet.com.sg/"}}, {"type": "node", "id": 12721913407, "lat": 1.3722611, "lon": 103.9499441, "tags": {"addr:city": "Singapore", "addr:housenumber": "1", "addr:postcode": "518457", "addr:street": "Pasir Ris Central Street 3", "air_conditioning": "yes", "amenity": "restaurant", "cuisine": "japanese;beef_bowl", "diet:halal": "yes", "name": "Sukiya", "name:ja": "\u3059\u304d\u5bb6", "opening_hours": "Mo-Su 10:00-21:30", "website": "https://www.sukiya.com.sg/"}}, {"type": "node", "id": 12721913420, "lat": 1.3734611, "lon": 103.9482766, "tags": {"addr:city": "Singapore", "addr:housenumber": "7", "addr:postcode": "519612", "addr:street": "Pasir Ris Central", "air_conditioning": "yes", "amenity": "restaurant", "cuisine": "korean", "delivery": "yes", "level": "0", "name": "I'm Kim Korean BBQ & Shabu Shabu", "opening_hours": "Mo-Th 11:30-16:00,17:30-21:30; Fr 11:30-16:00,17:30-22:30; Sa-Su 11:30-16:30,17:00-22:30", "outdoor_seating": "no", "phone": "+65 8033 2734", "reservation": "yes", "smoking": "no", "takeaway": "yes", "website": "https://kingdomfood.sg/im-kim-korean-bbq-shabu-shabu/", "website:menu": "https://kingdomfood.sg/im-kim-korean-bbq-shabu-shabu/"}}, {"type": "node", "id": 12796970275, "lat": 1.4209367, "lon": 103.9119495, "tags": {"amenity": "restaurant", "level": "1", "name": "Siam Square Mookata"}}, {"type": "node", "id": 12796970279, "lat": 1.4210218, "lon": 103.9119477, "tags": {"amenity": "restaurant", "level": "0", "name": "House of Seafood", "name:en": "House of Seafood", "name:zh": "\u8783\u87f9\u4e4b\u5bb6"}}, {"type": "node", "id": 12796970280, "lat": 1.4206668, "lon": 103.9124746, "tags": {"amenity": "restaurant", "name": "Xin Yan Korean Live Show BBQ"}}, {"type": "node", "id": 12797005508, "lat": 1.4151968, "lon": 103.9105486, "tags": {"amenity": "restaurant", "brand": "Din Tai Fung", "brand:en": "Din Tai Fung", "brand:wikidata": "Q699142", "brand:zh": "\u9f0e\u6cf0\u8c50", "cuisine": "taiwanese", "level": "0", "name": "Din Tai Fung", "name:en": "Din Tai Fung", "name:zh": "\u9f0e\u6cf0\u8c50"}}, {"type": "node", "id": 12797074414, "lat": 1.4176525, "lon": 103.901564, "tags": {"amenity": "restaurant", "level": "1", "name": "PratuNam"}}, {"type": "node", "id": 12959414358, "lat": 1.3653462, "lon": 103.9368045, "tags": {"addr:city": "Singapore", "addr:housenumber": "614", "addr:postcode": "520614", "addr:street": "Tampines North Drive 1", "air_conditioning": "yes", "amenity": "restaurant", "brand": "Pizza Hut", "brand:wikidata": "Q191615", "cuisine": "pizza", "delivery": "yes", "name": "Pizza Hut", "opening_hours": "Mo-Su 11:00-22:00", "payment:cash": "yes", "payment:credit_cards": "yes", "payment:debit_cards": "yes", "phone": "+65 6719 6096", "takeaway": "yes", "website": "https://www.pizzahut.com.sg/home"}}, {"type": "node", "id": 12959415818, "lat": 1.3539192, "lon": 103.9404343, "tags": {"addr:city": "Singapore", "addr:housenumber": "1", "addr:postcode": "528523", "addr:street": "Tampines Walk", "air_conditioning": "yes", "amenity": "restaurant", "cuisine": "korean", "level": "01-101", "name": "Jinjja Kitchen", "opening_hours": "sun-thurs: 11am - 8.30pm & fri - sun: 11am - 9pm", "payment:cash": "yes", "payment:contactless": "yes", "payment:credit_cards": "yes", "payment:debit_cards": "yes", "website": "https://www.jinjjachicken.com"}}, {"type": "node", "id": 12959425278, "lat": 1.3539307, "lon": 103.9402949, "tags": {"addr:city": "Singapore", "addr:housenumber": "1", "addr:postcode": "528523", "addr:street": "Tampines Walk", "air_conditioning": "yes", "amenity": "restaurant", "cuisine": "thai", "delivery": "yes", "level": "01-100", "name": "Saap Saap Thai", "opening_hours": "Mo-Su 11:00 - 21:30", "website": "https://www.saapsaapthai.sg"}}, {"type": "node", "id": 12979189284, "lat": 1.349025, "lon": 103.9326224, "tags": {"addr:housenumber": "824", "addr:street": "Tampines Street 81", "amenity": "restaurant", "cuisine": "japanese", "name": "Little Tokyo", "outdoor_seating": "yes"}}, {"type": "node", "id": 12979189285, "lat": 1.3495583, "lon": 103.9323686, "tags": {"addr:housenumber": "825", "addr:street": "Tampines Street 81", "amenity": "restaurant", "cuisine": "asian;indonesian", "diet:halal": "yes", "name": "Bobmi"}}, {"type": "node", "id": 12979189286, "lat": 1.3490824, "lon": 103.9324834, "tags": {"amenity": "restaurant", "cuisine": "thai", "name": "Soi Thai Kitchen", "outdoor_seating": "yes"}}, {"type": "way", "id": 130508809, "nodes": [1437194716, 2604539232, 2604539233, 1437194718, 2604539230, 2604539231, 2604539229, 2604539225, 2604539223, 2604539224, 1437194714, 1437194715, 2604539227, 2604539228, 1437194716], "tags": {"amenity": "restaurant", "building": "yes", "cuisine": "regional", "name": "Hornbill Restaurant"}}, {"type": "way", "id": 173243154, "nodes": [1840906116, 1840906102, 1840905869, 1840906101, 1840906116], "tags": {"addr:city": "Singapore", "addr:housenumber": "60", "addr:postcode": "828825", "addr:street": "Punggol Central", "amenity": "restaurant", "branch": "Punggol East", "building": "yes", "building:levels": "1", "drive_through": "yes", "name": "Tenderbest Makcik Tuckshop", "opening_hours": "Mo-Fr 11:00-22:30; Sa 08:30-22:30", "source": "local knowledge", "website": "https://www.tenderfresh.com.sg/tenderbestmakciktuckshop"}}, {"type": "way", "id": 188291855, "nodes": [1989200164, 1989200165, 1989200166, 5272902004, 1989200164], "tags": {"amenity": "restaurant", "building": "yes"}}, {"type": "way", "id": 188846429, "nodes": [1994801746, 1994801748, 1994801750, 1994801753, 1994801760, 1994801762, 1994811275, 1994801764, 1994801766, 1994801768, 1994801769, 1994801772, 1994801773, 1994801774, 1994801775, 1994801776, 1994801777, 1994801778, 1994811269, 1994801780, 1994801782, 1994801784, 1994801746], "tags": {"amenity": "restaurant", "bar": "no", "contact:facebook": "https://www.facebook.com/smithmarine", "contact:whatsapp": "https://wa.me/6597927609", "cuisine": "chinese;seafood", "diet:halal": "yes", "name": "Smith Marine Floating Restaurant", "payment:american_express": "no", "payment:cash": "yes", "payment:credit_cards": "no", "payment:debit_cards": "no", "payment:mastercard": "no", "payment:nets": "no", "payment:paylah": "yes", "payment:paynow": "yes", "payment:sgqr": "yes", "payment:visa": "no", "reservation": "required", "seamark:hulk:category": "floating_restaurant", "seamark:name": "Smith Marine Floating Restaurant", "seamark:type": "hulk", "website": "https://smithmarine.com.sg/"}}, {"type": "way", "id": 222452372, "nodes": [2314266823, 2314266817, 2314266820, 2314266825, 2314266823], "tags": {"amenity": "restaurant", "building": "retail", "name": "Season Live Seafood", "wheelchair": "yes"}}, {"type": "way", "id": 309312315, "nodes": [3146488308, 3146488235, 3146488260, 3146488232, 3146488308], "tags": {"amenity": "restaurant", "building": "yes", "wheelchair": "limited"}}, {"type": "way", "id": 315753905, "nodes": [3218854653, 3218854654, 3218854655, 3218854656, 3218854657, 3218854658, 3218854653], "tags": {"addr:housenumber": "1000", "addr:postcode": "507707", "addr:street": "Upper Changi Road North", "amenity": "restaurant", "building": "yes", "cuisine": "international", "name": "The Bark Cafe", "opening_hours": "Mo-Su 11:00-01:00", "phone": "+6565454118"}}, {"type": "way", "id": 345696473, "nodes": [3523415337, 3523415338, 3523415339, 3523415340, 5280505697, 3523415341, 3523415342, 5280505696, 3523415343, 3523415344, 3523415345, 3523415346, 3523415347, 3523415348, 3523415349, 3523415350, 3523415351, 3523415352, 3523415337], "tags": {"addr:street": "Netheravon Road", "amenity": "restaurant", "building": "yes", "name": "Turnhouse Bistro & Bar", "source": "Kaart Ground Survey 2017"}}, {"type": "way", "id": 364429944, "nodes": [3684757301, 3684757294, 3684757286, 3684757277, 3684757281, 3684757301], "tags": {"amenity": "restaurant", "building:levels": "2", "building:part": "yes"}}, {"type": "way", "id": 364429951, "nodes": [3684757309, 3684757312, 3684757317, 3684757315, 3684757309], "tags": {"amenity": "restaurant", "building:levels": "2", "building:part": "yes", "cuisine": "asian", "indoor_seating": "yes", "outdoor_seating": "no"}}, {"type": "way", "id": 364429963, "nodes": [3684757308, 3684757297, 3684757295, 3684757306, 3684757308], "tags": {"amenity": "restaurant", "brand": "Ippudo", "brand:en": "Ippudo", "brand:ja": "\u4e00\u98a8\u5802", "brand:wikidata": "Q6065417", "building:levels": "2", "building:part": "yes", "cuisine": "ramen", "indoor_seating": "yes", "name": "Ippudo Express", "name:en": "Ippudo", "name:ja": "\u4e00\u98a8\u5802", "outdoor_seating": "no"}}, {"type": "way", "id": 364429982, "nodes": [3684764345, 3684764343, 3684764335, 3684764337, 3684764345], "tags": {"amenity": "restaurant", "building:levels": "2", "building:part": "yes", "cuisine": "noodle"}}, {"type": "way", "id": 364429991, "nodes": [3684764330, 3684757324, 3684757322, 3684764327, 3684764330], "tags": {"amenity": "restaurant", "building:levels": "2", "building:part": "yes", "cuisine": "asian", "indoor_seating": "yes", "outdoor_seating": "no"}}, {"type": "way", "id": 397219557, "nodes": [6237348685, 4000370264, 4000370265, 4000370266, 6237348685], "tags": {"amenity": "restaurant", "building": "yes", "name": "Tang Tea house", "name:zh": "\u7cd6\u671d\u8336\u9910\u5385", "roof:colour": "#ac6f79", "roof:material": "roof_tiles", "roof:shape": "equal_hipped"}}, {"type": "way", "id": 486694737, "nodes": [4792676603, 4792676604, 4792676605, 4792676606, 4792676607, 4792676608, 4792676603], "tags": {"amenity": "restaurant", "building": "yes", "name": "Rahmat Seafood", "smoking": "yes", "takeaway": "yes"}}, {"type": "way", "id": 734005404, "nodes": [6874352979, 6874352980, 6874352981, 6874352982, 6874352983, 6874352984, 6874352985, 6874352986, 6874352991, 6873277960, 6873277959, 6874352994, 6873277974, 6873277975, 6873277984, 6873277986, 6873277989, 6874352979], "tags": {"addr:city": "Singapore", "addr:housenumber": "171", "addr:postcode": "540171", "addr:street": "Sengkang East Drive", "amenity": "restaurant", "building": "commercial"}}, {"type": "way", "id": 743532094, "nodes": [6966049386, 6966050385, 6966050386, 6968039092, 6966050485, 6966022187, 6966050486, 6966049387, 6966049388, 6966050585, 6966049386], "tags": {"amenity": "restaurant", "brand": "Din Tai Fung", "brand:en": "Din Tai Fung", "brand:wikidata": "Q699142", "brand:zh": "\u9f0e\u6cf0\u8c50", "cuisine": "taiwanese", "indoor": "room", "level": "2", "name": "Din Tai Fung", "name:en": "Din Tai Fung", "name:zh": "\u9f0e\u6cf0\u8c50", "room": "restaurant"}}, {"type": "way", "id": 743532095, "nodes": [6966050487, 6966022187, 6966049389, 6966049390, 6966050487], "tags": {"amenity": "restaurant", "level": "2", "name": "Nectar"}}, {"type": "way", "id": 743532096, "nodes": [6966021489, 6966045986, 6959226450, 6966021490, 6966050685, 6966050785, 6966045989, 6966045987, 6966049391, 6966049392, 6966021491, 6966049393, 6966050686, 6966021492, 6966021489], "tags": {"amenity": "restaurant", "indoor": "room", "level": "2", "name": "Tapas Club", "room": "restaurant"}}, {"type": "way", "id": 743532098, "nodes": [6968039096, 6968039097, 6966045991, 6966022188, 6966019985, 6966050687, 6966050688, 6959225898, 6959250785, 6959250688, 6959225897, 6959225896, 6959250687, 6959250686, 6959250685, 6959250299, 6959250298, 6968039096], "tags": {"amenity": "restaurant", "indoor": "room", "level": "2", "name": "SushiTei", "room": "restaurant"}}, {"type": "way", "id": 743532099, "nodes": [6959250297, 6959250296, 6968039100, 6968039101, 6959250293, 6959250292, 6959250291, 6959250290, 6966128085, 6959225909, 6966128185, 6959250287, 6959225907, 6959250286, 6959250285, 6966020085, 6959250297], "tags": {"amenity": "restaurant", "indoor": "room", "level": "2", "name": "Ya's Kitchen", "room": "restaurant"}}, {"type": "way", "id": 743758475, "nodes": [6759014971, 6759014972, 6759014973, 6961051091, 6961050994, 6961051092, 6961051287, 6961050995, 6961051093, 6961051288, 6961050996, 6961051387, 6961051090, 6759014971], "tags": {"addr:housenumber": "#01-205-206", "amenity": "restaurant", "cuisine": "chinese;indian;malay", "indoor": "room", "level": "0", "name": "Violet Oon Singapore", "opening_hours": "Mo-Su 10:00-22:00", "room": "restaurant"}}, {"type": "way", "id": 743758484, "nodes": [6961002318, 6961002395, 6961002319, 6961002320, 6961002487, 6961002321, 6961002688, 6961002587, 6961051009, 6961051104, 6961051011, 6961051292, 6961051388, 6961002318], "tags": {"amenity": "restaurant", "indoor": "room", "level": "0", "name": "Nomono (JW360\u00b0)", "room": "restaurant"}}, {"type": "way", "id": 743758485, "nodes": [6961051009, 6961051103, 6961002323, 6961002322, 6961002587, 6961051009], "tags": {"amenity": "restaurant", "indoor": "room", "level": "0", "name": "Bee Cheng Hiang", "room": "restaurant"}}, {"type": "way", "id": 743758654, "nodes": [6961002389, 6961002302, 6961051391, 6961051118, 6961051022, 6961051023, 6961051303, 6961051024, 6961051025, 6961051119, 6961051026, 6961051304, 6956299315, 6944062881, 6944062865, 6944062864, 6961002295, 6961002296, 6961002388, 6961002685, 6961002297, 6961002298, 6961051021, 6961051117, 6961002389], "tags": {"amenity": "restaurant", "indoor": "room", "level": "0", "name": "Shang Social", "room": "restaurant"}}, {"type": "way", "id": 744297791, "nodes": [6966128486, 6966126786, 6959226493, 6959226494, 6959226495, 6959226496, 6966126787, 6966128187, 6959226587, 6959226685, 6959226686, 6966126788, 6966128486], "tags": {"amenity": "restaurant", "indoor": "room", "level": "2", "name": "Earle Swensen's", "room": "restaurant"}}, {"type": "way", "id": 744297802, "nodes": [6966019989, 6959226396, 6959226397, 6959226398, 6959226399, 6966129585, 6966128402, 6966128403, 6966128404, 6966128497, 6966128091, 6966128498, 6961249907, 6961249911, 6961249912, 6961249918, 6966020189, 6966019990, 6966019989], "tags": {"amenity": "restaurant", "indoor": "room", "level": "2", "name": "Samsui", "room": "restaurant"}}, {"type": "way", "id": 744297803, "nodes": [6959226407, 6959226406, 6959226405, 6959226404, 6959226403, 6966128405, 6966128406, 6966128407, 6966128092, 6959226407], "tags": {"amenity": "restaurant", "indoor": "room", "level": "2", "name": "Suage Hokkaido Soup Curry", "room": "restaurant"}}, {"type": "way", "id": 744297805, "nodes": [6966128408, 6966128409, 6966128499, 6959226413, 6959226414, 6959226415, 6966128410, 6966128411, 6966128500, 6966128191, 6966128501, 6966128502, 6966128408], "tags": {"amenity": "restaurant", "brand": "PizzaExpress", "brand:wikidata": "Q662845", "brand:wikipedia": "en:PizzaExpress", "cuisine": "pizza", "indoor": "room", "level": "2", "name": "PizzaExpress", "room": "restaurant"}}, {"type": "way", "id": 744297807, "nodes": [6966128503, 6959226433, 6959226434, 6966128504, 6966128503], "tags": {"amenity": "restaurant", "indoor": "room", "level": "2", "name": "Sankranti", "room": "restaurant"}}, {"type": "way", "id": 744297808, "nodes": [6966128504, 6959226420, 6959226419, 6966128505, 6966126801, 6966126802, 6959226436, 6959226435, 6959226434, 6966128504], "tags": {"amenity": "restaurant", "indoor": "room", "level": "2", "name": "Eggs 'n Things", "room": "restaurant"}}, {"type": "way", "id": 744297812, "nodes": [6966126802, 6966126803, 6966128506, 6966126804, 6966126805, 6966128588, 6966126806, 6966128507, 6959226440, 6959226439, 6959226436, 6966126802], "tags": {"amenity": "restaurant", "indoor": "room", "level": "2", "name": "Sama Sama by Tok Tok", "room": "restaurant"}}, {"type": "way", "id": 744297813, "nodes": [6959226392, 6959226393, 6959226394, 6966019988, 6966020186, 6966019987, 6961250102, 6961398763, 6965920178, 6966128412, 6966128508, 6959226392], "tags": {"amenity": "restaurant", "indoor": "room", "level": "2", "name": "Jumbo Seafood", "name:zh": "\u73cd\u5b9d\u6d77\u9c9c\u697c", "room": "restaurant"}}, {"type": "way", "id": 744315260, "nodes": [6966232388, 6966259188, 6966289091, 6966259224, 6966259225, 6966273015, 6966232286, 6966232386, 6966232387, 6966232388], "tags": {"amenity": "restaurant", "indoor": "room", "level": "1", "name": "Tim Ho Wan", "room": "restaurant"}}, {"type": "way", "id": 744315265, "nodes": [6966272986, 6966289093, 6966289094, 6966273018, 6966259232, 6966338387, 6966259233, 6966259234, 6966259235, 6966273019, 6966273020, 6966259236, 6966259237, 6966288885, 6966272986], "tags": {"amenity": "restaurant", "indoor": "room", "level": "1", "name": "Yun Nans \u4e91\u6d77\u80b4", "room": "restaurant"}}, {"type": "way", "id": 744315266, "nodes": [6966258598, 6966289085, 6966259238, 6966273021, 6966259241, 6966273022, 6966289095, 6966343286, 6966273024, 6966273025, 6966259239, 6966259240, 6966258598], "tags": {"amenity": "restaurant", "indoor": "room", "level": "1", "name": "El Fuego by Collin\u2019s", "room": "restaurant"}}, {"type": "way", "id": 744315271, "nodes": [6966273026, 6966259251, 6966258600, 6966259191, 6966289097, 6966273026], "tags": {"amenity": "restaurant", "indoor": "room", "level": "1", "name": "Tonkatsu by Ma Maison", "room": "restaurant"}}, {"type": "way", "id": 744315272, "nodes": [6966259251, 6966259252, 6966232290, 6966232289, 6966232288, 6966232485, 6966258600, 6966259251], "tags": {"amenity": "restaurant", "indoor": "room", "level": "1", "name": "Kam's Roast", "room": "restaurant"}}, {"type": "way", "id": 744315273, "nodes": [6966232389, 6966273027, 6966259253, 6966259254, 6966273031, 6966259255, 6966273028, 6966289099, 6966259256, 6966273029, 6966259257, 6966259258, 6966273030, 6966259192, 6966272987, 6966258602, 6966258601, 6966232293, 6966232292, 6966232389], "tags": {"amenity": "restaurant", "indoor": "room", "level": "1", "name": "Xiao Bin Lou \u5c0f\u6ee8\u697c", "room": "restaurant"}}, {"type": "way", "id": 744315492, "nodes": [6966290687, 6966273052, 6966290688, 6966289110, 6966290689, 6966290690, 6966289111, 6966290691, 6966290692, 6966290693, 6966288899, 6966290687], "tags": {"amenity": "restaurant", "indoor": "room", "level": "1", "name": "Putien", "room": "restaurant"}}, {"type": "way", "id": 744315493, "nodes": [6966289111, 6966273053, 6966273054, 6966290694, 6966289110, 6966290689, 6966290690, 6966289111], "tags": {"amenity": "restaurant", "indoor": "room", "level": "1", "name": "Tonito", "room": "restaurant"}}, {"type": "way", "id": 744315500, "nodes": [6966290696, 6966290697, 6966290698, 6966290699, 6966289291, 6966290700, 6966290696], "tags": {"amenity": "restaurant", "indoor": "room", "level": "1", "room": "restaurant"}}, {"type": "way", "id": 744315501, "nodes": [6966290696, 6966290701, 6966290702, 6966289112, 6966290697, 6966290696], "tags": {"amenity": "restaurant", "indoor": "room", "level": "1", "name": "Kko Kko Nara", "room": "restaurant"}}, {"type": "way", "id": 744315503, "nodes": [6966289113, 6966290702, 6966290701, 6966289292, 6966289293, 6966289294, 6966289113], "tags": {"amenity": "restaurant", "indoor": "room", "level": "1", "name": "Japanese Soba Noodles Tsuta", "room": "restaurant"}}, {"type": "way", "id": 744315507, "nodes": [6966259281, 6966288898, 6966289108, 6966232299, 6966232390, 6968694486, 6966259281], "tags": {"amenity": "restaurant", "indoor": "room", "level": "1", "name": "Lady M", "room": "restaurant", "wheelchair": "yes"}}, {"type": "way", "id": 744342475, "nodes": [6966538598, 6966538629, 6966530698, 6966538995, 6966538599, 6966538598], "tags": {"amenity": "restaurant", "indoor": "room", "level": "4", "name": "Aloha Pok\u00e9"}}, {"type": "way", "id": 744342476, "nodes": [6966538995, 6966538814, 6966507442, 6966538815, 6966538896, 6966538601, 6966538600, 6966538630, 6966538995], "tags": {"amenity": "restaurant", "indoor": "room", "level": "4", "name": "Arteastiq Bistro"}}, {"type": "way", "id": 744342477, "nodes": [6966530699, 6966530700, 6966541188, 6966538913, 6966507410, 6966507429, 6966538619, 6966539987, 6966530699], "tags": {"amenity": "restaurant", "indoor": "room", "level": "4", "name": "Rumours Bar and Grill", "room": "restaurant"}}, {"type": "way", "id": 744342478, "nodes": [6966530699, 6966363312, 6966343302, 6966343301, 6966538804, 6966538905, 6966538618, 6966538987, 6966539987, 6966530699], "tags": {"amenity": "restaurant", "indoor": "room", "level": "4", "name": "Herit8ge", "name:en": "Herit8ge", "name:zh": "\u56de\u5fc6", "room": "restaurant"}}, {"type": "way", "id": 744347145, "nodes": [6967989743, 6966538827, 6966539998, 6966539003, 6966560112, 6966583289, 6966541120, 6966541121, 6966560110, 6966560111, 6966541118, 6966541119, 6967989743], "tags": {"amenity": "restaurant", "indoor": "room", "level": "3", "name": "Paradise Classic", "room": "restaurant"}}, {"type": "way", "id": 744528897, "nodes": [6968144294, 6968143209, 6968149584, 6968157985, 6968144294], "tags": {"amenity": "restaurant", "indoor": "room", "level": "-2", "name": "Sankranti, Changi express", "room": "restaurant"}}, {"type": "way", "id": 744528902, "nodes": [6968144295, 6968143213, 6968143212, 6968143211, 6968144295], "tags": {"amenity": "restaurant", "indoor": "room", "level": "-2", "name": "Emack & Bolio's", "room": "restaurant"}}, {"type": "way", "id": 744529534, "nodes": [6968144486, 6968144193, 6968143324, 6968144302, 6968143452, 6968143445, 6968144486], "tags": {"amenity": "restaurant", "indoor": "room", "level": "-2", "name": "Irvins Salted Egg", "room": "restaurant"}}, {"type": "way", "id": 744529538, "nodes": [6968143445, 6968143325, 6968143451, 6968143452, 6968143445], "tags": {"amenity": "restaurant", "indoor": "room", "level": "-2", "name": "Project Pizza", "room": "restaurant"}}, {"type": "way", "id": 744529539, "nodes": [6968143452, 6968143451, 6968143721, 6968144306, 6968144302, 6968143452], "tags": {"amenity": "restaurant", "indoor": "room", "level": "-2", "name": "Juewei", "room": "restaurant"}}, {"type": "way", "id": 744529540, "nodes": [6968143324, 6968144302, 6968144306, 6968143455, 6968157991, 6968144307, 6968143324], "tags": {"amenity": "restaurant", "indoor": "room", "level": "-2", "name": "I Love Taimei", "room": "restaurant"}}, {"type": "way", "id": 744529541, "nodes": [6968143718, 6968144307, 6968157991, 6968143326, 6968143447, 6968143718], "tags": {"amenity": "restaurant", "indoor": "room", "level": "-2", "name": "Swatow Kitchen", "room": "restaurant"}}, {"type": "way", "id": 744529542, "nodes": [6968143447, 6968143326, 6968144309, 6968143456, 6968143449, 6968143447], "tags": {"amenity": "restaurant", "indoor": "room", "level": "-2", "name": "Stuff'd", "room": "restaurant"}}, {"type": "way", "id": 744529543, "nodes": [6968143456, 6968143518, 6968143310, 6968144194, 6968144305, 6968143450, 6968143449, 6968143456], "tags": {"amenity": "restaurant", "indoor": "room", "level": "-2", "name": "Big Bird", "room": "restaurant"}}, {"type": "way", "id": 744905685, "nodes": [6972809688, 6972817991, 6972818893, 6972819585, 6972809688], "tags": {"amenity": "restaurant", "indoor": "room", "level": "2", "name": "TGM / Root 98", "room": "restaurant"}}, {"type": "way", "id": 744905686, "nodes": [6972818894, 6972817992, 6972818095, 6972819586, 6972818894], "tags": {"amenity": "restaurant", "cuisine": "chinese", "indoor": "room", "level": "2", "name": "Terrace Chinese Kitchen"}}, {"type": "way", "id": 744905688, "nodes": [6972809690, 6972818895, 6972818097, 6972809692, 6972809691, 6972809690], "tags": {"amenity": "restaurant", "indoor": "room", "level": "2", "name": "Andes by Astons", "room": "restaurant"}}, {"type": "way", "id": 744905689, "nodes": [6972818896, 6972809692, 6972819587, 6972819588, 6972818896], "tags": {"amenity": "restaurant", "indoor": "room", "level": "2", "name": "Teahouse", "room": "restaurant"}}, {"type": "way", "id": 744909655, "nodes": [6972935397, 6972974991, 6972935398, 6972974888, 6972975187, 6972937794, 6972937795, 6972937796, 6972935397], "tags": {"amenity": "restaurant", "indoor": "room", "level": "2", "name": "O'Leary Sports Restaurant", "room": "restaurant"}}, {"type": "way", "id": 744909656, "nodes": [6972937794, 6972975188, 6973215197, 6972935395, 6972937797, 6972975187, 6972937794], "tags": {"amenity": "restaurant", "indoor": "room", "level": "2", "name": "I Love Taimei", "room": "restaurant"}}, {"type": "way", "id": 744909659, "nodes": [6972975286, 6972937800, 6972935402, 6972935403, 6972975286], "tags": {"amenity": "restaurant", "indoor": "room", "level": "2", "name": "24Hr Food Gallery", "room": "restaurant"}}, {"type": "way", "id": 854418825, "nodes": [7968049746, 7968049745, 7968049744, 7968049743, 7968049746], "tags": {"amenity": "restaurant", "building": "yes", "name": "Bistro Neigh", "wheelchair": "yes"}}, {"type": "way", "id": 1117209911, "nodes": [10218223532, 10218223533, 10218223534, 10218223535, 10218223532], "tags": {"amenity": "restaurant", "building": "yes"}}, {"type": "way", "id": 1175894922, "nodes": [10926199081, 10926199082, 10926199083, 10926199084, 10926199081], "tags": {"addr:housenumber": "901", "addr:postcode": "479266", "addr:street": "Bedok Reservoir Road", "amenity": "restaurant", "building": "yes", "cuisine": "german", "name": "Wawawa Bistro", "website": "http://www.wawawa.com.sg", "wheelchair": "limited"}}]}